{
  "type": "FeatureCollection",
  "features": [
    {
      "type": "Feature",
      "properties": {"id": "r-sg-ok", "L_AEQ": 37.5, "I_LDEN": 39.0},
      "geometry": {"type": "Point", "coordinates": [4.899771280841674, 52.003869744782]}
    },
    {
      "type": "Feature",
      "properties": {"id": "r-sg-hi", "L_AEQ": 43.8, "I_LDEN": 46.0},
      "geometry": {"type": "Point", "coordinates": [5.102129523430985, 52.14929274164173]}
    },
    {
      "type": "Feature",
      "properties": {"id": "r-sg-hi2", "L_AEQ": 41.2, "I_LDEN": 43.0},
      "geometry": {"type": "Point", "coordinates": [5.061917417142705, 52.1637757683302]}
    },
    {
      "type": "Feature",
      "properties": {"id": "r-sg-mid", "L_AEQ": 39.5, "I_LDEN": 41.0},
      "geometry": {"type": "Point", "coordinates": [5.2752485397989535, 52.03586307565293]}
    },
    {
      "type": "Feature",
      "properties": {"id": "r-out", "L_AEQ": 55.0, "I_LDEN": 58.0},
      "geometry": {"type": "Point", "coordinates": [5.05, 52.05]}
    }
  ]
}
