{
  "type": "FeatureCollection",
  "features": [
    {
      "type": "Feature",
      "properties": {"id": "r-kern-ok", "L_AEQ": 38.2, "I_LDEN": 40.0},
      "geometry": {"type": "Point", "coordinates": [5.12, 52.095]}
    },
    {
      "type": "Feature",
      "properties": {"id": "r-kern-hi", "L_AEQ": 42.5, "I_LDEN": 44.0},
      "geometry": {"type": "Point", "coordinates": [5.125, 52.098]}
    },
    {
      "type": "Feature",
      "properties": {"id": "r-buf-ok", "L_AEQ": 43.0, "I_LDEN": 45.0},
      "geometry": {"type": "Point", "coordinates": [5.135, 52.095]}
    },
    {
      "type": "Feature",
      "properties": {"id": "r-buf-hi", "L_AEQ": 47.1, "I_LDEN": 49.0},
      "geometry": {"type": "Point", "coordinates": [5.138, 52.098]}
    },
    {
      "type": "Feature",
      "properties": {"id": "r-out", "L_AEQ": 55.0, "I_LDEN": 58.0},
      "geometry": {"type": "Point", "coordinates": [5.05, 52.05]}
    }
  ]
}
