{"type": "FeatureCollection", "name": "agrest-ov-gebied-gesloten-stortplaats", "crs": {"type": "name", "properties": {"name": "EPSG:28992"}}, "features": [{"type": "Feature", "id": "58106", "properties": {"OBJECTID": "58106", "LOCATIEGROEP_ID": "nl.imow-pv26.gebiedengroep.003000000000000000000827", "SYMBOOL_CODE": "vszt003", "GROEP": "stortplaats (gesloten)", "9e750651-8e97-4bc6-b09e-fc30b5f3e83c_id": "8767", "LOCATIE_ID": "nl.imow-pv26.gebied.003000000000000000000827e118753", "DOCUMENT_URL": "https://omgevingsbeleid.provincie-utrecht.nl/home?d=/akn/nl/act/pv26/2022/omgevingsverordening/nld@1089&o=", "NAAM": "Gebied gesloten stortplaats", "TYPE": "bodem", "LOCATIEGROEP_NAAM": "Gebied gesloten stortplaats", "LOCATIE_NAAM": null}, "geometry": {"type": "Polygon", "coordinates": [[[156022.03400000185, 468100.0920000002], [156118.1099999994, 468206.436999999], [156120.87000000104, 468217.55999999866], [156315.2419999987, 468431.66899999976], [156287.83700000122, 468436.7340000011], [156261.51999999955, 468441.5329999998], [156255.72100000083, 468442.6070000008], [156173.84200000018, 468457.77800000086], [156174.2259999998, 468458.1739999987], [156154.95800000057, 468461.6169999987], [156139.76300000027, 468464.26099999994], [156127.88100000098, 468466.3289999999], [156097.3599999994, 468471.6000000015], [156070.8759999983, 468476.12900000066], [156053.7749999985, 468479.10500000045], [156049.8110000007, 468479.9270000011], [156040.12099999934, 468481.936999999], [156007.7650000006, 468488.41099999845], [156000.0, 468489.98600000143], [155997.85500000045, 468490.3900000006], [155985.19399999827, 468492.7710000016], [155963.40700000152, 468496.7199999988], [155962.1640000008, 468496.9450000003], [155946.54399999976, 468500.0], [155944.96200000122, 468500.2969999984], [155934.5460000001, 468502.25], [155925.436999999, 468503.936999999], [155916.3590000011, 468505.2179999985], [155914.561999999, 468505.5], [155902.5309999995, 468507.4059999995], [155893.9210000001, 468508.7809999995], [155872.0309999995, 468512.125], [155855.4210000001, 468514.75], [155851.0780000016, 468515.436999999], [155826.3900000006, 468519.5309999995], [155812.8280000016, 468521.75], [155810.91699999943, 468522.1229999997], [155800.811999999, 468524.0929999985], [155779.0309999995, 468527.875], [155755.71799999848, 468532.0], [155731.0150000006, 468536.25], [155728.7030000016, 468536.6559999995], [155701.21799999848, 468541.7809999995], [155679.0309999995, 468545.9679999985], [155675.79399999976, 468546.54100000113], [155672.6710000001, 468547.0929999985], [155661.84299999848, 468549.061999999], [155631.625, 468554.4679999985], [155602.5309999995, 468559.7809999995], [155581.1090000011, 468563.686999999], [155560.6400000006, 468567.2179999985], [155553.1559999995, 468568.561999999], [155550.6330000013, 468568.8990000002], [155535.4450000003, 468547.4789999984], [155530.36400000006, 468540.4219999984], [155521.74300000072, 468528.44900000095], [155504.9389999993, 468504.41699999943], [155501.8500000015, 468500.0], [155491.96599999815, 468485.7719999999], [155476.89799999818, 468463.46599999815], [155474.63199999928, 468460.11100000143], [155463.2109999992, 468443.8979999982], [155451.13500000164, 468427.3839999996], [155445.99399999902, 468420.3020000011], [155439.05999999866, 468410.7509999983], [155417.15900000185, 468380.71499999985], [155412.77800000086, 468374.6889999993], [155393.36400000006, 468347.98699999973], [155372.11199999973, 468319.2659999989], [155350.44299999997, 468290.36400000006], [155340.85399999842, 468277.1409999989], [155333.39600000158, 468266.8500000015], [155317.3449999988, 468244.3740000017], [155329.875, 468232.7950000018], [155349.76099999994, 468214.12000000104], [155368.46799999848, 468196.2980000004], [155375.2190000005, 468189.87099999934], [155377.43499999866, 468187.73600000143], [155396.01000000164, 468168.93499999866], [155415.4389999993, 468149.0760000013], [155416.14499999955, 468148.3539999984], [155433.82299999893, 468130.0850000009], [155447.48699999973, 468115.84899999946], [155465.28599999845, 468097.2829999998], [155486.6799999997, 468075.1579999998], [155491.57400000095, 468070.01900000125], [155503.52299999818, 468056.9450000003], [155517.91000000015, 468041.1620000005], [155537.69200000167, 468019.56599999964], [155555.5089999996, 468000.0], [155560.6490000002, 467993.81599999964], [155571.05999999866, 467982.10500000045], [155572.1000000015, 467980.91800000146], [155575.48800000176, 467977.0520000011], [155578.76700000092, 467973.34800000116], [155582.90799999982, 467968.6700000018], [155593.85799999908, 467956.1270000003], [155604.65799999982, 467928.5709999986], [155607.51099999994, 467931.7800000012], [155623.73900000006, 467948.9439999983], [155644.7509999983, 467971.33999999985], [155663.0859999992, 467990.5179999992], [155671.5469999984, 467999.64400000125], [155678.73699999973, 467995.3200000003], [155699.87900000066, 467982.93299999833], [155715.27299999818, 467974.1770000011], [155738.31700000167, 467997.6860000007], [155738.40799999982, 467997.6099999994], [155740.75, 468000.0], [155744.10399999842, 468003.65300000086], [155748.14299999923, 468000.0], [155751.6499999985, 467996.81599999964], [155766.1799999997, 467983.15100000054], [155779.69399999827, 467970.67500000075], [155795.36100000143, 467955.7019999996], [155796.79399999976, 467954.27899999917], [155804.31899999827, 467955.73900000006], [155806.1799999997, 467957.6090000011], [155807.7899999991, 467959.1020000018], [155813.42300000042, 467957.9770000018], [155814.44099999964, 467957.7520000003], [155814.59200000018, 467957.7340000011], [155820.58799999952, 467958.8979999982], [155835.34800000116, 467973.98800000176], [155903.96799999848, 467987.30999999866], [156003.73600000143, 468097.7410000004], [156003.91000000015, 468097.93299999833], [156012.8049999997, 468089.8770000003], [156022.03400000185, 468100.0920000002]]]}}], "properties": {"sourceId": "agrest-ov-gebied-gesloten-stortplaats", "title": "Omgevingsverordening — Gebied gesloten stortplaats", "serviceUrl": "https://agrest.geodata-utrecht.nl/rest/services/Omgevingsverordening/FeatureServer", "layerId": 0, "role": "context", "authoritative": true, "licenseNote": "Structured open data of provincie Utrecht on agrest.geodata-utrecht.nl; service is anonymously queryable; no license statement exposed by the endpoint itself (platform presented as open data).", "lastChecked": "2026-10-04T16:47:00Z", "where": "NAAM='Gebied gesloten stortplaats'", "fetchedAt": "2026-10-04T16:48:52Z", "userAgent": "ldttoolbox-geoconnector/0.1 (wind-turbine opportunity-map PoC; cache-first, single-page politeness; open data of provincie Utrecht via geo-point.provincie-utrecht.nl)", "pages": 1, "featureCount": 1, "bbox": null, "simplifyM": null, "queryFingerprint": "{\"bbox\": null, \"simplify_m\": null}"}}