{"type": "FeatureCollection", "name": "agrest-ov-concentratiegebied-glastuinbouw", "crs": {"type": "name", "properties": {"name": "EPSG:28992"}}, "features": [{"type": "Feature", "id": "49973", "properties": {"OBJECTID": "49973", "LOCATIEGROEP_ID": "nl.imow-pv26.gebiedengroep.003000000000000000000658", "SYMBOOL_CODE": "vsg001", "GROEP": "glastuinbouw", "9e750651-8e97-4bc6-b09e-fc30b5f3e83c_id": "664", "LOCATIE_ID": "nl.imow-pv26.gebied.003000000000000000000658e86394", "DOCUMENT_URL": "https://omgevingsbeleid.provincie-utrecht.nl/home?d=/akn/nl/act/pv26/2022/omgevingsverordening/nld@1089&o=", "NAAM": "Concentratiegebied glastuinbouw", "TYPE": "ruimtelijk gebruik", "LOCATIEGROEP_NAAM": "Concentratiegebied glastuinbouw", "LOCATIE_NAAM": null}, "geometry": {"type": "Polygon", "coordinates": [[[117310.30999999866, 468776.5009999983], [117481.3590000011, 468968.2039999999], [117451.54300000146, 468995.8579999991], [117426.14900000021, 469019.41099999845], [117359.14299999923, 469080.9609999992], [117245.06500000134, 469185.4059999995], [117196.77600000054, 469229.6169999987], [117188.43699999899, 469237.45699999854], [117180.54600000009, 469244.875], [117170.81199999899, 469254.02699999884], [117124.51999999955, 469297.5450000018], [117121.66299999878, 469300.23099999875], [117118.50400000066, 469303.19999999925], [117103.2890000008, 469317.50400000066], [117077.5399999991, 469341.2030000016], [117074.90500000119, 469343.6279999986], [117072.66299999878, 469345.69200000167], [117061.3900000006, 469356.06700000167], [117055.16699999943, 469361.79399999976], [117027.19999999925, 469387.5329999998], [117022.17599999905, 469392.15900000185], [117011.91299999878, 469401.60599999875], [116982.4459999986, 469428.8599999994], [116978.91099999845, 469432.17500000075], [116976.45100000128, 469434.4820000008], [116913.16099999845, 469492.73699999973], [116870.22599999979, 469532.256000001], [116852.94799999893, 469547.6860000007], [116817.1559999995, 469579.6499999985], [116808.39799999818, 469587.563000001], [116787.84800000116, 469606.12999999896], [116743.23200000077, 469646.67500000075], [116741.70300000161, 469648.06500000134], [116731.02499999851, 469656.4970000014], [116719.09899999946, 469663.35500000045], [116716.03700000048, 469665.1169999987], [116707.41899999976, 469668.86499999836], [116684.5549999997, 469673.95800000057], [116651.5399999991, 469681.311999999], [116649.6409999989, 469681.73600000143], [116626.21599999815, 469686.9539999999], [116609.54399999976, 469690.66800000146], [116595.06899999827, 469693.8920000009], [116578.70899999887, 469697.53599999845], [116559.83300000057, 469702.1000000015], [116460.74300000072, 469726.05900000036], [116448.82699999958, 469728.94000000134], [116438.38599999994, 469716.0879999995], [116435.30900000036, 469711.90300000086], [116433.17599999905, 469709.0020000003], [116288.76999999955, 469512.6229999997], [116283.91800000146, 469502.2270000018], [116282.69999999925, 469494.3049999997], [116282.3440000005, 469491.9990000017], [116279.92199999839, 469486.96400000155], [116277.23299999908, 469481.375], [116275.83799999952, 469479.4679999985], [116270.89900000021, 469472.70800000057], [116265.65399999917, 469465.9620000012], [116354.83100000024, 469385.3839999996], [116423.88100000098, 469322.4519999996], [116460.30799999833, 469289.2520000003], [116497.65700000152, 469255.55799999833], [116551.71599999815, 469206.79100000113], [116567.28400000185, 469192.74599999934], [116615.05299999937, 469147.9679999985], [116646.36699999869, 469118.61400000006], [116676.98299999908, 469089.9149999991], [116710.61699999869, 469058.38699999824], [116742.73000000045, 469028.28400000185], [116772.52400000021, 469000.35599999875], [116781.9840000011, 468991.48800000176], [116805.38599999994, 468970.2580000013], [116867.8359999992, 468913.60500000045], [116886.71200000122, 468896.48099999875], [116930.75699999928, 468855.64499999955], [116962.94000000134, 468825.8049999997], [117014.91200000048, 468777.618999999], [117035.39200000092, 468761.7190000005], [117036.4990000017, 468761.86199999973], [117050.53799999878, 468750.0], [117055.97599999979, 468745.0029999986], [117057.89999999851, 468743.2349999994], [117088.90300000086, 468714.74599999934], [117115.96200000122, 468689.87999999896], [117146.01900000125, 468661.91699999943], [117180.58100000024, 468629.7190000005], [117182.49399999902, 468631.9270000011], [117182.83799999952, 468638.70600000024], [117184.56300000101, 468640.563000001], [117286.23900000006, 468750.0], [117310.30999999866, 468776.5009999983]]]}}, {"type": "Feature", "id": "49974", "properties": {"OBJECTID": "49974", "LOCATIEGROEP_ID": "nl.imow-pv26.gebiedengroep.003000000000000000000658", "SYMBOOL_CODE": "vsg001", "GROEP": "glastuinbouw", "9e750651-8e97-4bc6-b09e-fc30b5f3e83c_id": "665", "LOCATIE_ID": "nl.imow-pv26.gebied.003000000000000000000658e86393", "DOCUMENT_URL": "https://omgevingsbeleid.provincie-utrecht.nl/home?d=/akn/nl/act/pv26/2022/omgevingsverordening/nld@1089&o=", "NAAM": "Concentratiegebied glastuinbouw", "TYPE": "ruimtelijk gebruik", "LOCATIEGROEP_NAAM": "Concentratiegebied glastuinbouw", "LOCATIE_NAAM": null}, "geometry": {"type": "Polygon", "coordinates": [[[127671.98999999836, 457427.3570000008], [127635.60099999979, 457432.32499999925], [127554.14200000092, 457442.58900000155], [127477.89799999818, 457452.39499999955], [127477.88699999824, 457449.95899999887], [127461.15300000086, 457452.06500000134], [127461.15300000086, 457454.4759999998], [127235.13899999857, 457484.8500000015], [127001.82999999821, 457516.2039999999], [126996.05099999905, 457517.0150000006], [126867.33199999854, 457535.06599999964], [126867.15399999917, 457532.9439999983], [126863.94700000063, 457532.5249999985], [126862.12700000033, 457532.12099999934], [126862.05200000107, 457532.0540000014], [126858.08199999854, 457528.48000000045], [126851.6099999994, 457523.4239999987], [126847.36300000176, 457520.3909999989], [126839.67799999937, 457518.3680000007], [126833.40900000185, 457517.96400000155], [126824.9290000014, 457519.0760000013], [126821.07200000063, 457519.58199999854], [126812.56599999964, 457520.91600000113], [126811.9059999995, 457517.7270000018], [126806.37999999896, 457495.9120000005], [126797.75600000098, 457471.36100000143], [126790.68100000173, 457455.87900000066], [126780.51000000164, 457440.17599999905], [126763.70600000024, 457421.8189999983], [126753.98200000077, 457412.5639999993], [126732.0709999986, 457391.92599999905], [126718.15900000185, 457379.0229999982], [126709.51099999994, 457368.9770000018], [126708.77600000054, 457368.1229999997], [126704.45100000128, 457363.09899999946], [126691.4059999995, 457346.2899999991], [126688.02199999988, 457341.26300000027], [126679.52100000158, 457328.63599999994], [126655.14799999818, 457292.43400000036], [126649.17500000075, 457283.2569999993], [126646.0390000008, 457279.5219999999], [126642.7650000006, 457275.625], [126635.69099999964, 457262.35500000045], [126628.17300000042, 457245.5460000001], [126623.97199999914, 457232.9389999993], [126620.87700000033, 457217.56799999997], [126619.32899999991, 457196.11400000006], [126620.55200000107, 457180.22100000083], [126621.16299999878, 457164.6270000003], [126621.71299999952, 457158.9910000004], [126623.38199999928, 457147.83399999887], [126627.06799999997, 457129.65300000086], [126631.7109999992, 457117.0460000001], [126638.12299999967, 457104.3289999999], [126644.20800000057, 457095.83999999985], [126646.52499999851, 457092.6070000008], [126721.79899999872, 457007.98099999875], [126733.42199999839, 456997.7109999992], [126762.30200000107, 456968.06599999964], [126789.80099999905, 456939.83900000155], [126810.24599999934, 456918.45899999887], [126814.15100000054, 456912.35599999875], [126835.38199999928, 456883.79399999976], [126852.95600000024, 456861.2520000003], [126856.1259999983, 456857.18499999866], [126866.62000000104, 456843.2710000016], [126871.92399999872, 456832.0170000009], [126874.67399999872, 456826.18200000003], [126884.43600000069, 456798.9629999995], [126886.14299999923, 456787.9770000018], [126885.77899999917, 456785.13599999994], [126884.92399999872, 456778.45699999854], [126883.0390000008, 456774.6860000007], [126881.95800000057, 456773.1730000004], [126876.13800000027, 456765.0300000012], [126857.34699999914, 456754.77699999884], [126840.05799999833, 456744.8960000016], [126809.75699999928, 456727.0700000003], [126802.6240000017, 456722.1400000006], [126805.35599999875, 456711.5789999999], [126810.73999999836, 456712.8599999994], [126819.5540000014, 456675.8049999997], [126831.39699999988, 456626.0159999989], [126857.18299999833, 456517.6079999991], [126852.50699999928, 456516.49599999934], [126854.74199999869, 456507.2589999996], [126857.66800000146, 456495.1620000005], [126862.26199999824, 456496.25499999896], [126920.54500000179, 456249.9990000017], [126920.9140000008, 456248.2179999985], [126935.40700000152, 456178.41000000015], [126952.60599999875, 456093.7870000005], [126973.11100000143, 455992.8979999982], [127007.45600000024, 455833.2470000014], [127026.98600000143, 455744.68200000003], [127117.77299999818, 455760.15399999917], [127118.25600000098, 455757.84800000116], [127119.61600000039, 455751.756000001], [127119.82200000063, 455750.9609999992], [127128.61499999836, 455711.5159999989], [127138.01999999955, 455669.3220000006], [127138.19900000095, 455666.2719999999], [127152.2509999983, 455668.1620000005], [127173.35399999842, 455670.52899999917], [127178.29600000009, 455670.79300000146], [127203.50200000033, 455672.0210000016], [127235.1099999994, 455672.83199999854], [127238.61699999869, 455673.1420000009], [127243.72100000083, 455673.5920000002], [127248.88500000164, 455674.0480000004], [127255.22800000012, 455674.6070000008], [127268.04899999872, 455677.368999999], [127277.5159999989, 455681.1180000007], [127281.81300000101, 455683.3139999993], [127289.36300000176, 455687.1719999984], [127300.98000000045, 455693.1090000011], [127303.88800000027, 455694.6889999993], [127307.69700000063, 455696.7580000013], [127319.02800000086, 455702.9120000005], [127320.22100000083, 455703.55999999866], [127321.73600000143, 455704.3830000013], [127324.67399999872, 455705.9789999984], [127342.87900000066, 455715.8420000002], [127349.79500000179, 455719.5789999999], [127362.22899999842, 455726.2969999984], [127367.38399999961, 455728.6559999995], [127369.56399999931, 455729.65300000086], [127383.13599999994, 455735.8660000004], [127414.96299999952, 455748.76000000164], [127487.71499999985, 455778.15199999884], [127492.1959999986, 455779.84699999914], [127500.03299999982, 455782.8110000007], [127518.54899999872, 455789.81500000134], [127518.83399999887, 455789.9230000004], [127545.4600000009, 455802.7470000014], [127562.65900000185, 455812.0300000012], [127567.85700000077, 455814.83399999887], [127572.875, 455817.54399999976], [127584.32999999821, 455824.8680000007], [127587.10000000149, 455826.63800000027], [127589.76700000092, 455828.3429999985], [127609.5709999986, 455841.7320000008], [127613.52699999884, 455844.65100000054], [127625.87099999934, 455853.7569999993], [127638.16099999845, 455862.8220000006], [127644.09800000116, 455866.86300000176], [127657.29300000146, 455875.8429999985], [127673.07200000063, 455885.313000001], [127676.18899999931, 455886.58199999854], [127778.59299999848, 455927.9279999994], [127791.88399999961, 455933.67599999905], [127808.3759999983, 455935.8200000003], [127809.25200000033, 455935.7899999991], [127848.61199999973, 455934.4389999993], [127849.61699999869, 455934.23800000176], [127853.2490000017, 455933.51199999824], [127862.5549999997, 455931.65100000054], [127890.20800000057, 455926.0789999999], [127899.82899999991, 455923.6270000003], [127908.78700000048, 455921.3429999985], [127932.71400000155, 455915.2410000004], [127933.4149999991, 455915.07400000095], [127938.41899999976, 455913.87999999896], [127944.66200000048, 455912.3900000006], [127987.74199999869, 455902.1090000011], [127990.375, 455901.0489999987], [127995.04199999943, 455899.1700000018], [128000.10399999842, 455897.131000001], [128002.9290000014, 455895.9930000007], [128020.58300000057, 455885.83199999854], [128028.86699999869, 455881.6889999993], [128045.55000000075, 455878.76900000125], [128062.73299999908, 455879.6460000016], [128051.45600000024, 455883.76199999824], [128048.39900000021, 455889.6810000017], [128046.37700000033, 455897.4230000004], [128044.79899999872, 455912.22100000083], [128044.10700000077, 455939.5460000001], [128043.13800000027, 455948.3839999996], [128042.33300000057, 455955.72399999946], [128036.69000000134, 455980.55999999866], [128035.4290000014, 455986.1079999991], [128030.00499999896, 456011.6570000015], [128027.48699999973, 456024.94200000167], [128024.28500000015, 456041.8429999985], [128021.55999999866, 456054.0240000002], [128017.97300000116, 456070.0560000017], [128008.2100000009, 456106.0610000007], [128008.76099999994, 456112.5709999986], [128001.21700000018, 456147.6169999987], [127993.58100000024, 456180.5], [127989.52299999818, 456216.2729999982], [127980.68699999899, 456249.9990000017], [127959.84800000116, 456329.4239999987], [127955.23299999908, 456349.4219999984], [127952.57800000161, 456363.13599999994], [127952.32899999991, 456365.243999999], [127914.08999999985, 456356.2419999987], [127906.84499999881, 456354.53599999845], [127839.52499999851, 456630.73999999836], [127829.85300000012, 456668.0069999993], [127814.3200000003, 456727.6700000018], [127790.03799999878, 456819.3530000001], [127780.38199999928, 456855.811999999], [127761.53500000015, 456926.97300000116], [127758.3040000014, 456940.618999999], [127739.49300000072, 457015.58300000057], [127738.19900000095, 457020.4299999997], [127730.58999999985, 457034.38500000164], [127670.7109999992, 457027.8599999994], [127718.0150000006, 457318.2989999987], [127658.97800000012, 457327.3520000018], [127671.98999999836, 457427.3570000008]]]}}], "properties": {"sourceId": "agrest-ov-concentratiegebied-glastuinbouw", "title": "Omgevingsverordening — Concentratiegebied glastuinbouw", "serviceUrl": "https://agrest.geodata-utrecht.nl/rest/services/Omgevingsverordening/FeatureServer", "layerId": 0, "role": "conditional", "authoritative": true, "licenseNote": "Structured open data of provincie Utrecht on agrest.geodata-utrecht.nl; service is anonymously queryable; no license statement exposed by the endpoint itself (platform presented as open data).", "lastChecked": "2026-10-05T09:03:33Z", "where": "NAAM='Concentratiegebied glastuinbouw'", "fetchedAt": "2026-10-05T09:03:51Z", "userAgent": "ldttoolbox-geoconnector/0.1 (wind-turbine opportunity-map PoC; cache-first, single-page politeness; open data of provincie Utrecht via geo-point.provincie-utrecht.nl)", "pages": 1, "featureCount": 2, "bbox": null, "simplifyM": null, "queryFingerprint": "{\"bbox\": null, \"simplify_m\": null}"}}