{"type": "FeatureCollection", "name": "agrest-ov-kantoor-knooppunt-utrecht-centraal", "crs": {"type": "name", "properties": {"name": "EPSG:28992"}}, "features": [{"type": "Feature", "id": "53161", "properties": {"OBJECTID": "53161", "LOCATIEGROEP_ID": "nl.imow-pv26.gebiedengroep.003000000000000000000460", "SYMBOOL_CODE": "vsg012", "GROEP": "kantoorlocatie", "9e750651-8e97-4bc6-b09e-fc30b5f3e83c_id": "3852", "LOCATIE_ID": "nl.imow-pv26.gebied.003000000000000000000460e59055", "DOCUMENT_URL": "https://omgevingsbeleid.provincie-utrecht.nl/home?d=/akn/nl/act/pv26/2022/omgevingsverordening/nld@1089&o=", "NAAM": "Kantoor op knooppunt Utrecht Centraal", "TYPE": "ruimtelijk gebruik", "LOCATIEGROEP_NAAM": "Kantoor op knooppunt Utrecht Centraal", "LOCATIE_NAAM": null}, "geometry": {"type": "Polygon", "coordinates": [[[136020.0469999984, 456736.0940000005], [135991.875, 456735.6970000006], [135963.7250000015, 456734.506000001], [135935.62000000104, 456732.5229999982], [135907.58199999854, 456729.7490000017], [135879.6339999996, 456726.186999999], [135851.7969999984, 456721.8379999995], [135824.09299999848, 456716.70699999854], [135796.5450000018, 456710.7969999984], [135769.17399999872, 456704.11400000006], [135742.00299999863, 456696.6620000005], [135715.05200000107, 456688.4479999989], [135688.34299999848, 456679.4770000018], [135661.89799999818, 456669.7580000013], [135635.73699999973, 456659.2980000004], [135609.88100000098, 456648.10500000045], [135584.3509999998, 456636.188000001], [135559.16600000113, 456623.5560000017], [135534.34800000116, 456610.2199999988], [135509.9140000008, 456596.19000000134], [135485.88599999994, 456581.4770000018], [135462.28200000152, 456566.0929999985], [135439.12099999934, 456550.05000000075], [135416.4210000001, 456533.36100000143], [135394.19999999925, 456516.0390000008], [135372.4750000015, 456498.09800000116], [135351.2650000006, 456479.5529999994], [135330.5859999992, 456460.41699999943], [135310.4539999999, 456440.70600000024], [135290.88500000164, 456420.43499999866], [135271.89600000158, 456399.6220000014], [135253.4990000017, 456378.2820000015], [135235.71200000122, 456356.4310000017], [135218.5469999984, 456334.08900000155], [135202.01900000125, 456311.2719999999], [135186.13899999857, 456287.9979999997], [135170.9219999984, 456264.28599999845], [135156.37900000066, 456240.1550000012], [135142.52100000158, 456215.6240000017], [135129.3599999994, 456190.7120000012], [135116.9059999995, 456165.4389999993], [135105.16899999976, 456139.82499999925], [135094.15900000185, 456113.8909999989], [135083.8830000013, 456087.6570000015], [135074.3500000015, 456061.14400000125], [135065.56799999997, 456034.3729999997], [135057.54399999976, 456007.36499999836], [135050.28400000185, 455980.1409999989], [135043.79300000146, 455952.72399999946], [135038.0780000016, 455925.13500000164], [135033.14200000092, 455897.3960000016], [135028.98900000006, 455869.52899999917], [135025.6240000017, 455841.5560000017], [135023.0469999984, 455813.4990000017], [135021.26199999824, 455785.381000001], [135020.26999999955, 455757.22399999946], [135020.07200000063, 455729.05000000075], [135020.66699999943, 455700.881000001], [135022.05600000173, 455672.7410000004], [135024.23600000143, 455644.6499999985], [135027.20800000057, 455616.6330000013], [135030.96700000018, 455588.7100000009], [135035.51199999824, 455560.90399999917], [135040.83799999952, 455533.23699999973], [135046.94200000167, 455505.7320000008], [135053.81799999997, 455478.40900000185], [135061.4609999992, 455451.29100000113], [135069.86499999836, 455424.3979999982], [135079.02299999818, 455397.7529999986], [135088.92799999937, 455371.3770000003], [135099.57299999893, 455345.29100000113], [135110.94799999893, 455319.51399999857], [135123.04399999976, 455294.06799999997], [135135.85300000012, 455268.97300000116], [135149.36400000006, 455244.2490000017], [135163.56500000134, 455219.91600000113], [135178.44700000063, 455195.9919999987], [135193.99700000137, 455172.4970000014], [135210.2030000016, 455149.44900000095], [135227.05099999905, 455126.8669999987], [135244.52899999917, 455104.7679999992], [135262.62200000137, 455083.1710000001], [135281.31700000167, 455062.0920000002], [135300.59800000116, 455041.5480000004], [135320.45100000128, 455021.5549999997], [135340.85799999908, 455002.12999999896], [135361.8049999997, 454983.2870000005], [135383.2740000002, 454965.04199999943], [135405.2490000017, 454947.40900000185], [135427.71200000122, 454930.40199999884], [135450.64499999955, 454914.03400000185], [135474.0300000012, 454898.3189999983], [135497.84899999946, 454883.26999999955], [135522.08199999854, 454868.8969999999], [135546.7100000009, 454855.2120000012], [135571.71400000155, 454842.2270000018], [135597.07400000095, 454829.9510000013], [135622.76999999955, 454818.39499999955], [135648.7809999995, 454807.56700000167], [135675.08700000122, 454797.4759999998], [135701.66600000113, 454788.131000001], [135728.4990000017, 454779.5379999988], [135755.561999999, 454771.7039999999], [135782.8359999992, 454764.63500000164], [135810.29800000042, 454758.3379999995], [135837.92700000107, 454752.81700000167], [135865.69999999925, 454748.0769999996], [135893.5949999988, 454744.12099999934], [135921.59099999815, 454740.9519999996], [135949.66600000113, 454738.5729999989], [135977.7960000001, 454736.98699999973], [136005.95899999887, 454736.19299999997], [136034.1339999996, 454736.19299999997], [136062.29800000042, 454736.98699999973], [136090.42799999937, 454738.5729999989], [136118.50200000033, 454740.9519999996], [136146.49799999967, 454744.12099999934], [136174.39400000125, 454748.0769999996], [136202.16699999943, 454752.81700000167], [136229.7950000018, 454758.3379999995], [136257.2580000013, 454764.63500000164], [136284.5309999995, 454771.7039999999], [136311.5949999988, 454779.5379999988], [136338.42700000107, 454788.131000001], [136365.00699999928, 454797.4759999998], [136391.313000001, 454807.56700000167], [136417.32400000095, 454818.39499999955], [136443.01999999955, 454829.9510000013], [136468.37999999896, 454842.2270000018], [136493.3839999996, 454855.2120000012], [136518.01199999824, 454868.8969999999], [136542.24500000104, 454883.26999999955], [136566.063000001, 454898.3189999983], [136589.44900000095, 454914.03400000185], [136612.38199999928, 454930.40199999884], [136634.8440000005, 454947.40900000185], [136656.81899999827, 454965.04199999943], [136678.2890000008, 454983.2870000005], [136699.2349999994, 455002.12999999896], [136719.64299999923, 455021.5549999997], [136739.49500000104, 455041.5480000004], [136758.77699999884, 455062.0920000002], [136777.47100000083, 455083.1710000001], [136795.56500000134, 455104.7679999992], [136813.04300000146, 455126.8669999987], [136829.8909999989, 455149.44900000095], [136846.09699999914, 455172.4970000014], [136861.64600000158, 455195.9919999987], [136876.52800000086, 455219.91600000113], [136890.73000000045, 455244.2490000017], [136904.23999999836, 455268.97300000116], [136917.04899999872, 455294.06799999997], [136929.14600000158, 455319.51399999857], [136940.52100000158, 455345.29100000113], [136951.1649999991, 455371.3770000003], [136961.0709999986, 455397.7529999986], [136970.22899999842, 455424.3979999982], [136978.6330000013, 455451.29100000113], [136986.27600000054, 455478.40900000185], [136993.15199999884, 455505.7320000008], [136999.25499999896, 455533.23699999973], [137004.58199999854, 455560.90399999917], [137009.1259999983, 455588.7100000009], [137012.88599999994, 455616.6330000013], [137015.85700000077, 455644.6499999985], [137018.03799999878, 455672.7410000004], [137019.42700000107, 455700.881000001], [137020.02199999988, 455729.05000000075], [137019.82299999893, 455757.22399999946], [137018.83100000024, 455785.381000001], [137017.0460000001, 455813.4990000017], [137014.4699999988, 455841.5560000017], [137011.10399999842, 455869.52899999917], [137006.95199999958, 455897.3960000016], [137002.0159999989, 455925.13500000164], [136996.30000000075, 455952.72399999946], [136989.80999999866, 455980.1409999989], [136982.55000000075, 456007.36499999836], [136974.5249999985, 456034.3729999997], [136965.74399999902, 456061.14400000125], [136956.2109999992, 456087.6570000015], [136945.93499999866, 456113.8909999989], [136934.92399999872, 456139.82499999925], [136923.186999999, 456165.4389999993], [136910.73299999908, 456190.7120000012], [136897.57200000063, 456215.6240000017], [136883.71499999985, 456240.1550000012], [136869.1710000001, 456264.28599999845], [136853.9539999999, 456287.9979999997], [136838.07499999925, 456311.2719999999], [136821.5460000001, 456334.08900000155], [136804.38100000098, 456356.4310000017], [136786.5940000005, 456378.2820000015], [136768.19799999893, 456399.6220000014], [136749.20800000057, 456420.43499999866], [136729.6400000006, 456440.70600000024], [136709.5080000013, 456460.41699999943], [136688.8280000016, 456479.5529999994], [136667.61800000072, 456498.09800000116], [136645.89400000125, 456516.0390000008], [136623.67300000042, 456533.36100000143], [136600.97300000116, 456550.05000000075], [136577.8110000007, 456566.0929999985], [136554.20699999854, 456581.4770000018], [136530.1790000014, 456596.19000000134], [136505.74599999934, 456610.2199999988], [136480.92700000107, 456623.5560000017], [136455.74300000072, 456636.188000001], [136430.21200000122, 456648.10500000045], [136404.35599999875, 456659.2980000004], [136378.1959999986, 456669.7580000013], [136351.75, 456679.4770000018], [136325.04100000113, 456688.4479999989], [136298.09099999815, 456696.6620000005], [136270.91899999976, 456704.11400000006], [136243.54899999872, 456710.7969999984], [136216.0009999983, 456716.70699999854], [136188.2969999984, 456721.8379999995], [136160.4600000009, 456726.186999999], [136132.51099999994, 456729.7490000017], [136104.47300000116, 456732.5229999982], [136076.36800000072, 456734.506000001], [136048.2190000005, 456735.6970000006], [136020.0469999984, 456736.0940000005]]]}}], "properties": {"sourceId": "agrest-ov-kantoor-knooppunt-utrecht-centraal", "title": "Omgevingsverordening — Kantoor op knooppunt Utrecht Centraal", "serviceUrl": "https://agrest.geodata-utrecht.nl/rest/services/Omgevingsverordening/FeatureServer", "layerId": 0, "role": "conditional", "authoritative": true, "licenseNote": "Structured open data of provincie Utrecht on agrest.geodata-utrecht.nl; service is anonymously queryable; no license statement exposed by the endpoint itself (platform presented as open data).", "lastChecked": "2026-10-06T11:11:23Z", "where": "NAAM='Kantoor op knooppunt Utrecht Centraal'", "fetchedAt": "2026-10-06T11:11:27Z", "userAgent": "ldttoolbox-geoconnector/0.1 (wind-turbine opportunity-map PoC; cache-first, single-page politeness; open data of provincie Utrecht via geo-point.provincie-utrecht.nl)", "pages": 1, "featureCount": 1, "bbox": null, "simplifyM": null, "queryFingerprint": "{\"bbox\": null, \"simplify_m\": null}"}}