{"type": "FeatureCollection", "name": "agrest-ov-gebiedstransformatie-of-herstructurering", "features": [{"type": "Feature", "id": "60516", "properties": {"OBJECTID": "60516", "LOCATIEGROEP_ID": "nl.imow-pv26.gebiedengroep.003000000000000000000443", "SYMBOOL_CODE": "vsg012", "GROEP": "kantoorlocatie", "9e750651-8e97-4bc6-b09e-fc30b5f3e83c_id": "11140", "LOCATIE_ID": "nl.imow-pv26.gebied.003000000000000000000443e57704", "DOCUMENT_URL": "https://omgevingsbeleid.provincie-utrecht.nl/home?d=/akn/nl/act/pv26/2022/omgevingsverordening/nld@1089&o=", "NAAM": "Gebiedstransformatie of  herstructurering", "TYPE": "ruimtelijk gebruik", "LOCATIEGROEP_NAAM": "Gebiedstransformatie of  herstructurering", "LOCATIE_NAAM": null}, "geometry": {"type": "Polygon", "coordinates": [[[5.103840905906346, 52.07845345062666], [5.103891227902774, 52.078408181728165], [5.104243038426565, 52.07768339131795], [5.104269962959418, 52.07764013335113], [5.104298641199973, 52.0775940483384], [5.104350903783409, 52.07747923405912], [5.104433161861759, 52.07727829592749], [5.104470240453166, 52.07717471623255], [5.1045056500066766, 52.07706976633229], [5.104525570502507, 52.07702445121068], [5.104555250658435, 52.07698822846973], [5.104635824385601, 52.07691746964824], [5.10472033788931, 52.07693198123799], [5.104829124887917, 52.076941787225685], [5.104913162365762, 52.076927715409546], [5.1049514869029755, 52.07691547551771], [5.105052465960153, 52.07686110561552], [5.10542392412917, 52.07671074252396], [5.105460584034614, 52.07671030883843], [5.105489292040388, 52.07669628412193], [5.105525535530005, 52.07667857431121], [5.105551398450155, 52.076664641650325], [5.105656085535071, 52.07665597554208], [5.105700412102585, 52.076654184914716], [5.105778618267503, 52.07665102807461], [5.1058900071278845, 52.076657585606675], [5.106319273468284, 52.07671102775904], [5.106474867286122, 52.07673289790646], [5.106535491766928, 52.07673974737793], [5.106570292388869, 52.076742715406446], [5.107221734493483, 52.076835978897485], [5.108165769424135, 52.076945247430636], [5.108220664834927, 52.07695159711584], [5.108234979010475, 52.07695325783487], [5.108429051686014, 52.076975719783185], [5.109053586857372, 52.07704800320244], [5.109096000022063, 52.07705134796921], [5.109159900637898, 52.07705929137613], [5.1091977271804, 52.07706599582136], [5.1091329239522105, 52.077254979326554], [5.108826988268222, 52.07790671157967], [5.10851544081994, 52.07841573485222], [5.108427691920863, 52.0785429424988], [5.10837803936498, 52.078614936491824], [5.1083480240543, 52.07865844872863], [5.108291555688211, 52.078740304468965], [5.107823535283197, 52.07934148790598], [5.1077339487084235, 52.07943999171051], [5.107633867230405, 52.079511398443984], [5.107388140031715, 52.07975300840797], [5.107344292579065, 52.0798619927181], [5.107224917824874, 52.079978707177915], [5.106962446509567, 52.080212070355344], [5.106592729691312, 52.08051829578801], [5.106103963613238, 52.080890055993564], [5.105966187070575, 52.08093245675051], [5.105852797919091, 52.08101496645356], [5.105581358913484, 52.08120150418284], [5.1052348216732275, 52.08141952671097], [5.1050016426768705, 52.08162702493351], [5.104930366247193, 52.08166346275956], [5.104895542198571, 52.08167518072757], [5.1048321597308455, 52.08161425151155], [5.104769624412457, 52.08155318946879], [5.104540679750228, 52.08132776788909], [5.10445010873318, 52.08123858663822], [5.102995207803613, 52.07980600050866], [5.102901047560596, 52.0797132860519], [5.102809975648795, 52.07962360795364], [5.1027772263779365, 52.07959136058028], [5.102829257658389, 52.07957821069931], [5.10287119245736, 52.079567607037134], [5.102862088185786, 52.079558641931435], [5.102860151799474, 52.07952819460934], [5.102866265087556, 52.07949819813089], [5.102875540744169, 52.07945263292372], [5.103480598399126, 52.07882758502471], [5.103777526359952, 52.07851048048271], [5.103840905906346, 52.07845345062666]]]}}, {"type": "Feature", "id": "60517", "properties": {"OBJECTID": "60517", "LOCATIEGROEP_ID": "nl.imow-pv26.gebiedengroep.003000000000000000000443", "SYMBOOL_CODE": "vsg012", "GROEP": "kantoorlocatie", "9e750651-8e97-4bc6-b09e-fc30b5f3e83c_id": "11141", "LOCATIE_ID": "nl.imow-pv26.gebied.003000000000000000000443e57703", "DOCUMENT_URL": "https://omgevingsbeleid.provincie-utrecht.nl/home?d=/akn/nl/act/pv26/2022/omgevingsverordening/nld@1089&o=", "NAAM": "Gebiedstransformatie of  herstructurering", "TYPE": "ruimtelijk gebruik", "LOCATIEGROEP_NAAM": "Gebiedstransformatie of  herstructurering", "LOCATIE_NAAM": null}, "geometry": {"type": "Polygon", "coordinates": [[[5.104979319381857, 52.075710212166626], [5.104995919057782, 52.07564311984795], [5.105002594737711, 52.075616153576824], [5.105028035602409, 52.07553952807574], [5.105071779696994, 52.07540782240575], [5.105141662707166, 52.07519740762101], [5.105215986155658, 52.074999802455636], [5.1052556873246315, 52.07487989739079], [5.105308511565427, 52.074783860116966], [5.105396881840103, 52.074544296044756], [5.105386890656819, 52.07447936014714], [5.105419066012233, 52.07438468458183], [5.105562267792307, 52.07396144490736], [5.105627253519011, 52.07382855838455], [5.105649910004844, 52.07378845369609], [5.105665795910041, 52.07374644533265], [5.105787660425099, 52.07342427944234], [5.105802351276702, 52.07336119112254], [5.105814338309324, 52.073315200691006], [5.1064041429494385, 52.071051498980154], [5.106408073341697, 52.071036435302524], [5.106412825974168, 52.07101817382057], [5.106439472967614, 52.07091587184381], [5.106450442842023, 52.070873716827194], [5.106459275028499, 52.070839852732746], [5.106550738243365, 52.0704885729676], [5.106584110005094, 52.0703604012369], [5.106691516866495, 52.0699479053972], [5.106703353008071, 52.06990242681608], [5.106822025785792, 52.06944661702142], [5.10687660200515, 52.069236928615496], [5.107012196815079, 52.0684583331946], [5.107032198591571, 52.06837803609963], [5.107062044023509, 52.06825822373665], [5.107271825275413, 52.06741604260628], [5.107315889885448, 52.06733804063594], [5.10742296512286, 52.06723772696496], [5.107442017633194, 52.06722278003263], [5.107478818489135, 52.067193871754846], [5.107586655830215, 52.06710919005434], [5.10772800266048, 52.067055488814454], [5.107836248959408, 52.06701031056907], [5.107942182229315, 52.066959491203136], [5.108037805471882, 52.06692722573279], [5.108127571469276, 52.06690342209807], [5.108221014503939, 52.06689099704927], [5.108245856735855, 52.06688769429648], [5.108263363662076, 52.06688667513347], [5.108293723608733, 52.06688490441809], [5.108304188752649, 52.0668858729326], [5.109107776578047, 52.06696017085278], [5.109990406899841, 52.06704228910201], [5.110155313282357, 52.06704828541098], [5.11035658176338, 52.06705355797347], [5.11074741260532, 52.06706808330404], [5.1110459510602055, 52.067078831847006], [5.1111729704574485, 52.067082194323866], [5.11165040324622, 52.06711529111834], [5.111712219984774, 52.067120738599655], [5.11177298726645, 52.067126093715125], [5.111764664517637, 52.067160894173014], [5.111758916511287, 52.067184914924965], [5.1117065093216425, 52.0674041201], [5.111695222494335, 52.06745132619165], [5.1116800436237675, 52.06751480962386], [5.111664490710118, 52.06757982015634], [5.111634058060908, 52.06770707445207], [5.111614313300648, 52.067789655901436], [5.111377310416688, 52.068681494066794], [5.1113253016870726, 52.06887804994814], [5.111305411718134, 52.06895325176276], [5.111287761842817, 52.06901993809875], [5.1112558193371855, 52.06902743130167], [5.111146195067602, 52.06947085414478], [5.111119046824127, 52.06958064310247], [5.111011604087453, 52.07001517267868], [5.110986623695631, 52.070116257210245], [5.1107597037221755, 52.07103402116931], [5.110734721328688, 52.071130521699146], [5.1103957429801286, 52.07244018152804], [5.1101086432882035, 52.07354933887594], [5.1100260059636575, 52.07386857243603], [5.109726623701537, 52.07505959025272], [5.109485358558715, 52.07604536618764], [5.109392069432716, 52.076398926575536], [5.109346785791779, 52.07659724091105], [5.109282874517644, 52.076833072532885], [5.109237080283852, 52.076826906588714], [5.109179072342539, 52.076819093965774], [5.109132330719133, 52.07681280890128], [5.108087124706705, 52.076665477738764], [5.107325989459336, 52.07655818889349], [5.106746174110678, 52.07647639442841], [5.106663718314102, 52.07646641918503], [5.106612502898384, 52.07645954723457], [5.10656921607782, 52.076453745743635], [5.105932887273181, 52.07636834331616], [5.105760076146405, 52.076345155035284], [5.105697952037175, 52.0763333221798], [5.10565498563701, 52.076302129760734], [5.10558730049472, 52.076281583092566], [5.105552230810427, 52.07626812502773], [5.105482745963254, 52.07621834472698], [5.105395494114654, 52.07614545847009], [5.105193981395276, 52.07596419009074], [5.105124802488483, 52.075900721443254], [5.105129584689301, 52.07589413562724], [5.105122701573609, 52.07588227285185], [5.105103163003694, 52.075848655573225], [5.104980847737768, 52.07583564464848], [5.104979319381857, 52.075710212166626]]]}}, {"type": "Feature", "id": "60518", "properties": {"OBJECTID": "60518", "LOCATIEGROEP_ID": "nl.imow-pv26.gebiedengroep.003000000000000000000443", "SYMBOOL_CODE": "vsg012", "GROEP": "kantoorlocatie", "9e750651-8e97-4bc6-b09e-fc30b5f3e83c_id": "11142", "LOCATIE_ID": "nl.imow-pv26.gebied.003000000000000000000443e57701", "DOCUMENT_URL": "https://omgevingsbeleid.provincie-utrecht.nl/home?d=/akn/nl/act/pv26/2022/omgevingsverordening/nld@1089&o=", "NAAM": "Gebiedstransformatie of  herstructurering", "TYPE": "ruimtelijk gebruik", "LOCATIEGROEP_NAAM": "Gebiedstransformatie of  herstructurering", "LOCATIE_NAAM": null}, "geometry": {"type": "Polygon", "coordinates": [[[5.107875452476131, 52.06620122246262], [5.107919337942636, 52.06620067032772], [5.107947967741192, 52.06620031572288], [5.107944904996405, 52.066158262113404], [5.107942419556615, 52.066124191308276], [5.107968741695097, 52.06602150165931], [5.108010024469767, 52.06585363874142], [5.108030887433831, 52.065735323804425], [5.108057324391989, 52.06560011543729], [5.108070739843834, 52.06550207799206], [5.108078171718033, 52.06542111276232], [5.108080523704496, 52.065394729254415], [5.108084336266307, 52.065353950260096], [5.10808972014789, 52.06529504597727], [5.108100188041906, 52.06518088587027], [5.108096538368575, 52.06488441353685], [5.108082417657841, 52.064803217496596], [5.108030588504047, 52.06460921229629], [5.1079717314228255, 52.06434495734804], [5.107968284169523, 52.06432949862475], [5.107964766022838, 52.06431371616155], [5.107930224025225, 52.064132883481385], [5.107913814033387, 52.064075113982206], [5.107836217398419, 52.063801835413855], [5.107721619311572, 52.063424395737584], [5.107616363960837, 52.06309238601446], [5.107605494647221, 52.06305820541527], [5.107598759383321, 52.06303688761847], [5.107586432167042, 52.06299798480119], [5.107534556895148, 52.06282838192834], [5.107530184039658, 52.06281407146975], [5.107524410645267, 52.062795191727886], [5.107519423335221, 52.06277886647417], [5.107513535537621, 52.06275962693579], [5.1075025175443995, 52.06272359442163], [5.1074534841111365, 52.062549701932554], [5.107445300081778, 52.06252222383093], [5.107423062006222, 52.06244753377776], [5.10741666343321, 52.06242603700526], [5.107392425321301, 52.062293386862976], [5.107386789032986, 52.06219425260177], [5.107395812216429, 52.062087432356435], [5.107404748377663, 52.06199219757662], [5.107387199061319, 52.061792628842085], [5.107380751920089, 52.06176492116531], [5.107375540497899, 52.06174248345505], [5.107371124379108, 52.06172345412693], [5.107357619694077, 52.06166538582824], [5.1073553372799845, 52.06158260889352], [5.107340293380939, 52.061469853267525], [5.107313838520733, 52.06147966837825], [5.10726168876333, 52.06149902175554], [5.107235497352384, 52.06146902912929], [5.107181392675339, 52.06129732652929], [5.107110230713042, 52.06107150189251], [5.107092622005205, 52.06101222838409], [5.106989654181258, 52.06075904914239], [5.106956365935255, 52.06067717816634], [5.106978819294805, 52.06063565254778], [5.107059440683031, 52.06056826259769], [5.1071586607160295, 52.0605207086122], [5.1072365037536045, 52.06049647285595], [5.107295280421641, 52.06047817784918], [5.107446718354834, 52.06044442753766], [5.107624585701835, 52.060404789601456], [5.1078044871297505, 52.06036160591467], [5.107939438546763, 52.0603292090414], [5.108141464080416, 52.06026427210193], [5.10835318510558, 52.06018071641114], [5.108635975915059, 52.06006436893831], [5.109305261168366, 52.05978868371349], [5.109758743705355, 52.05961251555914], [5.110040603559329, 52.05952761193185], [5.110400061843039, 52.059431340188866], [5.110500867479062, 52.059404648524314], [5.110574159249121, 52.05938954977746], [5.110846714692848, 52.059332764165106], [5.11087217731161, 52.05932745796724], [5.110911378629981, 52.05931928980122], [5.110989606028567, 52.059302988971794], [5.111025449265757, 52.059295522958315], [5.111103764178956, 52.05927920428194], [5.1111104543978465, 52.05929145277739], [5.111116986056719, 52.059303404293225], [5.111124818712821, 52.05936922461793], [5.11112962945872, 52.05940961049093], [5.111140359179621, 52.05949984032638], [5.111148889508213, 52.05954474694321], [5.111164869462876, 52.05957333960733], [5.111617323029453, 52.06038259154678], [5.111692774591181, 52.06052620023624], [5.111878775132276, 52.06088022718946], [5.1119496016815855, 52.06101503452384], [5.111966479550807, 52.06104717048355], [5.11217664599276, 52.061455937024206], [5.112271173424607, 52.06172559413284], [5.112377436345541, 52.06206485546932], [5.112475445271777, 52.06244246768388], [5.112513693002002, 52.06274939286578], [5.112542366101352, 52.06330501461021], [5.112531743716095, 52.063729156588984], [5.11251509624959, 52.06382562308954], [5.112464175214804, 52.064039160673325], [5.1123891546742914, 52.0643537851925], [5.112387418220572, 52.06436108847352], [5.112089896323792, 52.065571424655836], [5.112082357139224, 52.06567814978019], [5.111877926808148, 52.0665128919195], [5.111839631304762, 52.06673082686272], [5.111815408842603, 52.06694875871591], [5.111810828656676, 52.06696786570773], [5.111803928290782, 52.06699667442843], [5.11175151832333, 52.066991222014394], [5.111690188771259, 52.066984840929464], [5.110951195353828, 52.066914082585406], [5.1107662061815455, 52.06689648159047], [5.11042119496529, 52.06686376414849], [5.109899357231292, 52.06681432538717], [5.10986845775539, 52.06681139446877], [5.10971250291552, 52.0667966015024], [5.10878040522735, 52.06670818948966], [5.108570158989424, 52.06668819745847], [5.10843792232053, 52.06666571112493], [5.10836215742451, 52.066642675159436], [5.1083560729338995, 52.06664082719163], [5.108327960954439, 52.06663058614693], [5.10828833935613, 52.0666161563677], [5.108266295066072, 52.066608122763945], [5.108151865128996, 52.06654124106247], [5.108044659295816, 52.06645487217297], [5.108008600184562, 52.066416443510334], [5.107976756941366, 52.066382509887944], [5.107952794990481, 52.06635695386672], [5.107939743998924, 52.06633569304257], [5.107930316732397, 52.0663203280115], [5.107913165959058, 52.066292343356], [5.107896794748047, 52.06626563685604], [5.107875452476131, 52.06620122246262]]]}}, {"type": "Feature", "id": "60519", "properties": {"OBJECTID": "60519", "LOCATIEGROEP_ID": "nl.imow-pv26.gebiedengroep.003000000000000000000443", "SYMBOOL_CODE": "vsg012", "GROEP": "kantoorlocatie", "9e750651-8e97-4bc6-b09e-fc30b5f3e83c_id": "11144", "LOCATIE_ID": "nl.imow-pv26.gebied.003000000000000000000443e57705", "DOCUMENT_URL": "https://omgevingsbeleid.provincie-utrecht.nl/home?d=/akn/nl/act/pv26/2022/omgevingsverordening/nld@1089&o=", "NAAM": "Gebiedstransformatie of  herstructurering", "TYPE": "ruimtelijk gebruik", "LOCATIEGROEP_NAAM": "Gebiedstransformatie of  herstructurering", "LOCATIE_NAAM": null}, "geometry": {"type": "Polygon", "coordinates": [[[5.097416962610898, 52.084332032596905], [5.097419442294817, 52.084316345500284], [5.097421526881665, 52.084303093202784], [5.097425664603083, 52.08427693906538], [5.097441442834261, 52.08424657116352], [5.0974592907761265, 52.08421876096141], [5.097493286580949, 52.08418459991217], [5.098260305234722, 52.08379717245308], [5.098301425808029, 52.08379143996119], [5.098329566930906, 52.0837939626647], [5.09834743257151, 52.08379719720849], [5.098346240255807, 52.0837852760895], [5.098416432289754, 52.083748677802205], [5.0984835354173335, 52.08371369875146], [5.098493899509369, 52.08370829533039], [5.098510689888866, 52.08369954610196], [5.098623640685731, 52.083640663074455], [5.098662426908921, 52.08361454875897], [5.098679526792923, 52.08360304092248], [5.098695806147177, 52.083592079348655], [5.098673471428513, 52.083576016913824], [5.098919065679297, 52.08344035838001], [5.099046343778499, 52.08337211743363], [5.099106730031416, 52.08332428662728], [5.099214256151666, 52.08321487674892], [5.099226636796746, 52.083190800952266], [5.099236151205005, 52.083172308741034], [5.099251357563296, 52.083139871938144], [5.099259316939368, 52.08312724514523], [5.099535952832121, 52.08284856185721], [5.099558200999988, 52.08282815027581], [5.099591984096923, 52.08279716089251], [5.100163579079673, 52.082197089368115], [5.101064825977121, 52.0812922656595], [5.101159561537396, 52.081251536854666], [5.101241233480985, 52.08121642979219], [5.101283312344477, 52.08114019604406], [5.101339441700813, 52.08103853310463], [5.101355204474119, 52.081009989213335], [5.10137771233226, 52.080969201924674], [5.101468745260615, 52.080870760382815], [5.101917940023335, 52.08038499060479], [5.1019627722805225, 52.080336509493115], [5.102214680221626, 52.08006408762885], [5.102284205654194, 52.07999329473735], [5.102353298428659, 52.07995606227532], [5.102412798761797, 52.0799269587948], [5.10254343248926, 52.07990899253483], [5.102644562500086, 52.07991270608778], [5.1027494396075275, 52.07993051292732], [5.102783857697847, 52.07994122887673], [5.102855998975205, 52.079963675383], [5.102968263537042, 52.08003341503359], [5.103870334540518, 52.0808765567514], [5.104272769319936, 52.08125269490112], [5.104389473658534, 52.08136176669754], [5.10447009524776, 52.08143711843523], [5.104536953767216, 52.08149961112206], [5.1046196938798385, 52.08162767395745], [5.1046525873621125, 52.08165601133274], [5.104677809864398, 52.08167931496492], [5.1047052513655915, 52.08170238123063], [5.104758666863528, 52.08174758445395], [5.104469881447711, 52.08189581578562], [5.103293789699802, 52.082490382328686], [5.103167584622824, 52.08255418134186], [5.103093745862844, 52.08259160956032], [5.100574123648093, 52.08386870323309], [5.100507847838393, 52.08390229233037], [5.100442625803949, 52.08393534466863], [5.100242509428067, 52.08403676461924], [5.099917331542762, 52.084201793796296], [5.0994811262326945, 52.08442789482348], [5.098922699720891, 52.084717340045245], [5.09840859172438, 52.084916030677476], [5.098337769490572, 52.084950524201375], [5.0982928432028665, 52.08497382806719], [5.098281567628614, 52.08498025387756], [5.098212847124625, 52.084931010525466], [5.098184600878639, 52.08491077203005], [5.098160144972654, 52.08489325722103], [5.098123693651706, 52.084867129377244], [5.098084951528077, 52.084838784836286], [5.098027724236532, 52.08479691282131], [5.097980226063489, 52.08476216523037], [5.097416962610898, 52.084332032596905]]]}}, {"type": "Feature", "id": "60520", "properties": {"OBJECTID": "60520", "LOCATIEGROEP_ID": "nl.imow-pv26.gebiedengroep.003000000000000000000443", "SYMBOOL_CODE": "vsg012", "GROEP": "kantoorlocatie", "9e750651-8e97-4bc6-b09e-fc30b5f3e83c_id": "11145", "LOCATIE_ID": "nl.imow-pv26.gebied.003000000000000000000443e57700", "DOCUMENT_URL": "https://omgevingsbeleid.provincie-utrecht.nl/home?d=/akn/nl/act/pv26/2022/omgevingsverordening/nld@1089&o=", "NAAM": "Gebiedstransformatie of  herstructurering", "TYPE": "ruimtelijk gebruik", "LOCATIEGROEP_NAAM": "Gebiedstransformatie of  herstructurering", "LOCATIE_NAAM": null}, "geometry": {"type": "Polygon", "coordinates": [[[5.106071586341328, 52.05948112583113], [5.105957200919795, 52.05949647425431], [5.10587660533834, 52.05950873941596], [5.1057904113246, 52.05952086532068], [5.105650743657955, 52.05954051230867], [5.105340437855057, 52.0595796688038], [5.105015286516138, 52.05967221428976], [5.104862490148883, 52.05971571032781], [5.104527131540745, 52.05975022970934], [5.104349544715479, 52.05976851687319], [5.102546894279591, 52.059954059472076], [5.10217718986561, 52.05998211663029], [5.101835431214068, 52.060004353085205], [5.101322340351852, 52.060037740763], [5.10072057028592, 52.060076896755554], [5.100625336413779, 52.06008623755684], [5.100424683897233, 52.06010596373114], [5.1003456747646005, 52.06011372592587], [5.100129780477612, 52.06013630867081], [5.099935842926454, 52.06015253601651], [5.099885083052402, 52.06015727484635], [5.099797147035579, 52.06016546431525], [5.099683561184578, 52.060176035911105], [5.099626760919425, 52.06018132614413], [5.0995630593635, 52.06018726462649], [5.099493857250349, 52.060193710956725], [5.099354898524151, 52.060206656069624], [5.099511480036322, 52.06003130277174], [5.099655814353071, 52.05990324181272], [5.099731793398438, 52.059847296387204], [5.099776117384836, 52.059827450880306], [5.099864896874956, 52.05978769722029], [5.09988450444308, 52.05978386215898], [5.099903247922091, 52.059746526278786], [5.099926473264135, 52.05969926046409], [5.100014685045665, 52.05960018373908], [5.100047350103799, 52.05956112008907], [5.10020578134427, 52.05937166801109], [5.100278898449515, 52.0592842388762], [5.100612756448167, 52.05888497217689], [5.100945045614931, 52.05847928318979], [5.10104450633371, 52.05835785259305], [5.101077547428286, 52.058316704322586], [5.101104444826046, 52.05828319001615], [5.101376472803881, 52.05793752892862], [5.101443781628997, 52.057854740816595], [5.101470411262852, 52.05782197178964], [5.101620033682987, 52.05761949061261], [5.101824322746555, 52.05734303459565], [5.102004268659065, 52.0570995057039], [5.102116397508105, 52.0569477429762], [5.102223012696751, 52.05679620948542], [5.102353507135495, 52.056610740549054], [5.102615728575786, 52.05623806151333], [5.10306407701948, 52.05559418283302], [5.1031087003646425, 52.055533144231596], [5.103219926394907, 52.055494952151555], [5.103299044016175, 52.05545261099727], [5.103342596298596, 52.05542476285771], [5.104140115244444, 52.05431472474743], [5.104144205315401, 52.05429043068901], [5.104099362484682, 52.054167500271724], [5.104433448010613, 52.053702259257484], [5.104574650868281, 52.05350353803903], [5.104610722665271, 52.05346852592687], [5.10463829681228, 52.05345164943688], [5.1046670338876465, 52.053439934911616], [5.1047029020791665, 52.053434870710255], [5.10475599120452, 52.053385464422156], [5.104811045327068, 52.05333423822984], [5.104804770385868, 52.05332590917798], [5.104784470562516, 52.05325738900271], [5.104787534491544, 52.053224661599415], [5.104800120673765, 52.05317081694937], [5.104819045654101, 52.05313135050967], [5.104866657370054, 52.05301409767301], [5.104885248133461, 52.052979061566305], [5.104896432313501, 52.052957948293134], [5.10490167008336, 52.05294809188097], [5.10490999169559, 52.05293240057561], [5.104919110030748, 52.05291521016145], [5.104938777556346, 52.05287818126175], [5.104958223645339, 52.05284158325816], [5.104993958274578, 52.052774338805314], [5.105012563417403, 52.052739302712], [5.105074742762839, 52.052709368346164], [5.105102661304042, 52.05266317330943], [5.105343601281052, 52.05224778844751], [5.105461912463153, 52.052089835441166], [5.105469690104985, 52.05207944578792], [5.10554306195915, 52.05201056542265], [5.1055732454141545, 52.05199122321454], [5.105597983570381, 52.05197536436635], [5.105707695365616, 52.05192583228948], [5.1057390477816265, 52.051915328158366], [5.105788603832118, 52.051898728604144], [5.105842965004627, 52.05189466994893], [5.105872005276077, 52.051892501241895], [5.105955361810195, 52.05189110033664], [5.106069924769248, 52.05189779123581], [5.1062000298975745, 52.051920589855136], [5.106436678246058, 52.05198057444064], [5.106506834959217, 52.05200804750284], [5.106595058767112, 52.052062860482614], [5.106683051423606, 52.05215461403724], [5.107124300614138, 52.052895871587744], [5.10727375946634, 52.05315601943663], [5.107573461070898, 52.05367769156824], [5.107837492383555, 52.05411768415989], [5.10806308446978, 52.05452686367734], [5.108114506720719, 52.05463459125402], [5.1081555593968355, 52.054735867745656], [5.108176720050752, 52.054852026390535], [5.1081891968245134, 52.054920473503486], [5.108207366875023, 52.05501587148934], [5.108214602113326, 52.055038700467286], [5.108221794179727, 52.05506143946136], [5.108267623187001, 52.055145038593594], [5.108329231347328, 52.055270236114076], [5.108341886072562, 52.055293769993305], [5.10834962581057, 52.055310524186865], [5.108409463903405, 52.05538521322968], [5.108604344329815, 52.05562843422649], [5.108735852792338, 52.0557839069521], [5.10879710259814, 52.05587563161122], [5.108855765114682, 52.05597783925997], [5.108870967971295, 52.05600434517668], [5.108894796778245, 52.056045827692046], [5.109008949789876, 52.05624468969722], [5.109340581855501, 52.05682242835708], [5.109688681485695, 52.057428822959125], [5.10984457725876, 52.05770448697073], [5.109842076977559, 52.05778329787297], [5.1098224246715915, 52.057855839640766], [5.109818613509967, 52.05789675356043], [5.109820581203902, 52.05790864048054], [5.1098301499414385, 52.0579198172535], [5.10984439112634, 52.05792993543665], [5.109862392022522, 52.0579380491282], [5.109842940125081, 52.057959395064096], [5.109803042920018, 52.05799297063884], [5.109834918886994, 52.058049131505626], [5.109856107060845, 52.05808646407399], [5.109889429156447, 52.058083360696735], [5.109923929614662, 52.05808540128455], [5.109956432684065, 52.05808976508506], [5.109989264112488, 52.05809997192387], [5.110016962245274, 52.05811031048976], [5.1100466177273995, 52.05812479717343], [5.110067534194083, 52.058142454080055], [5.110108218617362, 52.05821493103699], [5.110211493712048, 52.05835198191403], [5.110260894938775, 52.05842260078664], [5.1103223127816095, 52.05848587761641], [5.110396917879459, 52.05855529730588], [5.110461001736081, 52.05861901175275], [5.110499557113665, 52.05866809649472], [5.110520759784286, 52.058715019290354], [5.110319230995421, 52.058755549758445], [5.1102429277183585, 52.05877206139135], [5.109001772408037, 52.059040633004635], [5.107498779114801, 52.05929993282645], [5.106997854640991, 52.05936005080978], [5.106561722687088, 52.05941643810863], [5.1064614089449565, 52.05942941171474], [5.106204539078198, 52.05946261281267], [5.106071586341328, 52.05948112583113]]]}}, {"type": "Feature", "id": "60514", "properties": {"OBJECTID": "60514", "LOCATIEGROEP_ID": "nl.imow-pv26.gebiedengroep.003000000000000000000443", "SYMBOOL_CODE": "vsg012", "GROEP": "kantoorlocatie", "9e750651-8e97-4bc6-b09e-fc30b5f3e83c_id": "11149", "LOCATIE_ID": "nl.imow-pv26.gebied.003000000000000000000443e57706", "DOCUMENT_URL": "https://omgevingsbeleid.provincie-utrecht.nl/home?d=/akn/nl/act/pv26/2022/omgevingsverordening/nld@1089&o=", "NAAM": "Gebiedstransformatie of  herstructurering", "TYPE": "ruimtelijk gebruik", "LOCATIEGROEP_NAAM": "Gebiedstransformatie of  herstructurering", "LOCATIE_NAAM": null}, "geometry": {"type": "Polygon", "coordinates": [[[5.417122053644432, 52.1715413462838], [5.417608192041737, 52.17146197499532], [5.417914380950193, 52.17209843649505], [5.417909835217729, 52.17209916570453], [5.417495895350814, 52.172165747802985], [5.417454983985532, 52.17217283183501], [5.417370340254799, 52.17218750390429], [5.417277014282198, 52.172203652153975], [5.416962000284758, 52.17225819914768], [5.416863134374801, 52.172275319167966], [5.416827705695787, 52.17228400144286], [5.416723509648482, 52.1723095533433], [5.416699601726492, 52.17232074929315], [5.416617516786174, 52.1723591752023], [5.4164971282819465, 52.172436303538696], [5.416334940439394, 52.172572115155894], [5.41613561450337, 52.17267546242465], [5.416019037050712, 52.17270351539006], [5.415606817722992, 52.17277634600919], [5.415039757378079, 52.17286947076218], [5.414474120750437, 52.17314212576604], [5.414367394735231, 52.17319542181744], [5.4142173700751925, 52.17327535890076], [5.413987642574666, 52.173424511863054], [5.413672768195155, 52.17368507964959], [5.413597535123481, 52.173749458954035], [5.413125456888299, 52.17415342651589], [5.413072199884759, 52.17420228750658], [5.412676779420561, 52.17456506274211], [5.412635035104503, 52.174603360249925], [5.412601519010731, 52.17463785407958], [5.412578624601148, 52.17466142530519], [5.412550061348075, 52.17469083988557], [5.412481626252765, 52.174761283827756], [5.412372131795922, 52.17489321377035], [5.411843990388533, 52.17544648609597], [5.411740502473417, 52.17555489284867], [5.411720480488136, 52.175566455473096], [5.411481793848378, 52.17599700740003], [5.411465449840296, 52.17602458564831], [5.4114461700188015, 52.176057116831906], [5.411385512617105, 52.176134865671116], [5.411283421491635, 52.1762897571156], [5.411242985437411, 52.17634636219255], [5.411139952401112, 52.17654559098543], [5.411137411211607, 52.1765504359797], [5.411034755433089, 52.17674611437812], [5.410955536307641, 52.177027595357586], [5.410918543023206, 52.1771814486298], [5.410881566243576, 52.17736665165554], [5.410853877360216, 52.17756039128815], [5.410852513563972, 52.17768952961134], [5.410847237508439, 52.178185752226945], [5.410848746976101, 52.17846632694704], [5.410489919518154, 52.17859853878674], [5.409818133246834, 52.1781975677301], [5.407408796230275, 52.176759415030745], [5.406120983698614, 52.17601578314456], [5.406036623578447, 52.17596707337509], [5.405747064990058, 52.17577639649217], [5.405594474250884, 52.17568500469699], [5.405554539010368, 52.17566108519105], [5.402736677810757, 52.17393788464554], [5.402690018908367, 52.17390784429852], [5.402644605695592, 52.17384470133697], [5.402272138570848, 52.173595695330505], [5.402133551975624, 52.17350304789986], [5.4021063937966245, 52.17351238081048], [5.4020811234952735, 52.17348456648639], [5.402061000881177, 52.17346244982965], [5.402068864761013, 52.17345974347048], [5.401896780413654, 52.17334452241821], [5.401288129308951, 52.17290620368621], [5.401117903318295, 52.17278361118455], [5.400534956823911, 52.17236219169814], [5.399777623413783, 52.17182328941823], [5.399381045826199, 52.171541363103636], [5.398843511857171, 52.1711434247918], [5.398520013911931, 52.17089386264448], [5.398419967245013, 52.17082512386466], [5.3988593267601726, 52.170641044352486], [5.398980594656642, 52.17069524717596], [5.3996262898970775, 52.170967477579275], [5.400619327149728, 52.17133424466954], [5.401139162071007, 52.17150043292493], [5.401593724553202, 52.17164511890559], [5.402791894454571, 52.1719559554153], [5.402899261634224, 52.171989735542084], [5.4040870556157135, 52.1722221318508], [5.404276402616354, 52.17225452370066], [5.404324214182342, 52.17224294028922], [5.404392455542571, 52.172252529350935], [5.404402659728387, 52.17225432542995], [5.404466706362323, 52.17226559580342], [5.40465162738703, 52.172453352563366], [5.404842677512615, 52.17264730975437], [5.405326691206553, 52.17315039636427], [5.40536079603766, 52.17318583935058], [5.405386023708668, 52.173212071110186], [5.405409585726003, 52.173204814208944], [5.405619365209239, 52.173144670286646], [5.406043257770326, 52.17304371359632], [5.406434368941795, 52.17296484404526], [5.40672765929723, 52.172934470294386], [5.407085215791898, 52.17291321662001], [5.407165149114482, 52.17291311313366], [5.407174490262366, 52.17291310255204], [5.4072018997336295, 52.17291307090766], [5.407493434168088, 52.172912715140214], [5.407536091372441, 52.17291431657187], [5.407564451544243, 52.17291538120198], [5.407819722383748, 52.172924953573094], [5.407916679429728, 52.17294170787913], [5.407964752177196, 52.17295757199519], [5.40807783322992, 52.17303582750932], [5.408144304251917, 52.17297617193245], [5.4081930416010415, 52.17291359843057], [5.408223725885366, 52.17285262799685], [5.40854413344219, 52.17288723636643], [5.408584182592588, 52.17284616334319], [5.409194106314863, 52.17305509996892], [5.409212353876988, 52.173033237967935], [5.40965688362852, 52.17317315811336], [5.410164575973592, 52.172623206916604], [5.410801615484828, 52.17254716852966], [5.411536546292079, 52.17243552331752], [5.412684308571038, 52.17225208802844], [5.4140387708071245, 52.17203560884931], [5.415455384061595, 52.171809176515765], [5.415477455038609, 52.17180564794046], [5.416015518076069, 52.171719637620136], [5.417122053644432, 52.1715413462838]]]}}, {"type": "Feature", "id": "60515", "properties": {"OBJECTID": "60515", "LOCATIEGROEP_ID": "nl.imow-pv26.gebiedengroep.003000000000000000000443", "SYMBOOL_CODE": "vsg012", "GROEP": "kantoorlocatie", "9e750651-8e97-4bc6-b09e-fc30b5f3e83c_id": "11150", "LOCATIE_ID": "nl.imow-pv26.gebied.003000000000000000000443e57702", "DOCUMENT_URL": "https://omgevingsbeleid.provincie-utrecht.nl/home?d=/akn/nl/act/pv26/2022/omgevingsverordening/nld@1089&o=", "NAAM": "Gebiedstransformatie of  herstructurering", "TYPE": "ruimtelijk gebruik", "LOCATIEGROEP_NAAM": "Gebiedstransformatie of  herstructurering", "LOCATIE_NAAM": null}, "geometry": {"type": "Polygon", "coordinates": [[[5.098510809915809, 52.06110018517398], [5.0985880494804, 52.06101210207971], [5.098610805473786, 52.06098593947481], [5.09861876239388, 52.06097537095979], [5.0987462438522355, 52.0609743528139], [5.09883206324637, 52.06097131812644], [5.098918689828314, 52.060967476420615], [5.098916420699265, 52.06097339403763], [5.098927065478772, 52.06100057317109], [5.098981029543326, 52.06102377764998], [5.099029727882076, 52.06104724785988], [5.099091449146829, 52.061063730169565], [5.099117799263883, 52.061068171796215], [5.0991831865841775, 52.06107919824546], [5.099236847493093, 52.06110196144801], [5.099243129737288, 52.06110462829199], [5.099300891654076, 52.06112912720345], [5.099321367172099, 52.06113781479948], [5.099359133502042, 52.06115383398519], [5.099474531950256, 52.06114297051704], [5.099893257495291, 52.06110356352368], [5.100130284065306, 52.06108124839965], [5.100469211953927, 52.061049338782695], [5.100527794742718, 52.06104593099424], [5.100612258933239, 52.061067815753795], [5.100671373964943, 52.06108377857417], [5.100695562844339, 52.06105682809848], [5.100734250380828, 52.06103376876208], [5.100802338079146, 52.06101250658167], [5.100977595673997, 52.06099689756006], [5.101653398372009, 52.06093671667829], [5.101799496528499, 52.06093177657553], [5.103175436795312, 52.060893566579146], [5.1033425861350725, 52.060893969293495], [5.103421106782948, 52.06090359591122], [5.103483439613679, 52.06091123308638], [5.103913495792101, 52.06096302349505], [5.105076676150675, 52.061116086001626], [5.106135922519195, 52.061255451953755], [5.106204387004167, 52.06128764884387], [5.106243290899292, 52.06142257226148], [5.10625428006367, 52.06146066311178], [5.106273932189468, 52.061528776927545], [5.1063023754348285, 52.061627417343], [5.106314771340957, 52.06166907981939], [5.106323668449524, 52.061698977506026], [5.10636748589309, 52.06172019499968], [5.106391208686593, 52.06174381835378], [5.106420546591729, 52.06183705002556], [5.106433399835239, 52.06187789565925], [5.106459635613168, 52.0619612330067], [5.1065346968803125, 52.06219978547085], [5.106574587189599, 52.06232651394926], [5.106598021101103, 52.062400955346575], [5.106608744228136, 52.062435045814645], [5.106789791950915, 52.06302524052495], [5.106808799097663, 52.0630871419143], [5.106816130185612, 52.06311105873778], [5.106997581618189, 52.06372383214577], [5.107016018039102, 52.06378614559006], [5.107023815672455, 52.06381244535539], [5.107200279467711, 52.064412173762236], [5.107204808764889, 52.064445782067295], [5.107214327703532, 52.06451634334566], [5.107219832461628, 52.06455720736921], [5.107255236113192, 52.06491468555637], [5.107286683075852, 52.065144702970635], [5.107293077483501, 52.06530687257849], [5.107295859965481, 52.06537731897255], [5.107255272128078, 52.0654290210287], [5.10722494517726, 52.065467642787276], [5.107169397748538, 52.06547454850992], [5.10623018232008, 52.06559132475935], [5.106060021695339, 52.0656124814555], [5.105038572934578, 52.06573947823019], [5.10499324357036, 52.065744744589594], [5.104936122166842, 52.06575137584807], [5.104452208437375, 52.06580772183904], [5.10435752126702, 52.065818747756126], [5.1037013940324005, 52.065895134191635], [5.10365902002584, 52.06588733844006], [5.103420021290862, 52.065800621220006], [5.10336832090043, 52.065777936579174], [5.103311021523271, 52.06575279366445], [5.103195348656172, 52.065710936006596], [5.1031591773102924, 52.06569784304964], [5.103124228180017, 52.06568519344461], [5.1023575345790935, 52.065407722700094], [5.102325714121231, 52.06539620393152], [5.102319443157644, 52.06539393275908], [5.1022875353924295, 52.06538238680483], [5.102238051536035, 52.06536447071989], [5.102116007882275, 52.06532030462523], [5.10124779976078, 52.065006089308], [5.101194941181813, 52.06498696018793], [5.101167878985711, 52.06497716938025], [5.101155119066586, 52.064972545488956], [5.10114008937603, 52.0649671071575], [5.101113027203952, 52.06495731633724], [5.101012228155165, 52.064920822575246], [5.100453037914567, 52.064729301984265], [5.099740644390632, 52.06448531007205], [5.099159260349353, 52.064286179161265], [5.099093228754477, 52.06426350254646], [5.099029772699716, 52.06424171302669], [5.097979004733793, 52.063877187896374], [5.097823695815577, 52.06382330043651], [5.097461258110458, 52.06369202842535], [5.0969831468026205, 52.06351885554629], [5.096961538424793, 52.06348011749988], [5.0969595300287045, 52.063450254045634], [5.096967013260182, 52.063391409328155], [5.096996098458221, 52.06316304807682], [5.09702167041329, 52.063062713825516], [5.09708675730053, 52.062825659792054], [5.097110278863547, 52.06276714215936], [5.097158981955038, 52.06267971780828], [5.097169058983915, 52.06266162257173], [5.097203981822499, 52.06259890856335], [5.097253894253554, 52.062509329999905], [5.097303907189184, 52.06243347651078], [5.097332683979844, 52.062392040185074], [5.097399402850322, 52.06230346462145], [5.097736678652434, 52.061940131087944], [5.09841539853694, 52.061208986234746], [5.098456750887119, 52.061161828050835], [5.098510809915809, 52.06110018517398]]]}}], "properties": {"sourceId": "agrest-ov-gebiedstransformatie-of-herstructurering", "title": "Omgevingsverordening — Gebiedstransformatie of herstructurering", "serviceUrl": "https://agrest.geodata-utrecht.nl/rest/services/Omgevingsverordening/FeatureServer", "layerId": 0, "role": "conditional", "authoritative": true, "licenseNote": "Structured open data of provincie Utrecht on agrest.geodata-utrecht.nl; service is anonymously queryable; no license statement exposed by the endpoint itself (platform presented as open data).", "lastChecked": "2026-10-06T11:11:23Z", "where": "NAAM='Gebiedstransformatie of  herstructurering'", "fetchedAt": "2026-10-06T11:11:29Z", "userAgent": "ldttoolbox-geoconnector/0.1 (wind-turbine opportunity-map PoC; cache-first, single-page politeness; open data of provincie Utrecht via geo-point.provincie-utrecht.nl)", "pages": 1, "featureCount": 7, "bbox": null, "simplifyM": null, "queryFingerprint": "{\"bbox\": null, \"simplify_m\": null}", "crs": "OGC:CRS84/WGS84 (RFC 7946 default, no crs member)"}}