{"type": "FeatureCollection", "name": "agrest-ov-gebied-gesloten-stortplaats", "features": [{"type": "Feature", "id": "58106", "properties": {"OBJECTID": "58106", "LOCATIEGROEP_ID": "nl.imow-pv26.gebiedengroep.003000000000000000000827", "SYMBOOL_CODE": "vszt003", "GROEP": "stortplaats (gesloten)", "9e750651-8e97-4bc6-b09e-fc30b5f3e83c_id": "8767", "LOCATIE_ID": "nl.imow-pv26.gebied.003000000000000000000827e118753", "DOCUMENT_URL": "https://omgevingsbeleid.provincie-utrecht.nl/home?d=/akn/nl/act/pv26/2022/omgevingsverordening/nld@1089&o=", "NAAM": "Gebied gesloten stortplaats", "TYPE": "bodem", "LOCATIEGROEP_NAAM": "Gebied gesloten stortplaats", "LOCATIE_NAAM": null}, "geometry": {"type": "Polygon", "coordinates": [[[5.402153589800143, 52.20101040925951], [5.403559306044691, 52.20196603436992], [5.403599716254775, 52.20206600061276], [5.406443818648499, 52.203989947548266], [5.406042941705056, 52.204035536229995], [5.4056579788747845, 52.20407873027261], [5.405573151559098, 52.2040883965734], [5.404375428084313, 52.20422493323158], [5.404381046875506, 52.20422849159522], [5.404099193645894, 52.20425947783482], [5.403876919937659, 52.20428327362548], [5.40370310890178, 52.204301885164334], [5.403256643986027, 52.204349322305], [5.402869231885905, 52.204390080867434], [5.402619075564902, 52.20441686199116], [5.4025610898731715, 52.20442425764297], [5.402419343741269, 52.204442341775334], [5.401946035914354, 52.20450058983625], [5.401832448351769, 52.20451475998956], [5.401801070870885, 52.20451839500901], [5.4016158631635385, 52.204539818095625], [5.401297157611532, 52.204575350040216], [5.401278974688041, 52.20457737450129], [5.4010504818155605, 52.20460485972505], [5.4010273399131, 52.20460753186102], [5.400874971912578, 52.20462510308908], [5.400741722897075, 52.20464028113452], [5.400608926172521, 52.20465180991034], [5.4005826389855365, 52.2046543475029], [5.400406644996863, 52.20467149840552], [5.400280694627759, 52.20468387089449], [5.3999604786349495, 52.204713961749555], [5.399717500605951, 52.20473758120162], [5.399653969344177, 52.20474376266069], [5.399292822850924, 52.20478059695863], [5.399094431858784, 52.20480056142428], [5.3990664770294385, 52.20480391674378], [5.398918657199632, 52.20482163777604], [5.398600034864852, 52.20485566145792], [5.3982590013751395, 52.20489276924427], [5.397897633429307, 52.2049310013985], [5.397863812313234, 52.20493465357158], [5.397461747907097, 52.20498075248435], [5.397137184804905, 52.205018412820344], [5.397089832144225, 52.20502356689927], [5.397044147127769, 52.20502853207298], [5.396885749028925, 52.20504624246723], [5.396443702225399, 52.20509486682561], [5.396018097243777, 52.2051426524089], [5.395704722417476, 52.20517778236826], [5.3954052878882965, 52.20520954006488], [5.39529580680021, 52.20522162744248], [5.3952588984189145, 52.20522465892339], [5.395036678760491, 52.20503215445423], [5.39496233790371, 52.204968732212926], [5.3948362032725745, 52.20486112908711], [5.394590343121281, 52.20464514906016], [5.3945451480705975, 52.20460545260837], [5.3944005360133795, 52.20447758258105], [5.3941800779541635, 52.20427711312863], [5.394146924557045, 52.20424696089034], [5.393979827826698, 52.20410125080709], [5.393803150062672, 52.20395283568983], [5.393727935015127, 52.20388918801303], [5.393626487945809, 52.20380335074909], [5.393306070679892, 52.20353340908191], [5.393241975966246, 52.20347925167155], [5.392957947993564, 52.20323927262625], [5.39264703405457, 52.202981147693066], [5.392330023577594, 52.20272139540131], [5.392189740331559, 52.202602555222015], [5.392080633276313, 52.20251006593268], [5.391845815864327, 52.202308064729046], [5.392029093464128, 52.202203986762896], [5.392319965957979, 52.20203612593213], [5.392593590935538, 52.20187593183236], [5.39269233650065, 52.20181816220309], [5.392724749417111, 52.20179897157665], [5.392996439436039, 52.201629977519474], [5.393280618165306, 52.201451473021415], [5.393290944447718, 52.20144498324343], [5.393549509818459, 52.20128077013615], [5.393749363387316, 52.20115280783196], [5.394009694895892, 52.20098592421442], [5.3943226052483935, 52.200787049004724], [5.394394184775382, 52.200740855972704], [5.39456894914018, 52.20062333771846], [5.394779370056698, 52.20048146876633], [5.395068694972176, 52.200287347681474], [5.395329278105003, 52.20011147325329], [5.395404452055626, 52.200055887039476], [5.395556716693561, 52.19995061935077], [5.395571927000495, 52.19993994966519], [5.395621477451284, 52.19990519901512], [5.395669433738364, 52.19987190449358], [5.395729996912358, 52.19982985485126], [5.395890142576772, 52.19971710824978], [5.396048066083048, 52.199469426881905], [5.396089803060018, 52.1994982657266], [5.396327203962215, 52.19965251488346], [5.396634593213965, 52.199853782362254], [5.396902821576301, 52.200026129387105], [5.397026601406766, 52.20010814216593], [5.397131762970367, 52.20006926972575], [5.397440987320451, 52.19995791028995], [5.3976661406180915, 52.19987919255232], [5.3980032626176095, 52.20009045726422], [5.398004593534265, 52.20008977406339], [5.398038855983769, 52.20011125185483], [5.398087924127176, 52.20014407991511], [5.398146995699762, 52.200111241728116], [5.398198286516625, 52.20008261955235], [5.3984107898817655, 52.19995978019827], [5.3986084335923366, 52.19984762847923], [5.398837562703668, 52.199713030602595], [5.398858520062239, 52.199700238783976], [5.3989685930805225, 52.1997133499837], [5.398995818773784, 52.19973015452356], [5.399019372151461, 52.19974357100741], [5.399101764382049, 52.19973345127613], [5.3991166543111415, 52.19973142748549], [5.399118862972551, 52.19973126547804], [5.399206570442171, 52.199741718336504], [5.399422505458035, 52.19987732265624], [5.400426262283971, 52.19999694932646], [5.401885926813065, 52.20098931277868], [5.401888472590396, 52.20099103812676], [5.402018560758597, 52.200918615521665], [5.402153589800143, 52.20101040925951]]]}}], "properties": {"sourceId": "agrest-ov-gebied-gesloten-stortplaats", "title": "Omgevingsverordening — Gebied gesloten stortplaats", "serviceUrl": "https://agrest.geodata-utrecht.nl/rest/services/Omgevingsverordening/FeatureServer", "layerId": 0, "role": "context", "authoritative": true, "licenseNote": "Structured open data of provincie Utrecht on agrest.geodata-utrecht.nl; service is anonymously queryable; no license statement exposed by the endpoint itself (platform presented as open data).", "lastChecked": "2026-10-04T16:47:00Z", "where": "NAAM='Gebied gesloten stortplaats'", "fetchedAt": "2026-10-04T16:48:52Z", "userAgent": "ldttoolbox-geoconnector/0.1 (wind-turbine opportunity-map PoC; cache-first, single-page politeness; open data of provincie Utrecht via geo-point.provincie-utrecht.nl)", "pages": 1, "featureCount": 1, "bbox": null, "simplifyM": null, "queryFingerprint": "{\"bbox\": null, \"simplify_m\": null}", "crs": "OGC:CRS84/WGS84 (RFC 7946 default, no crs member)"}}