{"type": "FeatureCollection", "name": "agrest-ov-landbouwontwikkelingsgebied", "features": [{"type": "Feature", "id": "59685", "properties": {"OBJECTID": "59685", "LOCATIEGROEP_ID": "nl.imow-pv26.gebiedengroep.003000000000000000000474", "SYMBOOL_CODE": "vsg040", "GROEP": "landbouw", "9e750651-8e97-4bc6-b09e-fc30b5f3e83c_id": "10360", "LOCATIE_ID": "nl.imow-pv26.gebied.003000000000000000000474e60740", "DOCUMENT_URL": "https://omgevingsbeleid.provincie-utrecht.nl/home?d=/akn/nl/act/pv26/2022/omgevingsverordening/nld@1089&o=", "NAAM": "Landbouwontwikkelingsgebied", "TYPE": "ruimtelijk gebruik", "LOCATIEGROEP_NAAM": "Landbouwontwikkelingsgebied", "LOCATIE_NAAM": null}, "geometry": {"type": "Polygon", "coordinates": [[[5.475238708854972, 52.06960984556896], [5.4752536427725556, 52.06962426021983], [5.4748427745781285, 52.06966663129189], [5.474462087659126, 52.069697339000825], [5.473938576835, 52.06978282527954], [5.473919566106779, 52.069786794047225], [5.473909781363839, 52.06978761018843], [5.473580566464347, 52.06984314703401], [5.473434956389936, 52.0698677014317], [5.473387175297512, 52.06987445054383], [5.473179451075039, 52.069915408403304], [5.473051022848897, 52.0699407317217], [5.472872762652779, 52.069975879214], [5.472843862281555, 52.06997932471802], [5.472760739432288, 52.069999895980935], [5.472691603234362, 52.07002805192468], [5.472641910069301, 52.070034181948564], [5.472543905365983, 52.070067302211136], [5.4724882361776945, 52.07007542286825], [5.4724105741052815, 52.07009935145574], [5.472288835916497, 52.07015349379239], [5.471954678875886, 52.07026640941986], [5.4716379785128515, 52.07040259961616], [5.471490511117777, 52.070387380790315], [5.4708838969899345, 52.07035649971691], [5.470824827302387, 52.07036378611819], [5.470788648556647, 52.070359380732626], [5.470739707356892, 52.07036239955123], [5.4707096419283445, 52.0703591941972], [5.470614393461226, 52.07036206608396], [5.4705095990639085, 52.070376602167315], [5.470073648531567, 52.07040351490766], [5.469973400444043, 52.07041594410398], [5.469293366890811, 52.070543835579855], [5.469284301928818, 52.070547571952346], [5.469273774029034, 52.07054889155826], [5.469178565297562, 52.07057367513681], [5.4691642975094945, 52.07057959922529], [5.468613035480514, 52.07075846705887], [5.468527862708497, 52.07079250984585], [5.4682098328229385, 52.07095131466305], [5.468092986032943, 52.0709964162866], [5.468008068157087, 52.071042826084835], [5.467982875385863, 52.07106463044378], [5.467975414568722, 52.07106836561293], [5.467160681326026, 52.07103069635659], [5.4670364966624305, 52.0710430045081], [5.466883815798695, 52.07102439496024], [5.465488761508278, 52.0711963749278], [5.4643066610329445, 52.07168424583409], [5.46351747195838, 52.072413745882955], [5.463391205340927, 52.07280711800697], [5.463382325515866, 52.07282588182708], [5.46336994707109, 52.07283724175828], [5.463278780656281, 52.07297071944033], [5.463276342985597, 52.072978190089174], [5.463269352839962, 52.072984648033966], [5.463145172537578, 52.07320052246251], [5.463094083065706, 52.07330617405231], [5.462942141502046, 52.073950364781666], [5.4629423740771195, 52.07408743240388], [5.462995338275168, 52.074466640060386], [5.463029737322515, 52.07458964630419], [5.4630701267412745, 52.07467551004851], [5.463085749620257, 52.07475330052267], [5.463114356550895, 52.07482378431404], [5.463284418951952, 52.07514062894449], [5.463528492012835, 52.07543816389798], [5.4635800873551155, 52.075490935173924], [5.4641208729977455, 52.075916445307506], [5.46412473001276, 52.07592000205093], [5.46422170333226, 52.07597976300792], [5.4642235133693715, 52.07598050783008], [5.464224726003522, 52.07598163054159], [5.464314209206795, 52.07602866925315], [5.464236868222912, 52.07632323131525], [5.464222904869422, 52.07643094423585], [5.464215312364527, 52.076452053144834], [5.464170292349217, 52.07706670324668], [5.464142679379631, 52.077337692938244], [5.464091794912816, 52.07741976911195], [5.463981595047066, 52.07749125115685], [5.463963862213083, 52.07750275844697], [5.4638437980451595, 52.07753855527274], [5.463252009637628, 52.077607275689026], [5.463239701864614, 52.07760953964949], [5.463226370535105, 52.07761036618335], [5.4621369620316775, 52.07774685702036], [5.462043793345113, 52.07776443407116], [5.461990397179033, 52.077769150824146], [5.461186366023996, 52.07791343235328], [5.460996725708571, 52.077954572987416], [5.460968489260307, 52.07796622123914], [5.460938227210468, 52.07797028484484], [5.460199163690709, 52.07817842385739], [5.4601630996529575, 52.07819386973076], [5.459944638965063, 52.078265873521], [5.4592057205840865, 52.078569854698046], [5.459164238249625, 52.07859084021814], [5.459129189551032, 52.07860312136071], [5.458118089568236, 52.0790669974257], [5.457916468024976, 52.079174472075124], [5.457881435770607, 52.07920685009888], [5.4578381986631, 52.079225921751444], [5.457658398977826, 52.07935180832812], [5.457452446390982, 52.079267192328444], [5.457248371354893, 52.07922582531075], [5.457143407270483, 52.07894335767253], [5.4563517284948375, 52.078214850806944], [5.455446534413717, 52.07784294227448], [5.455153201267834, 52.07756723318329], [5.455144128830711, 52.07757734997864], [5.455117455182468, 52.07753362956816], [5.45504970286161, 52.07746995244773], [5.455066945075897, 52.07745086986154], [5.454801835939963, 52.077016522552064], [5.454445258328792, 52.0765343386762], [5.454220367734073, 52.076230239732794], [5.454209405368091, 52.076215406718234], [5.454000777068681, 52.0760443391414], [5.45355123484945, 52.075675706359064], [5.453499067937079, 52.07563293471686], [5.45308568971397, 52.0752516155711], [5.453057331812344, 52.07528004268542], [5.451392840656666, 52.07466234326519], [5.4505192456232034, 52.07447147964582], [5.449645672615765, 52.074280600545926], [5.448050058689053, 52.07433001809395], [5.4466188068727766, 52.074692447669364], [5.4466187193551026, 52.074692447713645], [5.44179070521785, 52.07579115244902], [5.441711028433154, 52.07579937756128], [5.440332477296832, 52.075631069908106], [5.439406227962491, 52.07570518724853], [5.437130190301644, 52.07605646807981], [5.431988991072558, 52.07336699013855], [5.431207603773836, 52.07278217264275], [5.43029538867353, 52.072662925117605], [5.427515460488682, 52.07247396859827], [5.426797053506305, 52.07243018078497], [5.4259572850940145, 52.072490869891425], [5.40740044284115, 52.075202226465805], [5.407252336853622, 52.07505150446527], [5.407251913705843, 52.07505118995627], [5.407251767776898, 52.07505104617256], [5.406891885672696, 52.07457643965569], [5.406526231800142, 52.073960298177134], [5.408490639725358, 52.07125985691086], [5.409394019474334, 52.068611448922645], [5.409489891435347, 52.06857195515108], [5.413606313038283, 52.0680912533514], [5.413914124717567, 52.06801674444624], [5.413952136256606, 52.06800140214404], [5.414001879134799, 52.06799560246047], [5.414567074837747, 52.067859024052176], [5.415147552210015, 52.067724156001866], [5.41516251166407, 52.067718202337765], [5.415183073656614, 52.0677158785082], [5.416898483713438, 52.06731520900432], [5.416900218732815, 52.067314516484096], [5.416902595724643, 52.06731424623981], [5.417061389257063, 52.06727713013904], [5.417113191854517, 52.06725648034522], [5.417182620312576, 52.067248616024905], [5.419284732487987, 52.0667560081189], [5.419550427967085, 52.0667292046013], [5.419918610078123, 52.066652982541925], [5.419919295325189, 52.066652730684986], [5.41992040359751, 52.06665261353087], [5.420659272005636, 52.066499607970776], [5.420889378655063, 52.066411683797185], [5.420965454125411, 52.066402332305934], [5.421287518401421, 52.066269566370515], [5.422072489317074, 52.0661730913889], [5.42436694809763, 52.06542915499554], [5.425104471333044, 52.06551932087677], [5.425790940387938, 52.0654905329836], [5.426369274829644, 52.06549635431248], [5.427100194745329, 52.06547001565521], [5.43063750732096, 52.06543247470125], [5.431607766879502, 52.06537962130899], [5.432383899220979, 52.06539128819739], [5.433093507398303, 52.065463753266215], [5.433890404062638, 52.065471483314056], [5.434987691204606, 52.065414677633754], [5.435010557256142, 52.06582227686519], [5.4350674505959695, 52.06706188681952], [5.435344456084716, 52.06785963446047], [5.435650382032181, 52.068218527562735], [5.435709012857362, 52.068274400078195], [5.436194241424726, 52.068644155992985], [5.436491621847445, 52.06880816241932], [5.436539966245611, 52.06883201439094], [5.437425994877349, 52.06915459755725], [5.438821503954946, 52.069325044067895], [5.440216617031788, 52.06915337085457], [5.441398913385956, 52.06866574147382], [5.442180565073424, 52.0679479604459], [5.4422155909864935, 52.06789655033124], [5.442217625084461, 52.06789032964252], [5.442223408349059, 52.06788497005098], [5.442429168006573, 52.06746705461454], [5.4424568737851, 52.06738165502902], [5.4425101586429285, 52.067048478566406], [5.442526259593457, 52.06700179599314], [5.442533364396442, 52.06683919865746], [5.4427362967962996, 52.0667687892918], [5.442736398826261, 52.06676874430326], [5.4430711098072395, 52.066652621622794], [5.443862678208021, 52.06628218603512], [5.444036761251511, 52.06612134148452], [5.444086898110769, 52.066097534806175], [5.444310844996031, 52.06592890000117], [5.444339600818577, 52.065915403925494], [5.444345384966684, 52.06591113178289], [5.444519054417063, 52.065839484225656], [5.444538762355679, 52.06582127378406], [5.4445613983587915, 52.06581193312522], [5.444570108889585, 52.06580389354492], [5.444585587999993, 52.06579732469939], [5.444627931872426, 52.065769782562946], [5.445000035157699, 52.06541601871812], [5.447189336981418, 52.06535400901166], [5.447971275106296, 52.06524637055765], [5.4479752745866765, 52.06524907389535], [5.448336494618182, 52.065457571291674], [5.448392109529843, 52.06547468257079], [5.448431066769469, 52.06546791223902], [5.448442185909685, 52.065430273429556], [5.448397684859022, 52.06538226441742], [5.448125988438621, 52.065225069611074], [5.454572479750395, 52.064337457227516], [5.460744011827281, 52.06194695835058], [5.460777243544861, 52.061928673797944], [5.461110388897691, 52.061639201782334], [5.461664154162436, 52.061410627210265], [5.4616730645808484, 52.061402388493995], [5.461697385120744, 52.061392351384704], [5.462555564814001, 52.0605989038192], [5.466427673981019, 52.06029386408884], [5.466408536762122, 52.06031505287981], [5.466568257605519, 52.06032806772462], [5.466574093353493, 52.06032161034964], [5.466794972394166, 52.060393500373664], [5.467106653532312, 52.060417296044996], [5.467327086378226, 52.060410422914956], [5.467778989513884, 52.06039631731692], [5.468041589402857, 52.06035566373252], [5.46860499530079, 52.060268432179775], [5.468125970392015, 52.06078866886447], [5.467287573496206, 52.06171333340733], [5.46642071957557, 52.062661883320246], [5.465301168132966, 52.06389315267565], [5.465078517057095, 52.06413485464523], [5.461828167838137, 52.067698761441534], [5.4620367768814875, 52.06775929821252], [5.462287569711846, 52.06783216625606], [5.462297578155546, 52.067834415865136], [5.46280891449793, 52.06794924308743], [5.463126903392981, 52.068007739135496], [5.463171559886812, 52.06800771028248], [5.46324512406395, 52.06784615627777], [5.462422534347357, 52.06769593782739], [5.462169219941887, 52.06764966734651], [5.462082548044189, 52.067737077543825], [5.461999321822451, 52.067705115066545], [5.462135837924546, 52.06758059741835], [5.46289605565063, 52.06679730419447], [5.463790800707848, 52.065805512180354], [5.465386010228285, 52.06406779729444], [5.466631956808155, 52.06267662500887], [5.468299213723394, 52.06083545820621], [5.468852549744841, 52.06023009713817], [5.469197014463861, 52.06017676483179], [5.4692094024021145, 52.06017328679475], [5.470496556338893, 52.05981154668602], [5.471618047339964, 52.05916522336023], [5.471654584232397, 52.05912472382716], [5.471697486745713, 52.05911943497521], [5.471700967859415, 52.059117428132836], [5.471699381858875, 52.059119199923146], [5.472003882940176, 52.05908163521469], [5.474087487414596, 52.058411598803865], [5.474921416245503, 52.05815843261096], [5.475118573043429, 52.05808862776004], [5.475175720645038, 52.05806162078629], [5.475372262665371, 52.057998413215905], [5.475790902328549, 52.05783378750463], [5.477043893361759, 52.05721270439906], [5.480509725745859, 52.05678492275613], [5.481391960967609, 52.056439607427066], [5.481358577085966, 52.056483540924035], [5.481343787796538, 52.05652969755503], [5.48131138585862, 52.05656224235806], [5.481128411180479, 52.056906425291395], [5.480708397313365, 52.05695827074806], [5.479526853436711, 52.05744629531645], [5.478738163485895, 52.05817589882631], [5.478729803717264, 52.058201970750716], [5.478707640059573, 52.058223002121125], [5.478617953831683, 52.05836601822491], [5.47861792481692, 52.05836609015204], [5.4786178811660085, 52.0583661351264], [5.478209787956513, 52.05901696356746], [5.478208962470019, 52.05901973253298], [5.478208598618524, 52.059020065373396], [5.478200644111812, 52.059044887600706], [5.4781794547316895, 52.05906493841444], [5.4781220011308625, 52.05915626572976], [5.478117250488461, 52.05917198954326], [5.478105113444692, 52.05918363848262], [5.477741349321811, 52.0597849965306], [5.477738221542147, 52.059795757661576], [5.477683872824534, 52.05988751378825], [5.477624859242898, 52.06000159085866], [5.477621966233845, 52.06001309781557], [5.477598134047123, 52.06005336472727], [5.4774235317771165, 52.06039112676223], [5.477352382804479, 52.06051860522415], [5.477344017131108, 52.060549593519475], [5.4773239926624, 52.06056938262684], [5.47717006945226, 52.060845038812204], [5.47716409173503, 52.06086716302811], [5.477150761844286, 52.060880583428286], [5.476998451324043, 52.06116887536765], [5.476875844219892, 52.06164696348656], [5.47679318535066, 52.06190476837725], [5.477072412789941, 52.062764452776655], [5.477384720899396, 52.0630517688959], [5.477408542767042, 52.0630632733243], [5.47796617898841, 52.063451497194826], [5.477978353374186, 52.063457635634045], [5.47799920874241, 52.06347307001804], [5.478250456865882, 52.06360376894843], [5.478466583118741, 52.063716203891815], [5.47903887055697, 52.063944846138554], [5.479076599928287, 52.06396082441041], [5.479082742454255, 52.06396236555815], [5.47918544606694, 52.064003396674515], [5.479533229134817, 52.06407283553605], [5.480546546052949, 52.064275129823066], [5.480547577605108, 52.064273295438646], [5.480705529244284, 52.06430321704763], [5.480710371701434, 52.06430366260014], [5.4807248445996, 52.06430684185341], [5.481404134443061, 52.06443296843262], [5.481442757455423, 52.06443646080643], [5.4815383611715385, 52.06445618485551], [5.482063292859044, 52.064540304302234], [5.482090713439324, 52.064542457290365], [5.482135793938927, 52.064551435934206], [5.482517914963935, 52.06460753591768], [5.482883478747385, 52.06466742312268], [5.48382471349473, 52.06474280039416], [5.485219510521799, 52.06457060317638], [5.486141129240457, 52.06418994176503], [5.486163477648589, 52.06418672320844], [5.48665715968273, 52.06414455715397], [5.486766313962591, 52.064125652764744], [5.487404275037003, 52.06421900025686], [5.487422155487243, 52.064219820910466], [5.487423089092209, 52.064219954935815], [5.488354305806915, 52.06426407102125], [5.488442642307026, 52.06426756326999], [5.488810270137619, 52.06429015679641], [5.489071788750096, 52.06429805576684], [5.489216438255407, 52.06430517476193], [5.490611200824608, 52.0641329047096], [5.491792814814772, 52.06364476942893], [5.492361906586747, 52.06299517057134], [5.492489012609003, 52.0626322444291], [5.49259083702632, 52.06239553329348], [5.492641499588378, 52.062174650992915], [5.4927430467544545, 52.06182752150418], [5.492920545252533, 52.061133294204595], [5.493105392059847, 52.0603733571274], [5.493128055694843, 52.06019657726722], [5.493139366491569, 52.06001632025236], [5.493006656058571, 52.059608156466886], [5.49305665299226, 52.059200816878615], [5.493086734893066, 52.0587704137979], [5.493310542630035, 52.05817578567721], [5.493520048539735, 52.05774377330427], [5.493561902330777, 52.05765481641249], [5.493561887569733, 52.05764861465273], [5.493563628611817, 52.05764498189492], [5.493563351507046, 52.05752855958278], [5.4935740993483995, 52.05732720794118], [5.493360662570749, 52.05719602208087], [5.493019619375692, 52.057170057306614], [5.492720932734895, 52.05703894696547], [5.492592472964937, 52.056789445262524], [5.4926351407099165, 52.05665574530442], [5.4928049741638665, 52.056526506130915], [5.492932284244498, 52.05628990639677], [5.492889200072721, 52.056092881494756], [5.4928458843130885, 52.055803899738386], [5.492587744222186, 52.05552621095204], [5.492227262742371, 52.055381654600914], [5.491863413410266, 52.05522992765421], [5.491483694647146, 52.055074357769435], [5.491271569750068, 52.05499839867896], [5.491248835942007, 52.05499677397803], [5.491218889985418, 52.0549909851833], [5.490832941089346, 52.054938494015715], [5.490409221644421, 52.05487550071058], [5.490361581328363, 52.054872037163655], [5.49030015873274, 52.05486037057667], [5.4898770435030375, 52.05480587755147], [5.489804807200035, 52.05479608068069], [5.489469020373232, 52.05472632908891], [5.489308985619412, 52.05469135173513], [5.489280519016083, 52.054688338479856], [5.489262278344088, 52.054681352598806], [5.48866854135076, 52.05455716581605], [5.488667928839949, 52.05455709444001], [5.4886675348614755, 52.05455695097065], [5.488069104527324, 52.054431884383526], [5.48780909894236, 52.05437742365597], [5.490328302668582, 52.05414855279817], [5.490328404684069, 52.05414853473255], [5.490442849426662, 52.05412739320688], [5.492369630474674, 52.05350188586176], [5.498014339561158, 52.051364332928515], [5.499365622710256, 52.05085254646231], [5.501770764541173, 52.05082631054857], [5.502323520431112, 52.05124961298607], [5.503034065407549, 52.051793728156504], [5.505112585611419, 52.05380600036004], [5.506234772595159, 52.05433295581913], [5.506245328091749, 52.05435478617811], [5.507007010164059, 52.05467983077614], [5.507662905338432, 52.0549484168299], [5.507716925068718, 52.05497054407851], [5.508545217262564, 52.05533398842169], [5.508636593733886, 52.05537291137946], [5.5087205523885645, 52.055547103577986], [5.508965172195919, 52.055529431686644], [5.508955201135594, 52.05550864358681], [5.509824823650249, 52.05587910974436], [5.510031105143017, 52.055969781988395], [5.511225863818455, 52.05649493321551], [5.511407234080708, 52.0565807128289], [5.511383510244, 52.05652243219667], [5.5115985448335865, 52.056539300304294], [5.512294528272351, 52.05674894619367], [5.515920737299, 52.057384374081245], [5.520667108350525, 52.05776601250581], [5.52254004378222, 52.05764713544453], [5.523986229720594, 52.05756439926263], [5.525677421385316, 52.05936818898397], [5.524577803479451, 52.059795899609966], [5.523458179097457, 52.06023031921585], [5.52222611528584, 52.060710633513665], [5.521708518963241, 52.06027361495172], [5.520786444673655, 52.05950534906902], [5.520497044914397, 52.0592596286942], [5.52038240778032, 52.05932351996259], [5.520377232511187, 52.05934346137956], [5.520393243827236, 52.05936338779853], [5.5205924230503065, 52.05953393560539], [5.5214158818489585, 52.060239965258575], [5.522171063351554, 52.06088736632268], [5.522994846440234, 52.0605606005419], [5.523602694758816, 52.06032508382265], [5.525780253409702, 52.05947786627369], [5.525989181386516, 52.059700686127385], [5.528250807891441, 52.06166628651732], [5.528422426228186, 52.061763879901854], [5.528198380254078, 52.06183107383598], [5.528013802616754, 52.06189673707835], [5.528678817917141, 52.06190967304679], [5.530324214282185, 52.06284529205313], [5.530827996243747, 52.06310924213362], [5.532740778037299, 52.0638993881224], [5.532202343404315, 52.06635093844651], [5.531771534275133, 52.067655277936616], [5.52826105579406, 52.06796310181092], [5.527715611673978, 52.068139848671535], [5.52759080466827, 52.06796944008533], [5.527548392185248, 52.06793168687059], [5.5273775070548075, 52.06774931596042], [5.527166819051118, 52.067579449615565], [5.527005077161627, 52.06746579903785], [5.526966365482675, 52.06744992716003], [5.526942747893169, 52.06742929164358], [5.526539733639261, 52.067204187065016], [5.526478231771312, 52.06718023477587], [5.52627824581909, 52.067082600258104], [5.525797312229518, 52.06689825622172], [5.52575853980933, 52.06688601519762], [5.525727825496893, 52.066876308297054], [5.525528956615814, 52.06681349995655], [5.5255231355298715, 52.06681279674274], [5.525518258405225, 52.06681080712503], [5.524839228822092, 52.06664149523721], [5.524817111827711, 52.06663885165174], [5.52479986742593, 52.06663200493556], [5.524071754051394, 52.066462440422086], [5.523233033168264, 52.066260417593355], [5.523169368155747, 52.06625305805234], [5.522774882911698, 52.06619048894095], [5.5225849505708515, 52.06617721655706], [5.522279507014421, 52.0661558614475], [5.522070678633113, 52.06614871282666], [5.521679322685055, 52.066175361022374], [5.521203307402097, 52.066240429498144], [5.521193192358147, 52.06624240940551], [5.521185100215514, 52.06624298486956], [5.520566293361519, 52.066331672154895], [5.520278496195919, 52.06638879364382], [5.520254054980275, 52.06639888792382], [5.5202275088016055, 52.066402432276895], [5.519551840165008, 52.06659091011138], [5.519528244497934, 52.06660099430102], [5.5193372761166914, 52.06666176155095], [5.5187569349301375, 52.06688531599462], [5.518431807040083, 52.06704502854818], [5.518393104703575, 52.067080853207344], [5.5183463225643505, 52.06710166780003], [5.5181065383182455, 52.06727196210846], [5.517899599971449, 52.06741893135793], [5.517877395173961, 52.06744111160764], [5.517788550305592, 52.06750614903668], [5.5173605609687195, 52.067878738240196], [5.517342938186473, 52.067891970192235], [5.517042490711433, 52.068117561058614], [5.516983611657201, 52.068161784389766], [5.516905999670223, 52.06820369144767], [5.516586107840485, 52.06870153308038], [5.516212357937255, 52.06900570413685], [5.516114949766833, 52.06898594728763], [5.516028337951695, 52.06898268062247], [5.515941575308027, 52.06900298975105], [5.515681614842421, 52.06909681270941], [5.515443282658361, 52.06887068137793], [5.5152713333589825, 52.06869794731049], [5.515103670868438, 52.068529504623], [5.515103509927211, 52.06852932503671], [5.514990271881182, 52.06839986715828], [5.514990139504416, 52.06835357876765], [5.514990099971379, 52.06833975516667], [5.514976388678143, 52.06832881360769], [5.514970453854683, 52.068324047390654], [5.514907874498198, 52.06827355747072], [5.514840792109378, 52.068162969210945], [5.5147221341874, 52.067947941577664], [5.514675458519729, 52.067802502343326], [5.514654628951208, 52.06768877195048], [5.51464915142674, 52.067527271327144], [5.514628159452213, 52.06735652080836], [5.514591656237705, 52.06718269518341], [5.514565873606599, 52.06709116166406], [5.514508973356701, 52.066954991122884], [5.514385003968253, 52.06671160252041], [5.514340813719749, 52.0666341371934], [5.514318069378271, 52.06664656530392], [5.514215676011158, 52.06670251875812], [5.514114354878675, 52.066730437184646], [5.514066995474286, 52.066743691736], [5.5139515377848065, 52.066769935509285], [5.514150960412886, 52.0674236023289], [5.514311876906877, 52.06800203531098], [5.514373947490558, 52.06819184110937], [5.514441073558295, 52.06831815870002], [5.514564549547752, 52.06846352388648], [5.514590152807165, 52.06849186249864], [5.514825453271301, 52.06875148838152], [5.514945394303253, 52.06888386025453], [5.515182626693106, 52.069124042131286], [5.515144259566069, 52.06917660111816], [5.514951768613374, 52.06944021448314], [5.514951666624385, 52.0694402505461], [5.514890041253398, 52.06945874297532], [5.514047573504129, 52.06961168739634], [5.513990299950199, 52.06962208540515], [5.513978080495417, 52.06960753791102], [5.513947700151386, 52.06957135773812], [5.513940760668066, 52.069572344912835], [5.513970072175091, 52.06960706118492], [5.513979906125463, 52.069618717094144], [5.5138602907118655, 52.069652353428495], [5.513201016694415, 52.06976477397261], [5.512347679916453, 52.069868544171264], [5.512221531974723, 52.069877306830875], [5.5114108652206335, 52.06993364881129], [5.510529186687546, 52.069959545202956], [5.510516502800163, 52.06996130218265], [5.510433566477624, 52.069963905743286], [5.509449831017409, 52.070024855486146], [5.509170388724856, 52.07006833316729], [5.509020252968179, 52.0700844065827], [5.508479712652205, 52.07020311312896], [5.508419992671877, 52.07022642679322], [5.5083458407700014, 52.070236237245105], [5.507599040172237, 52.07044256085391], [5.506948422247613, 52.070616838286206], [5.506410819851651, 52.07073691649169], [5.506122719048532, 52.07077408608842], [5.5057436921067575, 52.07078280055816], [5.505422574211066, 52.070771978501796], [5.505181012778192, 52.0707316668788], [5.5049167295292065, 52.07068072664773], [5.5044603968816235, 52.0705927578506], [5.504397257661602, 52.07058684370846], [5.504263025654976, 52.07056204447855], [5.503620606568038, 52.07048529479229], [5.503570528878547, 52.07048236030438], [5.503535130287482, 52.07047638230341], [5.503011468705192, 52.07042961280938], [5.502898116489889, 52.07042462811615], [5.502868250142949, 52.07042036119321], [5.50213519568374, 52.07039098766348], [5.502124711899975, 52.0703920584971], [5.5021105741104925, 52.07039010392282], [5.501898401197595, 52.070330774075494], [5.501509625517032, 52.07006806298171], [5.501024066360016, 52.06990111320459], [5.500190009565601, 52.07004542066355], [5.499899062477878, 52.07009353422262], [5.4997123919179165, 52.0701515420945], [5.499598724048164, 52.07016559124048], [5.499450036991405, 52.07015023780147], [5.499147065223975, 52.07016131219144], [5.498837930410899, 52.070157471471504], [5.498780789150152, 52.07016413191129], [5.498726241675659, 52.070158188603976], [5.497888615306405, 52.070179409635294], [5.497870769513616, 52.070181844214666], [5.4977447246020406, 52.070186582597124], [5.4973262023712905, 52.07021775927004], [5.497189144621204, 52.07022796312001], [5.497114339660697, 52.0702400950185], [5.497003892957901, 52.07024778409166], [5.49648985117157, 52.07031977181632], [5.496237697683225, 52.070369341282834], [5.4962196322499475, 52.07037148819759], [5.4957388800522855, 52.07048940671936], [5.4956671783793345, 52.070518540242304], [5.495634417669935, 52.070523334118484], [5.495595752160964, 52.070528996280686], [5.49515877837925, 52.0706640482601], [5.4950883590421, 52.070680902564156], [5.494913411046909, 52.07072279445473], [5.494762621330795, 52.07073681899012], [5.494588010017458, 52.07074303648381], [5.494411517344453, 52.07074931834989], [5.494185079027998, 52.070728519428386], [5.494083358237243, 52.07070205218987], [5.493818082079387, 52.07063303096021], [5.493764860311969, 52.07062641005001], [5.493723575658931, 52.07061032286804], [5.493065303706831, 52.070465058955406], [5.493035936859589, 52.070461930574226], [5.492889959464383, 52.070432383261696], [5.492856183193375, 52.070427218508364], [5.49285367210812, 52.070426169161045], [5.492668633096515, 52.070333362742815], [5.492578927129746, 52.0702677224572], [5.492517255353993, 52.070209067690826], [5.492489126062624, 52.07016781071799], [5.49248359188064, 52.07014028524616], [5.492517003714289, 52.07010233471205], [5.492645537911933, 52.070008968437364], [5.49275174238888, 52.069915622061124], [5.492829939267312, 52.06983269992814], [5.492885847922729, 52.06976719865451], [5.492902655275859, 52.06974499203162], [5.492909925012729, 52.06973544017869], [5.49290855405598, 52.06973544141079], [5.492845665058978, 52.069735497913314], [5.492639424882769, 52.06973624023355], [5.492561252368476, 52.06982957039265], [5.492471875170584, 52.069909131831594], [5.492337684582629, 52.070015985063634], [5.492175447489459, 52.07012314180492], [5.492091682674795, 52.07016479529626], [5.492052598163842, 52.070209482822406], [5.492069482608156, 52.07021986695413], [5.492460337464756, 52.070366652352455], [5.492293222041694, 52.07034107796095], [5.4919729402537, 52.070317086944684], [5.4919072881152315, 52.07030845395395], [5.491492141599815, 52.07030094924935], [5.4913082753179525, 52.07027809371807], [5.4911872931175205, 52.07024640997554], [5.490805932857125, 52.070084745740886], [5.490351052690423, 52.06987843816201], [5.490269701473703, 52.06984154159069], [5.490246253903703, 52.0698309112853], [5.490244414762079, 52.069830274744376], [5.490241873917939, 52.069828928761474], [5.4896190320352405, 52.069548200435264], [5.48956077866843, 52.069528054977134], [5.489504360674037, 52.06950051970855], [5.489215522822634, 52.06939001971759], [5.48904724517583, 52.06932564027371], [5.48890830041901, 52.069281763956], [5.488876284755403, 52.06926779722809], [5.488478880886781, 52.069149920155304], [5.488431159889911, 52.06914323817009], [5.488383570201522, 52.069123694138426], [5.488081014268982, 52.06906515415213], [5.487663887895345, 52.06900844600645], [5.48727473143087, 52.06898246973014], [5.487827915683223, 52.06855375258722], [5.488028877370534, 52.068439548941484], [5.488095133480451, 52.0684136514449], [5.4881616349279385, 52.06839309260867], [5.488167551668413, 52.068391119143925], [5.488288039946808, 52.06836882412133], [5.48844478639334, 52.06835380506217], [5.488553448649765, 52.068338827241476], [5.488619762975861, 52.0683387700755], [5.488716433666402, 52.068360869209535], [5.488897549308412, 52.068435151864755], [5.489155680458615, 52.068609629325394], [5.489199486711421, 52.06863936878904], [5.490534259311257, 52.06956031574804], [5.490414176577617, 52.069664350122565], [5.49037828488429, 52.069709043282145], [5.4903516903114244, 52.06973771155491], [5.4904991265223755, 52.06973758215958], [5.49053502621532, 52.06969008468164], [5.4905590581188095, 52.06963809460408], [5.490570284930368, 52.06956731275462], [5.49057096194092, 52.06956365401927], [5.4905663485082155, 52.06953641526421], [5.490564721451, 52.06952658375652], [5.490320485682165, 52.06935518012473], [5.489422778005094, 52.06872456150875], [5.489349069920768, 52.06867406770531], [5.489162579968095, 52.06854623054917], [5.489054414258056, 52.06847209187445], [5.489027608686888, 52.06845303343139], [5.488939595996724, 52.06839045382346], [5.488849028513439, 52.068345870456334], [5.4887885994769645, 52.06832373114442], [5.4886980687712565, 52.06830162677089], [5.488583417891171, 52.06828683244012], [5.488576066956425, 52.068286614075014], [5.48845671624906, 52.068283013808426], [5.488239543298465, 52.06828320058198], [5.488106940189149, 52.06829454950342], [5.488034479641623, 52.06829826080334], [5.488027197066453, 52.06830248244772], [5.487986454531709, 52.06832442127462], [5.4879248133840015, 52.068372506281456], [5.4877996949598575, 52.06846951365728], [5.487286530187146, 52.06888481340198], [5.48717250578706, 52.068948384064264], [5.487096342605881, 52.06898601887298], [5.486937864376439, 52.068990854131094], [5.486792554951124, 52.068995282550645], [5.486733710386811, 52.0690034575724], [5.48650361590352, 52.06901846440157], [5.48641511407585, 52.06903005280025], [5.486395203442918, 52.06902219605452], [5.486376806977997, 52.06900659032076], [5.486025349227683, 52.06882113891962], [5.485929391441768, 52.0687849077495], [5.485764516874502, 52.068706364562125], [5.4855467883562365, 52.068627379998354], [5.485317310000999, 52.06855700640903], [5.484864405919232, 52.068482045466915], [5.484501775698875, 52.06845205628897], [5.4842568697388705, 52.068442075188955], [5.48404646476408, 52.06844975367663], [5.483794517451507, 52.06846800891228], [5.483725164243622, 52.068479175099036], [5.483307469710258, 52.06854642431416], [5.483258874280359, 52.068566498404394], [5.483210265106562, 52.06857341396532], [5.482823752053427, 52.06868921646818], [5.482800803312571, 52.06869930175345], [5.482692294511398, 52.06873278954454], [5.482077471784148, 52.06895704492963], [5.482076947261381, 52.06895728803048], [5.482075897872112, 52.0689576124472], [5.481502064602234, 52.06916739691838], [5.481488092197628, 52.06917408625009], [5.481462994588724, 52.06918208776678], [5.480962103049301, 52.06937583033838], [5.480883322857949, 52.06940630871576], [5.48077651603944, 52.06946703618728], [5.480770965911363, 52.069470186424205], [5.480693546792765, 52.06946125095296], [5.480676362002836, 52.06945926926505], [5.480201140287004, 52.069404396453486], [5.480106714960038, 52.06956332604258], [5.479960824480505, 52.06980884217283], [5.479954603967519, 52.069819309179245], [5.479933369916442, 52.069855044469236], [5.4798477300726525, 52.069848784378046], [5.479449390560424, 52.06981964366653], [5.479451038859779, 52.06982681484395], [5.479412954118322, 52.06982484037729], [5.479017931536165, 52.06986941565906], [5.478622832134699, 52.06986972348928], [5.47824232059144, 52.06982864666992], [5.478012079648676, 52.06980379295906], [5.477660055113467, 52.069742100615095], [5.4772575216370845, 52.069671565710976], [5.476899805164097, 52.06964318519788], [5.476675023054176, 52.06963412571598], [5.476645443015685, 52.069632934832256], [5.476480543296592, 52.069126672931894], [5.476299989922766, 52.068572327517785], [5.476175119931406, 52.068601983798835], [5.474574142708806, 52.06898229169591], [5.475238708854972, 52.06960984556896]], [[5.509784508165442, 52.05714924848], [5.510148437576146, 52.05784825806768], [5.510355033200636, 52.05824519817676], [5.510593709629778, 52.058710359716166], [5.511576427790109, 52.06062687694976], [5.512148322996733, 52.061774497406674], [5.5123243357330685, 52.0621363589108], [5.5136696122848114, 52.064901844216955], [5.513985973131462, 52.06565565662293], [5.514171681202686, 52.06613940988714], [5.514258551666647, 52.066394631151674], [5.514247842403329, 52.06647497806512], [5.51426749451187, 52.06657522772111], [5.514184661870445, 52.06661716559946], [5.514156205593209, 52.06662618437837], [5.51402575638404, 52.066667894889584], [5.514004344981612, 52.06667213337324], [5.513943059032624, 52.066433736999485], [5.5138807564393755, 52.066237747384044], [5.513854478084292, 52.06613525777589], [5.513839276179052, 52.06607657306918], [5.513782660530073, 52.065957263467716], [5.51366418886485, 52.06572173271795], [5.513093154985348, 52.06450783232465], [5.511837473146007, 52.06191442094447], [5.511444297733513, 52.0611233290925], [5.5110101391312405, 52.06025559272199], [5.5108954807086326, 52.06003309668422], [5.510740068293751, 52.05973147635989], [5.510722175600016, 52.05968880178703], [5.510605437571461, 52.05940917042865], [5.510383625451263, 52.058948485339904], [5.510286509467936, 52.05875061560552], [5.509837188717667, 52.057835100873234], [5.5095883571782736, 52.05731488733768], [5.508781860975509, 52.05564338347019], [5.508914202638029, 52.0556320114931], [5.508968872441667, 52.055629986517346], [5.509097106249059, 52.0556253596488], [5.509784508165442, 52.05714924848]], [[5.499442042392367, 52.06538338097701], [5.499005825074849, 52.06544052910424], [5.498688715916629, 52.06547145244518], [5.498523968888399, 52.06547160848478], [5.497926908737508, 52.0654457651178], [5.497783564435188, 52.06543775678349], [5.498139119377969, 52.063546557159725], [5.499505506320027, 52.063705643557135], [5.499382967612044, 52.064454853108465], [5.498903953951592, 52.064428623421676], [5.498847628441081, 52.064321107698866], [5.498623587779187, 52.06430222050271], [5.498629726406812, 52.064202501056386], [5.49923963981098, 52.06435921286528], [5.499306633254709, 52.0638184627696], [5.498702618044816, 52.06373757804758], [5.498256083364488, 52.06366834297565], [5.498165660869457, 52.06414591947489], [5.498093547873047, 52.06455691297618], [5.497958950110289, 52.06532299391107], [5.498496805183927, 52.06536236626308], [5.498615326763512, 52.065375457526336], [5.498679797653099, 52.06536893402025], [5.499235617463244, 52.06530240654287], [5.499254293401385, 52.065294524194094], [5.499222150610892, 52.06483447361906], [5.499190890302891, 52.06481934051656], [5.499159891474309, 52.064815433253386], [5.499122562983933, 52.06483456842264], [5.499085268738035, 52.06486156810653], [5.499023038437151, 52.064854041355815], [5.498998145879913, 52.06483103758913], [5.499001740341708, 52.064810532390254], [5.499004213471812, 52.064796481689676], [5.499016672819599, 52.064769505642836], [5.499033072402095, 52.064766964404576], [5.499085009213012, 52.064757926944885], [5.499178399173708, 52.06474631537047], [5.499190630511016, 52.06471569036646], [5.49919016939061, 52.064531714042324], [5.499165286791825, 52.06451264707418], [5.4990980481522405, 52.064508208037715], [5.498941254163134, 52.064497409630086], [5.498935042556726, 52.06447437911238], [5.499345702760137, 52.06449337555214], [5.499383073403041, 52.06449698907129], [5.499377625137346, 52.06486522642168], [5.499396979572238, 52.06513343885902], [5.499442042392367, 52.06538338097701]], [[5.4959241304702875, 52.06915605464423], [5.495893706022648, 52.06929342932309], [5.495891224823434, 52.06930466669197], [5.495879715527217, 52.0693577608141], [5.495863715514319, 52.06942940145261], [5.494592046650825, 52.06920671272278], [5.494272862510006, 52.06914493216129], [5.49412701463064, 52.06911929606633], [5.494037588775166, 52.069103576315364], [5.4937519232699845, 52.069048774579834], [5.493015823933695, 52.06893484132302], [5.492861261825725, 52.06891167422905], [5.49258680440796, 52.06887737035457], [5.492396473233559, 52.06885676033952], [5.492090623597739, 52.0688379698109], [5.491842186593606, 52.06882270467195], [5.491735505067061, 52.06880538067318], [5.492103987739604, 52.06880898038308], [5.4927379705729065, 52.06881516326282], [5.493006667358003, 52.06882503342897], [5.493230716294659, 52.0688388710219], [5.4935498145844575, 52.0688661133662], [5.49391382877877, 52.068903704303125], [5.49422747559776, 52.06893796044549], [5.494381114316301, 52.06895888856148], [5.495738841342176, 52.06915285524247], [5.495769963710384, 52.06882841143362], [5.495912457637397, 52.068296860658364], [5.4959218575740545, 52.06813822165572], [5.495922754582217, 52.06812327367851], [5.495905872403348, 52.067646355698336], [5.495768894311206, 52.067632218156014], [5.49512906626416, 52.067566178484036], [5.49502034505313, 52.067555043116954], [5.49498979105868, 52.06754271253398], [5.494966702403254, 52.067511554098814], [5.494962072595259, 52.06748459415054], [5.494971753060269, 52.06743487230238], [5.495005170936361, 52.06740113644003], [5.495049801709663, 52.06739070532395], [5.49517448001448, 52.06740294952458], [5.495149624778901, 52.067491729465296], [5.495914321793974, 52.06756461044128], [5.495944267632087, 52.06750672659533], [5.496094586889118, 52.06701112050722], [5.4961894007758465, 52.06654673624068], [5.496226236497167, 52.06651581012348], [5.496334626770558, 52.066487900530944], [5.496334067584371, 52.06653958242311], [5.496329363746601, 52.06657216852259], [5.496251818434269, 52.06710225761673], [5.496170273209171, 52.067673353865], [5.496124580038485, 52.06800173911841], [5.4961008984333235, 52.06814655873616], [5.49609831198141, 52.06816243404933], [5.496040508510075, 52.068477069732396], [5.496003809831228, 52.06866079270741], [5.495948595171202, 52.06900295635722], [5.4959241304702875, 52.06915605464423]], [[5.495195486393805, 52.06732681032875], [5.495017252989396, 52.067313213115895], [5.495057660891185, 52.06715447382748], [5.494217549582573, 52.067174907093815], [5.4942115156328395, 52.067036442472535], [5.495285851328497, 52.06700259077684], [5.495195486393805, 52.06732681032875]], [[5.494135798317272, 52.06710420044584], [5.494139411072066, 52.067181719211085], [5.492946358554104, 52.06722212067106], [5.4930154421347375, 52.067142010845686], [5.493075216475771, 52.067072299560515], [5.494132681836352, 52.06703903981624], [5.494135798317272, 52.06710420044584]], [[5.476114682015476, 52.06740766908045], [5.4762143658581754, 52.06780419185126], [5.476358902638826, 52.06840768452372], [5.476391388429664, 52.06846945279863], [5.476300513422161, 52.068491146965776], [5.476141153648929, 52.068529035439305], [5.474965757533761, 52.068808422645034], [5.474521826252375, 52.06891408422842], [5.47421781844864, 52.06712735740145], [5.474217538098989, 52.06712568582951], [5.4742856659479076, 52.06712169861879], [5.47454563793494, 52.06710717881136], [5.474931650383909, 52.06710380851837], [5.475352072028984, 52.067103494073564], [5.475763639976343, 52.06711722414958], [5.475854736774068, 52.067120373225826], [5.475970554860751, 52.06712437541258], [5.47607173056897, 52.0671209284622], [5.476114682015476, 52.06740766908045]]]}}], "properties": {"sourceId": "agrest-ov-landbouwontwikkelingsgebied", "title": "Omgevingsverordening — Landbouwontwikkelingsgebied", "serviceUrl": "https://agrest.geodata-utrecht.nl/rest/services/Omgevingsverordening/FeatureServer", "layerId": 0, "role": "conditional", "authoritative": true, "licenseNote": "Structured open data of provincie Utrecht on agrest.geodata-utrecht.nl; service is anonymously queryable; no license statement exposed by the endpoint itself (platform presented as open data).", "lastChecked": "2026-10-05T09:03:33Z", "where": "NAAM='Landbouwontwikkelingsgebied'", "fetchedAt": "2026-10-05T09:03:45Z", "userAgent": "ldttoolbox-geoconnector/0.1 (wind-turbine opportunity-map PoC; cache-first, single-page politeness; open data of provincie Utrecht via geo-point.provincie-utrecht.nl)", "pages": 1, "featureCount": 1, "bbox": null, "simplifyM": null, "queryFingerprint": "{\"bbox\": null, \"simplify_m\": null}", "crs": "OGC:CRS84/WGS84 (RFC 7946 default, no crs member)"}}