{"type": "FeatureCollection", "name": "agrest-ov-concentratiegebied-glastuinbouw", "features": [{"type": "Feature", "id": "49973", "properties": {"OBJECTID": "49973", "LOCATIEGROEP_ID": "nl.imow-pv26.gebiedengroep.003000000000000000000658", "SYMBOOL_CODE": "vsg001", "GROEP": "glastuinbouw", "9e750651-8e97-4bc6-b09e-fc30b5f3e83c_id": "664", "LOCATIE_ID": "nl.imow-pv26.gebied.003000000000000000000658e86394", "DOCUMENT_URL": "https://omgevingsbeleid.provincie-utrecht.nl/home?d=/akn/nl/act/pv26/2022/omgevingsverordening/nld@1089&o=", "NAAM": "Concentratiegebied glastuinbouw", "TYPE": "ruimtelijk gebruik", "LOCATIEGROEP_NAAM": "Concentratiegebied glastuinbouw", "LOCATIE_NAAM": null}, "geometry": {"type": "Polygon", "coordinates": [[[4.835830711269405, 52.20580402172348], [4.838311707763091, 52.20753861149036], [4.837872460197058, 52.20778512387745], [4.837498353405133, 52.20799507798715], [4.8365112642339945, 52.20854369199938], [4.834830723147906, 52.20947459756911], [4.834119332201053, 52.20986863751947], [4.833996458333493, 52.209938528098675], [4.833880185411515, 52.21000465653249], [4.833736755469678, 52.2100862428145], [4.833054638959623, 52.21047418486281], [4.833012540412765, 52.210498129145726], [4.832965991877691, 52.21052459614025], [4.832741794390551, 52.210652108437436], [4.832362429272719, 52.210863333886294], [4.832323607117001, 52.21088494744322], [4.832290575029061, 52.21090334351744], [4.832124486313155, 52.21099581372845], [4.832032800599072, 52.211046857162835], [4.831620749938265, 52.211276262145724], [4.8315467283375755, 52.2113174924886], [4.831395517319403, 52.21140169079119], [4.830961344348517, 52.211644606218165], [4.830909253495112, 52.2116741561559], [4.830873003514339, 52.21169472076667], [4.829940488945263, 52.21221392155133], [4.829307872519255, 52.21256613247703], [4.82905334404148, 52.2127036150202], [4.828526074103583, 52.21298841508732], [4.828397044246167, 52.21305892686163], [4.828094283645272, 52.2132243745456], [4.827436927463751, 52.21358568006545], [4.827414399477853, 52.21359806663854], [4.827257215589754, 52.213673108504416], [4.8270819492170975, 52.21373391725605], [4.8270369493696315, 52.21374954072223], [4.8269104339760585, 52.213782627690065], [4.826575329636689, 52.21382681342869], [4.826091446849683, 52.2138906133732], [4.826063614090495, 52.21389429205599], [4.8257202857761685, 52.21393955980039], [4.825475932297657, 52.21397177935565], [4.825263778970775, 52.21399974749009], [4.825023997740994, 52.214031358705206], [4.824747299408499, 52.214071062605846], [4.823294757019753, 52.21427948008287], [4.8231200816394475, 52.214304540422276], [4.822968777765984, 52.21418830357591], [4.8229242333590605, 52.214150475873616], [4.822893354870437, 52.2141242540763], [4.820802935720282, 52.21234918738537], [4.820733134989054, 52.21225541305147], [4.820716219826277, 52.21218412874815], [4.820711274750632, 52.21216337863241], [4.820676414489146, 52.21211795668263], [4.820637711213377, 52.21206753691718], [4.820617519350717, 52.21205029987451], [4.820546031094548, 52.211989197801955], [4.820470064467472, 52.21192820002625], [4.821783966802234, 52.21121026048519], [4.822801357456495, 52.21064949243848], [4.823338066813728, 52.21035365365475], [4.823888314025747, 52.21005343692891], [4.824684729357685, 52.209618913893664], [4.824914079592065, 52.209493769248844], [4.825618002505146, 52.209094652765174], [4.826079438143476, 52.208833011542666], [4.826530582903984, 52.20857720682458], [4.8270261936954215, 52.208296184184356], [4.827499386180957, 52.208027861163345], [4.827938402439612, 52.20777892336993], [4.8280777950977605, 52.207699877574115], [4.828422540630162, 52.207510693437925], [4.82934250563324, 52.20700584401747], [4.829620568156479, 52.2068532462193], [4.830269486758459, 52.20648927318368], [4.830743635037111, 52.20622330556074], [4.831509320071733, 52.2057938138709], [4.83181069476909, 52.20565232198227], [4.831826872585539, 52.205653683358086], [4.832033570969964, 52.20554803926538], [4.832113680250675, 52.205503502664484], [4.832142023403474, 52.20548774505252], [4.832598737227772, 52.2052338308834], [4.832997346769751, 52.205012205911224], [4.833440153763515, 52.20476295093326], [4.833949328276962, 52.204475940946125], [4.833977065714586, 52.204495916475004], [4.833981341656216, 52.204556866380564], [4.834006368202715, 52.204573674402255], [4.835481533644868, 52.20556419905566], [4.835830711269405, 52.20580402172348]]]}}, {"type": "Feature", "id": "49974", "properties": {"OBJECTID": "49974", "LOCATIEGROEP_ID": "nl.imow-pv26.gebiedengroep.003000000000000000000658", "SYMBOOL_CODE": "vsg001", "GROEP": "glastuinbouw", "9e750651-8e97-4bc6-b09e-fc30b5f3e83c_id": "665", "LOCATIE_ID": "nl.imow-pv26.gebied.003000000000000000000658e86393", "DOCUMENT_URL": "https://omgevingsbeleid.provincie-utrecht.nl/home?d=/akn/nl/act/pv26/2022/omgevingsverordening/nld@1089&o=", "NAAM": "Concentratiegebied glastuinbouw", "TYPE": "ruimtelijk gebruik", "LOCATIEGROEP_NAAM": "Concentratiegebied glastuinbouw", "LOCATIE_NAAM": null}, "geometry": {"type": "Polygon", "coordinates": [[[4.988322806978662, 52.10441119389553], [4.987791285419917, 52.104454047522076], [4.986601507287709, 52.104542265182296], [4.985487878371968, 52.104626613747925], [4.985487914530959, 52.10460471886221], [4.985243499035744, 52.10462281485335], [4.985243304223591, 52.104644484495935], [4.981941983349167, 52.10490618880341], [4.978534066273597, 52.10517623966691], [4.97844964975806, 52.10518323641294], [4.976569386275393, 52.105338947611855], [4.976566963357622, 52.10531986642122], [4.976520188661978, 52.10531593750324], [4.976493657347822, 52.10531221390057], [4.976492568181715, 52.10531160790403], [4.976434917298742, 52.10527928360551], [4.976340869836699, 52.10523351209445], [4.976279131400917, 52.10520603603934], [4.976167128790229, 52.105187462728985], [4.976075660296397, 52.10518351264814], [4.975951794894976, 52.10519307547208], [4.975895456550895, 52.10519742694467], [4.975771193217449, 52.10520898354974], [4.975761823660128, 52.10518028779667], [4.975682971220028, 52.10498393715958], [4.975559128089378, 52.104762837952265], [4.975457144314519, 52.10462332805176], [4.975309991190631, 52.104481673908886], [4.975066245919709, 52.10431582756816], [4.974925084897858, 52.10423214917495], [4.974606992067751, 52.104045540022206], [4.9744050094014405, 52.10392885954602], [4.974279621242053, 52.103838125996006], [4.974268964447096, 52.103830412833204], [4.974206256067464, 52.103785036963245], [4.9740172542818115, 52.10363329373729], [4.973968280958595, 52.10358793890391], [4.973845254618949, 52.10347401485753], [4.973492532370855, 52.10314739035007], [4.97340611821257, 52.10306460325721], [4.973360658267973, 52.10303087312852], [4.973313197730793, 52.10299567988603], [4.973211055508185, 52.10287604911248], [4.973102728173715, 52.10272458761148], [4.97304246360757, 52.102611062868746], [4.972998571595228, 52.10247275247881], [4.972977764793121, 52.102279848509546], [4.9729969376735, 52.10213706785713], [4.973007153468639, 52.101996943178015], [4.9730156498736475, 52.10194631604356], [4.973040937512191, 52.10184612454118], [4.973096247408672, 52.101682906000455], [4.973165060170154, 52.10156983456931], [4.973259699772206, 52.101455865080325], [4.973349214726526, 52.10137987925387], [4.973383299521472, 52.101350940329915], [4.9744889192618835, 52.10059418783762], [4.97465940188244, 52.10050247658343], [4.975083343732568, 52.10023750665673], [4.975487008587895, 52.09998520954159], [4.975787155578714, 52.09979409146389], [4.975844650400034, 52.099739437635485], [4.976156858515504, 52.09948380808471], [4.97641519582432, 52.09928209845242], [4.976461794559336, 52.09924570615207], [4.976616092122475, 52.09912118300694], [4.976694426968648, 52.09902030357393], [4.976735041620965, 52.09896799934894], [4.9768797520127315, 52.09872385565543], [4.976905569612074, 52.09862520210874], [4.976900491755338, 52.098599649212], [4.976888564870744, 52.09853957610605], [4.976861366636142, 52.098505587278524], [4.976845715578777, 52.098491933792154], [4.976761451721059, 52.09841845028245], [4.976488067482814, 52.09832534313085], [4.976236573334041, 52.09823565522351], [4.975795844818394, 52.09807389604405], [4.9756921563663115, 52.09802922278353], [4.9757328994324075, 52.097934441519605], [4.975811365249042, 52.09794622911255], [4.975943055728981, 52.09761363400728], [4.976119999556191, 52.097166741891776], [4.976505250718264, 52.09619370099402], [4.976437105677686, 52.09618346880353], [4.976470483481519, 52.09610056186766], [4.976514180933351, 52.095991984859204], [4.976581130647458, 52.09600204206873], [4.977451928945803, 52.09379169405109], [4.9774574601211725, 52.09377570543625], [4.977674689969083, 52.09314901763813], [4.977932617530414, 52.09238931168519], [4.978240112529181, 52.09148357627807], [4.978754359478993, 52.09005039641935], [4.97904658499435, 52.089255375384305], [4.980369969276088, 52.08939901423066], [4.98037720512463, 52.08937831258964], [4.980397546535863, 52.08932362713916], [4.980400617214193, 52.08931649217747], [4.980532136862634, 52.088962409420944], [4.980672808366488, 52.08858364970991], [4.980675669198139, 52.08855624579614], [4.980880540710074, 52.088573939687095], [4.981188251225756, 52.08859627480158], [4.981260336048684, 52.08859889592025], [4.981628004690236, 52.08861119886917], [4.982089116061535, 52.088620073782536], [4.982140259821097, 52.08862303584904], [4.9822146932755125, 52.088627336244755], [4.982290001688262, 52.08863169352761], [4.982382503979661, 52.088637035585435], [4.98256934469303, 52.08866250226044], [4.982707168687269, 52.088696671734304], [4.982769685857884, 52.08871662415293], [4.98287953118711, 52.088751677137324], [4.983048547776204, 52.08880561920524], [4.983090848927418, 52.088819965458015], [4.983146256538085, 52.08883875181193], [4.983311083251138, 52.08889462956235], [4.983328437278002, 52.088900513322706], [4.983350475290504, 52.08890798604875], [4.983393213056342, 52.08892247749796], [4.983658035773657, 52.08901203419933], [4.983758641849242, 52.08904596716787], [4.9839395179250205, 52.0891069682605], [4.984014541834761, 52.08912842786157], [4.984046268795948, 52.08913749752765], [4.98424379076486, 52.08919401607564], [4.9847071268747465, 52.08931149180502], [4.985766263151888, 52.089579282117285], [4.9858315080467435, 52.08959473914285], [4.985945617596349, 52.08962176839221], [4.986215217698917, 52.089685638540125], [4.986219367399278, 52.089686623372245], [4.986606832064929, 52.08980320433194], [4.9868570346081995, 52.08988749101165], [4.9869326528528735, 52.089912950477235], [4.98700565236838, 52.0899375561208], [4.987172203204384, 52.09000395039207], [4.9872124779876765, 52.090019996023095], [4.987251255150485, 52.09003545233158], [4.98753914010182, 52.09015677060856], [4.987596627875669, 52.09018320181068], [4.987776008946433, 52.09026565553959], [4.987954606048688, 52.09034773782486], [4.988040909314758, 52.09038435106299], [4.988232719175317, 52.090465713670035], [4.988462194053782, 52.09055160754356], [4.988507573067816, 52.090563166945586], [4.989998467873195, 52.090939822396805], [4.990191942283415, 52.09099213780975], [4.990432411338808, 52.09101221790882], [4.990445195729412, 52.091011991292284], [4.991019617775349, 52.09100178018255], [4.991034298052921, 52.09100002290571], [4.991087351512249, 52.09099367580937], [4.9912232863915795, 52.0909774055996], [4.991627222870366, 52.090928679920125], [4.991767800573723, 52.09090711268545], [4.991898690776402, 52.09088702280294], [4.992248300702445, 52.09083334911555], [4.992258542433571, 52.09083188241205], [4.992331651869101, 52.090821395506964], [4.99242286332202, 52.09080830869503], [4.99305226904773, 52.09071800792726], [4.99309077170072, 52.09070860924917], [4.993159017734704, 52.09069194871353], [4.9932330399145926, 52.090673869343306], [4.993274350178737, 52.09066377891505], [4.993532747220044, 52.090573313835264], [4.99365394820874, 52.09053648074343], [4.993897603503574, 52.090511048595346], [4.994148254220907, 52.09051976714157], [4.993983384417141, 52.090556212411194], [4.993938311460718, 52.090609262714686], [4.993908196237625, 52.09067874823698], [4.993884001783548, 52.09081167364445], [4.993871745013437, 52.09105723298733], [4.993856907465064, 52.0911366204381], [4.993844581255392, 52.0912025520703], [4.993760278564436, 52.09142549955616], [4.993741440094189, 52.09147530274065], [4.993660275537624, 52.091704669146296], [4.993622483340765, 52.091823950072495], [4.993574424251739, 52.09197569772302], [4.993533698449212, 52.09208504594447], [4.993480089713259, 52.092228964349474], [4.993334781069928, 52.09255209597719], [4.993342305935037, 52.092610633730345], [4.993229450516897, 52.09292525403065], [4.993115422328177, 52.09322042900451], [4.993053374415863, 52.09354175329489], [4.992921765990948, 52.093844446259716], [4.992611380083554, 52.09455728849653], [4.99254244972719, 52.09473680199391], [4.992502618752726, 52.094859931590015], [4.99249881799386, 52.09487886580082], [4.991941527100153, 52.09479608776246], [4.991835939550432, 52.0947804000029], [4.9908315677093755, 52.09725957915384], [4.990687450917578, 52.09759405433613], [4.990456013184459, 52.09812953314515], [4.99009433297385, 52.09895237199594], [4.989950503193356, 52.09927958478955], [4.989669764000865, 52.09991824104807], [4.9896215195956195, 52.10004073003847], [4.989340992177114, 52.10071356792655], [4.989321719284702, 52.100757068224745], [4.989209553390688, 52.10088211863504], [4.988336169934795, 52.10082051992732], [4.989003303329232, 52.10343326991482], [4.988140910006456, 52.10351172362854], [4.988322806978662, 52.10441119389553]]]}}], "properties": {"sourceId": "agrest-ov-concentratiegebied-glastuinbouw", "title": "Omgevingsverordening — Concentratiegebied glastuinbouw", "serviceUrl": "https://agrest.geodata-utrecht.nl/rest/services/Omgevingsverordening/FeatureServer", "layerId": 0, "role": "conditional", "authoritative": true, "licenseNote": "Structured open data of provincie Utrecht on agrest.geodata-utrecht.nl; service is anonymously queryable; no license statement exposed by the endpoint itself (platform presented as open data).", "lastChecked": "2026-10-05T09:03:33Z", "where": "NAAM='Concentratiegebied glastuinbouw'", "fetchedAt": "2026-10-05T09:03:51Z", "userAgent": "ldttoolbox-geoconnector/0.1 (wind-turbine opportunity-map PoC; cache-first, single-page politeness; open data of provincie Utrecht via geo-point.provincie-utrecht.nl)", "pages": 1, "featureCount": 2, "bbox": null, "simplifyM": null, "queryFingerprint": "{\"bbox\": null, \"simplify_m\": null}", "crs": "OGC:CRS84/WGS84 (RFC 7946 default, no crs member)"}}