{"type": "FeatureCollection", "name": "agrest-ov-kantoor-knooppunt-utrecht-centraal", "features": [{"type": "Feature", "id": "53161", "properties": {"OBJECTID": "53161", "LOCATIEGROEP_ID": "nl.imow-pv26.gebiedengroep.003000000000000000000460", "SYMBOOL_CODE": "vsg012", "GROEP": "kantoorlocatie", "9e750651-8e97-4bc6-b09e-fc30b5f3e83c_id": "3852", "LOCATIE_ID": "nl.imow-pv26.gebied.003000000000000000000460e59055", "DOCUMENT_URL": "https://omgevingsbeleid.provincie-utrecht.nl/home?d=/akn/nl/act/pv26/2022/omgevingsverordening/nld@1089&o=", "NAAM": "Kantoor op knooppunt Utrecht Centraal", "TYPE": "ruimtelijk gebruik", "LOCATIEGROEP_NAAM": "Kantoor op knooppunt Utrecht Centraal", "LOCATIE_NAAM": null}, "geometry": {"type": "Polygon", "coordinates": [[[5.110208137715178, 52.09854737899188], [5.1097970197152955, 52.09854284433347], [5.109386267194073, 52.09853117258393], [5.108976215896149, 52.09851238251498], [5.1085671870264395, 52.098486483880734], [5.108159516269705, 52.098453504449644], [5.1077535102318805, 52.09841345395034], [5.107349489885012, 52.098366378101325], [5.106947790902803, 52.09831230468464], [5.1065487195972326, 52.09825128838088], [5.1061526115751255, 52.09818336596833], [5.105759758486145, 52.0981086010888], [5.105370481273523, 52.09802703948181], [5.104985100646737, 52.097938762842176], [5.104603908232558, 52.097843834822925], [5.104227210186199, 52.097742328103365], [5.103855312596813, 52.097634324354054], [5.103488492356668, 52.09751990517862], [5.103127070014561, 52.09739917026477], [5.102771293197777, 52.09727221013957], [5.102421482433297, 52.09713912449641], [5.1020778998053995, 52.097000021878166], [5.101740821980011, 52.09685501086542], [5.101410510960517, 52.09670420899324], [5.101087228737886, 52.09654773379838], [5.100771222640078, 52.09638571177205], [5.1004627691110205, 52.0962182784653], [5.1001621009174745, 52.09604555134846], [5.099869450640724, 52.09586767485647], [5.099585050906767, 52.09568478443688], [5.099309148748151, 52.09549704253737], [5.099041918393214, 52.09530458446398], [5.098783621557316, 52.095107554724535], [5.098534432154006, 52.094906133564365], [5.098294568094592, 52.09470046538403], [5.098064188791112, 52.0944907124162], [5.097843511956263, 52.09427704602376], [5.097632696920156, 52.09405963742559], [5.0974319030015165, 52.093838657839136], [5.097241304100341, 52.09361427851636], [5.097061044862869, 52.093386679623855], [5.09689126992486, 52.09315604132651], [5.096732123853716, 52.092922552775036], [5.096583707489301, 52.09268639402244], [5.096446150788592, 52.09244775417912], [5.096319569107854, 52.09220682231709], [5.096204063203602, 52.09196378747], [5.096099719233291, 52.09171883863267], [5.096006608639091, 52.09147218273694], [5.0959248321574115, 52.09122400880789], [5.095854432094302, 52.09097451471132], [5.095795465342908, 52.090723898346134], [5.095748003383561, 52.09047235764401], [5.095712044736512, 52.09022009035295], [5.09568764622631, 52.08996730335004], [5.095674820960205, 52.08971419441271], [5.095673582044348, 52.08946096131522], [5.095683913402548, 52.089207801756075], [5.09570582802375, 52.08895493147857], [5.095739280768621, 52.088702530126575], [5.095784284569909, 52.08845082242455], [5.095840765111378, 52.088199987937536], [5.095908706266856, 52.087950233335384], [5.095988033610469, 52.08770175615269], [5.09607870184326, 52.087454762980805], [5.096180622075845, 52.087209433336234], [5.096293719839812, 52.086965973732354], [5.096417906258286, 52.086724563679745], [5.096553077696184, 52.08648540961438], [5.096699130643082, 52.08624869999353], [5.09685596159667, 52.08601462327204], [5.097023423410589, 52.085783349818755], [5.097201383362908, 52.08555507700019], [5.097389723447721, 52.08532998424091], [5.097588281900329, 52.0851082508559], [5.097796882377538, 52.08489005612276], [5.098015392431943, 52.084675561449274], [5.098243621153439, 52.0844649460746], [5.098481392349361, 52.08425837129678], [5.098728500602544, 52.08405600732941], [5.0989847698026995, 52.0838580064812], [5.099249979968534, 52.083664538929064], [5.099523940483318, 52.08347574795737], [5.09980641691806, 52.08329178573138], [5.100097204092407, 52.08311279549999], [5.10039603842559, 52.082938929358264], [5.100702714878369, 52.08277031258031], [5.10101696995361, 52.08260708827486], [5.101338569459775, 52.08244938164709], [5.101667250040374, 52.08229731783238], [5.1020027484089105, 52.08215101298005], [5.102344801233945, 52.08201059222897], [5.102693145253358, 52.08187617173211], [5.103047488211409, 52.08174784061036], [5.103407552337858, 52.0816257059981], [5.103773059873637, 52.0815098750323], [5.104143718653011, 52.08140042785374], [5.104519236406676, 52.081297462581986], [5.104899306457462, 52.08120105034106], [5.1052836366689, 52.08111127128104], [5.105671905737011, 52.0810282054858], [5.10606383630063, 52.08095190618341], [5.106459078008457, 52.08088243541968], [5.106857353513828, 52.08081984643013], [5.10725832706757, 52.08076420130322], [5.107661692271648, 52.0807155352371], [5.108067113500697, 52.080673892352834], [5.108474269834344, 52.080639298834555], [5.108882854943899, 52.08061178090514], [5.1092925479158176, 52.080591364757126], [5.109702998662951, 52.08057807651904], [5.110113886499246, 52.08057190644084], [5.1105249051603, 52.08057287177499], [5.110935719317309, 52.08058097173402], [5.111345993751903, 52.080596187559145], [5.111755407666339, 52.08061852749424], [5.112163640482651, 52.08064796383575], [5.112570371620089, 52.08068446888439], [5.11297526590625, 52.0807280149115], [5.113378002753111, 52.08077857422666], [5.113778290854165, 52.08083610123551], [5.114175765902001, 52.08090055916646], [5.114570151276715, 52.0809718844913], [5.114961111944068, 52.08105002253844], [5.115348356681722, 52.08113490975324], [5.11573156502877, 52.08122649150553], [5.116110431267715, 52.081324686238375], [5.116484664260261, 52.081429412431895], [5.116853958215999, 52.081540597523926], [5.117218022085942, 52.0816581420249], [5.117576564702026, 52.08178196442417], [5.11792930963665, 52.081911956283335], [5.118275965862079, 52.08204800913313], [5.118616285996811, 52.08219003258244], [5.118949964455397, 52.082337909145245], [5.119276739459655, 52.082491512449586], [5.119596378342431, 52.08265072517915], [5.11990861930084, 52.08281542096501], [5.120213185930085, 52.082985473406445], [5.120509874864143, 52.08316073829328], [5.120798424261488, 52.08334108925982], [5.121078630783966, 52.083526373109194], [5.1213502326711, 52.08371644550104], [5.1216130557370425, 52.08391115330478], [5.121866867373738, 52.08411035224617], [5.122111464298537, 52.08431387115265], [5.122346672288423, 52.084521556892554], [5.122572273446574, 52.08473323825932], [5.122788122757738, 52.08494875319745], [5.122994031533222, 52.085167921575845], [5.1231898255559205, 52.085390581271014], [5.12337537447287, 52.08561655228009], [5.123550518741236, 52.085845654533074], [5.1237151133974566, 52.08607770799085], [5.123869028163907, 52.08631251466897], [5.1240121617749885, 52.08654990360978], [5.124144369292253, 52.08678968577969], [5.12426556412913, 52.08703167227295], [5.124375645206985, 52.08727565617255], [5.124474525872034, 52.0875214575552], [5.124562119622472, 52.08776886953087], [5.124638383563645, 52.08801771226802], [5.124703216592349, 52.08826777883811], [5.12475660509127, 52.088518871492255], [5.124798477129823, 52.088770783360616], [5.124828818978888, 52.08902333466382], [5.124847602580223, 52.08927630064692], [5.1248547996100875, 52.08952950149127], [5.1248504111366975, 52.08978272148812], [5.124834452713964, 52.09003576293371], [5.124806925305297, 52.09028842808833], [5.124767859057822, 52.09054051927386], [5.124717269582187, 52.09079182978847], [5.124655216213146, 52.091042162012556], [5.124581729106101, 52.09129131825801], [5.124496867603556, 52.09153910089877], [5.12440072023616, 52.09178531237069], [5.1242933463042695, 52.09202976402944], [5.124174819811263, 52.09227224928449], [5.124045273029547, 52.09251257964855], [5.1239047652792795, 52.09275056646894], [5.123753428848292, 52.092986021253196], [5.123591381441185, 52.09321875547404], [5.123418755310853, 52.09344858962239], [5.123235682772764, 52.09367533519927], [5.123042310691809, 52.09389881272424], [5.122838800535801, 52.09411884274797], [5.122625284545449, 52.09433525474205], [5.122401967935193, 52.094547878340286], [5.122169012153648, 52.09475654307728], [5.12192659325387, 52.09496107851934], [5.121674916433307, 52.095161323285495], [5.12141418679522, 52.09535713397029], [5.121144595076079, 52.09554833118334], [5.12086636099744, 52.09573477155162], [5.1205797188329765, 52.095916320723234], [5.120284873843859, 52.09609281731685], [5.11998206032957, 52.096264126981346], [5.119671541842611, 52.096430106444764], [5.119353552600908, 52.096590639333876], [5.119028341535576, 52.09674559133378], [5.118696172130039, 52.09689483715214], [5.118357293232766, 52.0970382604531], [5.118011997484719, 52.09717574500241], [5.11766054829808, 52.09730718348924], [5.117303223689862, 52.09743246863845], [5.116940301634482, 52.09755150216539], [5.116572089249948, 52.09766419484263], [5.116198849938409, 52.09777044835752], [5.115820905377881, 52.097870182510285], [5.1154385626625265, 52.09796331707088], [5.115052085059693, 52.0980497806997], [5.114661808759188, 52.09812951121671], [5.114268055474736, 52.09820242843632], [5.113871102927204, 52.09826848802704], [5.1134713019227584, 52.09832762785444], [5.113068944733773, 52.0983798126166], [5.112664352935781, 52.09842498910765], [5.112257862537903, 52.098463131123616], [5.111849780475977, 52.09849419442105], [5.111440442656245, 52.09851817078067], [5.111030170504193, 52.09853503397783], [5.110619299930582, 52.09854477580226], [5.110208137715178, 52.09854737899188]]]}}], "properties": {"sourceId": "agrest-ov-kantoor-knooppunt-utrecht-centraal", "title": "Omgevingsverordening — Kantoor op knooppunt Utrecht Centraal", "serviceUrl": "https://agrest.geodata-utrecht.nl/rest/services/Omgevingsverordening/FeatureServer", "layerId": 0, "role": "conditional", "authoritative": true, "licenseNote": "Structured open data of provincie Utrecht on agrest.geodata-utrecht.nl; service is anonymously queryable; no license statement exposed by the endpoint itself (platform presented as open data).", "lastChecked": "2026-10-06T11:11:23Z", "where": "NAAM='Kantoor op knooppunt Utrecht Centraal'", "fetchedAt": "2026-10-06T11:11:27Z", "userAgent": "ldttoolbox-geoconnector/0.1 (wind-turbine opportunity-map PoC; cache-first, single-page politeness; open data of provincie Utrecht via geo-point.provincie-utrecht.nl)", "pages": 1, "featureCount": 1, "bbox": null, "simplifyM": null, "queryFingerprint": "{\"bbox\": null, \"simplify_m\": null}", "crs": "OGC:CRS84/WGS84 (RFC 7946 default, no crs member)"}}