{"type": "FeatureCollection", "name": "agrest-ov-kantoor-knooppunt-leidsche-rijn-centrum", "crs": {"type": "name", "properties": {"name": "EPSG:28992"}}, "features": [{"type": "Feature", "id": "53160", "properties": {"OBJECTID": "53160", "LOCATIEGROEP_ID": "nl.imow-pv26.gebiedengroep.003000000000000000000465", "SYMBOOL_CODE": "vsg012", "GROEP": "kantoorlocatie", "9e750651-8e97-4bc6-b09e-fc30b5f3e83c_id": "3851", "LOCATIE_ID": "nl.imow-pv26.gebied.003000000000000000000465e59177", "DOCUMENT_URL": "https://omgevingsbeleid.provincie-utrecht.nl/home?d=/akn/nl/act/pv26/2022/omgevingsverordening/nld@1089&o=", "NAAM": "Kantoor op knooppunt Leidsche Rijn Centrum", "TYPE": "ruimtelijk gebruik", "LOCATIEGROEP_NAAM": "Kantoor op knooppunt Leidsche Rijn Centrum", "LOCATIE_NAAM": null}, "geometry": {"type": "Polygon", "coordinates": [[[133138.96799999848, 457135.7320000008], [133119.08900000155, 457135.3370000012], [133099.24300000072, 457134.15199999884], [133079.45899999887, 457132.1779999994], [133059.76900000125, 457129.4200000018], [133040.2039999999, 457125.881000001], [133020.7950000018, 457121.56700000167], [133001.57400000095, 457116.4849999994], [132982.56899999827, 457110.6420000009], [132963.811999999, 457104.0489999987], [132945.33199999854, 457096.71499999985], [132927.15799999982, 457088.65300000086], [132909.31899999827, 457079.8740000017], [132891.84299999848, 457070.3929999992], [132874.7580000013, 457060.22399999946], [132858.09099999815, 457049.3839999996], [132841.8669999987, 457037.8909999989], [132826.11400000006, 457025.76099999994], [132810.85500000045, 457013.0150000006], [132796.11499999836, 456999.6719999984], [132781.91699999943, 456985.7529999986], [132768.28400000185, 456971.2820000015], [132755.23600000143, 456956.27899999917], [132742.7960000001, 456940.76999999955], [132730.98200000077, 456924.77800000086], [132719.813000001, 456908.3299999982], [132709.30700000003, 456891.44999999925], [132699.48000000045, 456874.16600000113], [132690.34800000116, 456856.50499999896], [132681.92599999905, 456838.49500000104], [132674.2259999998, 456820.1640000008], [132667.26099999994, 456801.54199999943], [132661.04199999943, 456782.6579999998], [132655.5789999999, 456763.54100000113], [132650.87999999896, 456744.22199999914], [132646.95199999958, 456724.73099999875], [132643.80299999937, 456705.1000000015], [132641.436999999, 456685.3590000011], [132639.85700000077, 456665.5399999991], [132639.06700000167, 456645.6739999987], [132639.06700000167, 456625.79100000113], [132639.85700000077, 456605.92500000075], [132641.436999999, 456586.10599999875], [132643.80299999937, 456566.36499999836], [132646.95199999958, 456546.7340000011], [132650.87999999896, 456527.2430000007], [132655.5789999999, 456507.9239999987], [132661.04199999943, 456488.80700000003], [132667.26099999994, 456469.9230000004], [132674.2259999998, 456451.30099999905], [132681.92599999905, 456432.9699999988], [132690.34800000116, 456414.9600000009], [132699.48000000045, 456397.2989999987], [132709.30700000003, 456380.0150000006], [132719.813000001, 456363.13500000164], [132730.98200000077, 456346.6860000007], [132742.7960000001, 456330.6950000003], [132755.23600000143, 456315.1860000007], [132768.28400000185, 456300.18299999833], [132781.91699999943, 456285.7109999992], [132796.11499999836, 456271.79300000146], [132810.85500000045, 456258.44999999925], [132826.11400000006, 456245.7039999999], [132841.8669999987, 456233.57400000095], [132858.09099999815, 456222.0799999982], [132874.7580000013, 456211.2410000004], [132891.84299999848, 456201.0720000006], [132909.31899999827, 456191.59099999815], [132927.15799999982, 456182.811999999], [132945.33199999854, 456174.7490000017], [132963.811999999, 456167.41600000113], [132982.56899999827, 456160.8220000006], [133001.57400000095, 456154.98000000045], [133020.7950000018, 456149.8979999982], [133040.2039999999, 456145.58399999887], [133059.76900000125, 456142.0450000018], [133079.45899999887, 456139.28599999845], [133099.24300000072, 456137.313000001], [133119.08900000155, 456136.1279999986], [133138.96799999848, 456135.7320000008], [133158.84600000083, 456136.1279999986], [133178.69299999997, 456137.313000001], [133198.47700000182, 456139.28599999845], [133218.16699999943, 456142.0450000018], [133237.73099999875, 456145.58399999887], [133257.1400000006, 456149.8979999982], [133276.36199999973, 456154.98000000045], [133295.3660000004, 456160.8220000006], [133314.12299999967, 456167.41600000113], [133332.60300000012, 456174.7490000017], [133350.77699999884, 456182.811999999], [133368.6160000004, 456191.59099999815], [133386.09200000018, 456201.0720000006], [133403.17700000107, 456211.2410000004], [133419.8449999988, 456222.0799999982], [133436.06799999997, 456233.57400000095], [133451.82200000063, 456245.7039999999], [133467.08100000024, 456258.44999999925], [133481.8209999986, 456271.79300000146], [133496.01900000125, 456285.7109999992], [133509.65199999884, 456300.18299999833], [133522.69900000095, 456315.1860000007], [133535.13899999857, 456330.6950000003], [133546.9530000016, 456346.6860000007], [133558.12200000137, 456363.13500000164], [133568.62900000066, 456380.0150000006], [133578.4549999982, 456397.2989999987], [133587.58700000122, 456414.9600000009], [133596.01000000164, 456432.9699999988], [133603.70899999887, 456451.30000000075], [133610.67399999872, 456469.9230000004], [133616.89400000125, 456488.80700000003], [133622.35700000077, 456507.9239999987], [133627.05600000173, 456527.2430000007], [133630.98299999908, 456546.7329999991], [133634.1330000013, 456566.36499999836], [133636.4990000017, 456586.10599999875], [133638.0780000016, 456605.92500000075], [133638.86899999902, 456625.79100000113], [133638.86899999902, 456645.6739999987], [133638.0780000016, 456665.5399999991], [133636.4990000017, 456685.3590000011], [133634.1330000013, 456705.1000000015], [133630.98299999908, 456724.73099999875], [133627.05600000173, 456744.22199999914], [133622.35700000077, 456763.54100000113], [133616.89400000125, 456782.6570000015], [133610.67399999872, 456801.54199999943], [133603.70899999887, 456820.1640000008], [133596.01000000164, 456838.49500000104], [133587.58700000122, 456856.50499999896], [133578.4549999982, 456874.16600000113], [133568.62900000066, 456891.44999999925], [133558.12200000137, 456908.3299999982], [133546.9530000016, 456924.77800000086], [133535.13899999857, 456940.76999999955], [133522.69900000095, 456956.27899999917], [133509.65199999884, 456971.2820000015], [133496.01900000125, 456985.7529999986], [133481.8209999986, 456999.6719999984], [133467.08100000024, 457013.0150000006], [133451.82200000063, 457025.76099999994], [133436.06799999997, 457037.8909999989], [133419.8449999988, 457049.3839999996], [133403.17700000107, 457060.22399999946], [133386.09200000018, 457070.3920000009], [133368.6160000004, 457079.8740000017], [133350.77699999884, 457088.65300000086], [133332.60300000012, 457096.71499999985], [133314.12299999967, 457104.0489999987], [133295.3660000004, 457110.6420000009], [133276.36199999973, 457116.4849999994], [133257.1400000006, 457121.56700000167], [133237.73099999875, 457125.881000001], [133218.16699999943, 457129.4200000018], [133198.47700000182, 457132.1779999994], [133178.69299999997, 457134.15199999884], [133158.84600000083, 457135.3370000012], [133138.96799999848, 457135.7320000008]]]}}], "properties": {"sourceId": "agrest-ov-kantoor-knooppunt-leidsche-rijn-centrum", "title": "Omgevingsverordening — Kantoor op knooppunt Leidsche Rijn Centrum", "serviceUrl": "https://agrest.geodata-utrecht.nl/rest/services/Omgevingsverordening/FeatureServer", "layerId": 0, "role": "conditional", "authoritative": true, "licenseNote": "Structured open data of provincie Utrecht on agrest.geodata-utrecht.nl; service is anonymously queryable; no license statement exposed by the endpoint itself (platform presented as open data).", "lastChecked": "2026-10-06T11:11:23Z", "where": "NAAM='Kantoor op knooppunt Leidsche Rijn Centrum'", "fetchedAt": "2026-10-06T11:11:28Z", "userAgent": "ldttoolbox-geoconnector/0.1 (wind-turbine opportunity-map PoC; cache-first, single-page politeness; open data of provincie Utrecht via geo-point.provincie-utrecht.nl)", "pages": 1, "featureCount": 1, "bbox": null, "simplifyM": null, "queryFingerprint": "{\"bbox\": null, \"simplify_m\": null}"}}