{"type": "FeatureCollection", "name": "agrest-ov-gebiedstransformatie-of-herstructurering", "crs": {"type": "name", "properties": {"name": "EPSG:28992"}}, "features": [{"type": "Feature", "id": "60516", "properties": {"OBJECTID": "60516", "LOCATIEGROEP_ID": "nl.imow-pv26.gebiedengroep.003000000000000000000443", "SYMBOOL_CODE": "vsg012", "GROEP": "kantoorlocatie", "9e750651-8e97-4bc6-b09e-fc30b5f3e83c_id": "11140", "LOCATIE_ID": "nl.imow-pv26.gebied.003000000000000000000443e57704", "DOCUMENT_URL": "https://omgevingsbeleid.provincie-utrecht.nl/home?d=/akn/nl/act/pv26/2022/omgevingsverordening/nld@1089&o=", "NAAM": "Gebiedstransformatie of  herstructurering", "TYPE": "ruimtelijk gebruik", "LOCATIEGROEP_NAAM": "Gebiedstransformatie of  herstructurering", "LOCATIE_NAAM": null}, "geometry": {"type": "Polygon", "coordinates": [[[135575.03799999878, 454502.1559999995], [135578.46799999848, 454497.10599999875], [135602.27100000158, 454416.3729999997], [135604.09800000116, 454411.5529999994], [135606.04399999976, 454406.41800000146], [135609.57699999958, 454393.62999999896], [135615.12900000066, 454371.2520000003], [135617.6259999983, 454359.7179999985], [135620.0080000013, 454348.0320000015], [135621.35399999842, 454342.9849999994], [135623.37299999967, 454338.9470000006], [135628.8660000004, 454331.0529999994], [135634.66600000113, 454332.64499999955], [135642.12799999863, 454333.70699999854], [135647.8830000013, 454332.118999999], [135650.50499999896, 454330.7470000014], [135657.40399999917, 454324.6710000001], [135682.8040000014, 454307.8429999985], [135685.31700000167, 454307.78500000015], [135687.27899999917, 454306.2170000002], [135689.75600000098, 454304.23699999973], [135691.52299999818, 454302.6799999997], [135698.6959999986, 454301.688000001], [135701.7340000011, 454301.4770000018], [135707.0940000005, 454301.10500000045], [135714.73299999908, 454301.8049999997], [135744.18400000036, 454307.63699999824], [135754.8599999994, 454310.02899999917], [135759.01900000125, 454310.7749999985], [135761.4059999995, 454311.09600000083], [135806.10500000045, 454321.30000000075], [135870.86899999902, 454333.20800000057], [135874.63500000164, 454333.8999999985], [135875.6169999987, 454334.08100000024], [135888.93100000173, 454336.52899999917], [135931.77600000054, 454344.4070000015], [135934.68499999866, 454344.7679999992], [135939.06899999827, 454345.63500000164], [135941.6649999991, 454346.37099999934], [135937.30299999937, 454367.4140000008], [135916.60799999908, 454440.00499999896], [135895.46799999848, 454496.7199999988], [135889.50699999928, 454510.8960000016], [135886.1339999996, 454518.91899999976], [135884.0949999988, 454523.7679999992], [135880.2589999996, 454532.8900000006], [135848.43299999833, 454599.8999999985], [135842.33399999887, 454610.8830000013], [135835.50400000066, 454618.8539999984], [135818.76300000027, 454645.80000000075], [135815.8040000014, 454657.936999999], [135807.6710000001, 454670.9539999999], [135789.77899999917, 454696.98699999973], [135764.56700000167, 454731.1550000012], [135731.22300000116, 454772.6460000016], [135721.7969999984, 454777.3999999985], [135714.05999999866, 454786.6099999994], [135695.53400000185, 454807.4360000007], [135671.8740000017, 454831.78500000015], [135655.98000000045, 454854.93299999833], [135651.1099999994, 454859.006000001], [135648.72800000012, 454860.3189999983], [135644.35700000077, 454853.55700000003], [135640.04399999976, 454846.7800000012], [135624.25299999863, 454821.76099999994], [135618.00600000098, 454811.86300000176], [135517.65300000086, 454652.86499999836], [135511.15799999982, 454642.57499999925], [135504.8759999983, 454632.6220000014], [135502.6169999987, 454629.04300000146], [135506.17799999937, 454627.56599999964], [135509.04800000042, 454626.375], [135508.4200000018, 454625.37999999896], [135508.2740000002, 454621.9930000007], [135508.6799999997, 454618.65399999917], [135509.2960000001, 454613.58199999854], [135550.5009999983, 454543.8779999986], [135570.71799999848, 454508.5179999992], [135575.03799999878, 454502.1559999995]]]}}, {"type": "Feature", "id": "60517", "properties": {"OBJECTID": "60517", "LOCATIEGROEP_ID": "nl.imow-pv26.gebiedengroep.003000000000000000000443", "SYMBOOL_CODE": "vsg012", "GROEP": "kantoorlocatie", "9e750651-8e97-4bc6-b09e-fc30b5f3e83c_id": "11141", "LOCATIE_ID": "nl.imow-pv26.gebied.003000000000000000000443e57703", "DOCUMENT_URL": "https://omgevingsbeleid.provincie-utrecht.nl/home?d=/akn/nl/act/pv26/2022/omgevingsverordening/nld@1089&o=", "NAAM": "Gebiedstransformatie of  herstructurering", "TYPE": "ruimtelijk gebruik", "LOCATIEGROEP_NAAM": "Gebiedstransformatie of  herstructurering", "LOCATIE_NAAM": null}, "geometry": {"type": "Polygon", "coordinates": [[[135651.89200000092, 454196.64400000125], [135653.0009999983, 454189.17500000075], [135653.44700000063, 454186.1730000004], [135655.15799999982, 454177.6409999989], [135658.1000000015, 454162.9759999998], [135662.80000000075, 454139.5469999984], [135667.80999999866, 454117.54199999943], [135670.48000000045, 454104.19099999964], [135674.05999999866, 454093.4919999987], [135680.0150000006, 454066.81500000134], [135679.30200000107, 454059.5929999985], [135681.46700000018, 454049.05099999905], [135691.10200000182, 454001.9239999987], [135695.5, 453987.1220000014], [135697.03599999845, 453982.65399999917], [135698.10700000077, 453977.9759999998], [135706.32299999893, 453942.1000000015], [135707.30299999937, 453935.0769999996], [135708.10500000045, 453929.95699999854], [135747.56799999997, 453677.9450000003], [135747.83100000024, 453676.2679999992], [135748.1490000002, 453674.2349999994], [135749.93200000003, 453662.84600000083], [135750.66600000113, 453658.15300000086], [135751.25699999928, 453654.3830000013], [135757.37700000033, 453615.27600000054], [135759.6099999994, 453601.0069999993], [135766.7969999984, 453555.0850000009], [135767.58900000155, 453550.0219999999], [135775.5300000012, 453499.27800000086], [135779.18200000003, 453475.93400000036], [135788.14499999955, 453389.2729999982], [135789.48200000077, 453380.33399999887], [135791.47700000182, 453366.99599999934], [135805.5, 453273.2410000004], [135808.48800000176, 453264.55099999905], [135815.78700000048, 453253.36199999973], [135817.08700000122, 453251.6939999983], [135819.59800000116, 453248.4679999985], [135826.95600000024, 453239.0179999992], [135836.625, 453233.006000001], [135844.02800000086, 453227.9510000013], [135851.26999999955, 453222.26900000125], [135857.813000001, 453218.65399999917], [135863.95800000057, 453215.9820000008], [135870.3599999994, 453214.57499999925], [135872.061999999, 453214.2010000013], [135873.26199999824, 453214.08300000057], [135875.34299999848, 453213.8779999986], [135876.0610000007, 453213.9829999991], [135931.19399999827, 453222.0379999988], [135991.75, 453230.94299999997], [136003.05999999866, 453231.56700000167], [136016.86300000176, 453232.1009999998], [136043.66800000146, 453233.61499999836], [136064.14299999923, 453234.7329999991], [136072.85399999842, 453235.07400000095], [136105.60500000045, 453238.6319999993], [136109.84600000083, 453239.22199999914], [136114.0150000006, 453239.8020000011], [136113.45899999887, 453243.67599999905], [136113.07499999925, 453246.3500000015], [136109.57400000095, 453270.7520000003], [136108.8200000003, 453276.0069999993], [136107.80600000173, 453283.07400000095], [136106.76700000092, 453290.3110000007], [136104.7340000011, 453304.4770000018], [136103.4149999991, 453313.6700000018], [136087.54100000113, 453412.95600000024], [136084.05799999833, 453434.8379999995], [136082.7259999998, 453443.2100000009], [136081.54399999976, 453450.6339999996], [136079.35700000077, 453451.4759999998], [136072.02800000086, 453500.83900000155], [136070.21299999952, 453513.0610000007], [136063.0300000012, 453561.43400000036], [136061.3599999994, 453572.686999999], [136046.19000000134, 453674.85500000045], [136044.51799999923, 453685.59800000116], [136021.83199999854, 453831.3969999999], [136002.61899999902, 453954.875], [135997.08900000155, 453990.4140000008], [135977.0700000003, 454123.0029999986], [135960.94900000095, 454232.7419999987], [135954.7039999999, 454272.1030000001], [135951.68400000036, 454294.1790000014], [135947.40300000086, 454320.43400000036], [135944.26099999994, 454319.76000000164], [135940.2809999995, 454318.9059999995], [135937.07400000095, 454318.2190000005], [135865.35799999908, 454302.1020000018], [135813.1330000013, 454290.3660000004], [135773.34899999946, 454281.41899999976], [135767.69200000167, 454280.33100000024], [135764.17799999937, 454279.5799999982], [135761.20800000057, 454278.9459999986], [135717.54800000042, 454269.61300000176], [135705.69099999964, 454267.0789999999], [135701.42700000107, 454265.77899999917], [135698.46799999848, 454262.3200000003], [135693.81899999827, 454260.0520000011], [135691.40900000185, 454258.5639999993], [135686.6240000017, 454253.04399999976], [135680.61100000143, 454244.95800000057], [135666.71799999848, 454224.8440000005], [135661.94799999893, 454217.80099999905], [135662.27299999818, 454217.06700000167], [135661.7960000001, 454215.7490000017], [135660.44200000167, 454212.01399999857], [135652.05099999905, 454210.59899999946], [135651.89200000092, 454196.64400000125]]]}}, {"type": "Feature", "id": "60518", "properties": {"OBJECTID": "60518", "LOCATIEGROEP_ID": "nl.imow-pv26.gebiedengroep.003000000000000000000443", "SYMBOOL_CODE": "vsg012", "GROEP": "kantoorlocatie", "9e750651-8e97-4bc6-b09e-fc30b5f3e83c_id": "11142", "LOCATIE_ID": "nl.imow-pv26.gebied.003000000000000000000443e57701", "DOCUMENT_URL": "https://omgevingsbeleid.provincie-utrecht.nl/home?d=/akn/nl/act/pv26/2022/omgevingsverordening/nld@1089&o=", "NAAM": "Gebiedstransformatie of  herstructurering", "TYPE": "ruimtelijk gebruik", "LOCATIEGROEP_NAAM": "Gebiedstransformatie of  herstructurering", "LOCATIE_NAAM": null}, "geometry": {"type": "Polygon", "coordinates": [[[135846.37000000104, 453137.9230000004], [135849.37900000066, 453137.8500000015], [135851.34200000018, 453137.8029999994], [135851.11400000006, 453133.125], [135850.9290000014, 453129.3350000009], [135852.69000000134, 453117.90300000086], [135855.44900000095, 453099.21599999815], [135856.8289999999, 453086.0469999984], [135858.58399999887, 453070.9970000014], [135859.46200000122, 453060.0859999992], [135859.936999999, 453051.0760000013], [135860.08700000122, 453048.1400000006], [135860.33100000024, 453043.6020000018], [135860.67500000075, 453037.0469999984], [135861.3440000005, 453024.3429999985], [135860.96700000018, 452991.3590000011], [135859.96400000155, 452982.3289999999], [135856.32699999958, 452960.7580000013], [135852.17799999937, 452931.3729999997], [135851.93499999866, 452929.65399999917], [135851.686999999, 452927.8990000002], [135849.2410000004, 452907.7890000008], [135848.09099999815, 452901.3660000004], [135842.65300000086, 452870.9820000008], [135834.6330000013, 452829.01900000125], [135827.27299999818, 452792.1079999991], [135826.51300000027, 452788.30799999833], [135826.04199999943, 452785.938000001], [135825.1799999997, 452781.61300000176], [135821.55000000075, 452762.7569999993], [135821.24399999902, 452761.16600000113], [135820.83999999985, 452759.06700000167], [135820.4910000004, 452757.2520000003], [135820.0789999999, 452755.11300000176], [135819.30799999833, 452751.1070000008], [135815.87099999934, 452731.7729999982], [135815.29800000042, 452728.7179999985], [135813.7410000004, 452720.4140000008], [135813.29300000146, 452718.0240000002], [135811.57400000095, 452703.2719999999], [135811.14499999955, 452692.243999999], [135811.71799999848, 452680.3570000008], [135812.2899999991, 452669.7589999996], [135811.0009999983, 452647.55999999866], [135810.5469999984, 452644.4789999984], [135810.1799999997, 452641.9840000011], [135809.86899999902, 452639.8680000007], [135808.91800000146, 452633.41099999845], [135808.7259999998, 452624.2019999996], [135807.64600000158, 452611.66099999845], [135805.8359999992, 452612.76000000164], [135802.26799999923, 452614.9270000011], [135800.45899999887, 452611.59699999914], [135796.67500000075, 452592.5080000013], [135791.69799999893, 452567.40199999884], [135790.46499999985, 452560.811999999], [135783.2950000018, 452532.6710000001], [135780.97700000182, 452523.5709999986], [135782.4990000017, 452518.9450000003], [135787.9990000017, 452511.42599999905], [135794.78299999982, 452506.1090000011], [135800.11100000143, 452503.3920000009], [135804.1339999996, 452501.34099999815], [135814.50499999896, 452497.5460000001], [135826.6860000007, 452493.08900000155], [135839.00499999896, 452488.23699999973], [135848.24599999934, 452484.59699999914], [135862.07299999893, 452477.3189999983], [135876.55700000003, 452467.9670000002], [135895.90100000054, 452454.9479999989], [135941.68299999833, 452424.1000000015], [135972.70800000057, 452404.381000001], [135992.00200000033, 452394.86100000143], [136016.61300000176, 452384.0560000017], [136023.5150000006, 452381.05999999866], [136028.53500000015, 452379.36100000143], [136047.2030000016, 452372.97199999914], [136048.94700000063, 452372.375], [136051.63199999928, 452371.45600000024], [136056.98999999836, 452369.6220000014], [136059.4450000003, 452368.7820000015], [136064.80900000036, 452366.9459999986], [136065.27299999818, 452368.30700000003], [136065.7259999998, 452369.63500000164], [136066.29100000113, 452376.95600000024], [136066.63800000027, 452381.4479999989], [136067.41200000048, 452391.4840000011], [136068.0159999989, 452396.4780000001], [136069.1240000017, 452399.6550000012], [136100.49500000104, 452489.5729999989], [136105.73000000045, 452505.5309999995], [136118.63500000164, 452544.87099999934], [136123.54899999872, 452559.8509999998], [136124.7199999988, 452563.4219999984], [136139.3049999997, 452608.84600000083], [136145.90100000054, 452638.8229999989], [136153.33100000024, 452676.54100000113], [136160.2109999992, 452718.52800000086], [136162.96299999952, 452752.66600000113], [136165.16299999878, 452814.4759999998], [136164.61300000176, 452861.66800000146], [136163.51199999824, 452872.4050000012], [136160.1099999994, 452896.17599999905], [136155.09800000116, 452931.19999999925], [136154.98200000077, 452932.01300000027], [136135.08999999985, 453066.75], [136134.61800000072, 453078.6259999983], [136120.95199999958, 453171.55099999905], [136118.41800000146, 453195.80799999833], [136116.84899999946, 453220.0610000007], [136116.54300000146, 453222.188000001], [136116.08199999854, 453225.39499999955], [136112.48600000143, 453224.8020000011], [136108.27800000086, 453224.1079999991], [136057.57600000128, 453216.4279999994], [136044.8839999996, 453214.5179999992], [136021.21299999952, 453210.9679999985], [135985.41000000015, 453205.6039999984], [135983.2899999991, 453205.28599999845], [135972.58999999985, 453203.6810000017], [135908.63899999857, 453194.08900000155], [135894.21400000155, 453191.9200000018], [135885.13699999824, 453189.4530000016], [135879.93200000003, 453186.91000000015], [135879.51399999857, 453186.70600000024], [135877.58199999854, 453185.57400000095], [135874.8590000011, 453183.9789999984], [135873.3440000005, 453183.09099999815], [135865.4690000005, 453175.6799999997], [135858.08100000024, 453166.09899999946], [135855.59200000018, 453161.83300000057], [135853.39400000125, 453158.06599999964], [135851.73999999836, 453155.2289999984], [135850.8359999992, 453152.8669999987], [135850.18299999833, 453151.16000000015], [135848.99500000104, 453148.05099999905], [135847.86100000143, 453145.08399999887], [135846.37000000104, 453137.9230000004]]]}}, {"type": "Feature", "id": "60519", "properties": {"OBJECTID": "60519", "LOCATIEGROEP_ID": "nl.imow-pv26.gebiedengroep.003000000000000000000443", "SYMBOOL_CODE": "vsg012", "GROEP": "kantoorlocatie", "9e750651-8e97-4bc6-b09e-fc30b5f3e83c_id": "11144", "LOCATIE_ID": "nl.imow-pv26.gebied.003000000000000000000443e57705", "DOCUMENT_URL": "https://omgevingsbeleid.provincie-utrecht.nl/home?d=/akn/nl/act/pv26/2022/omgevingsverordening/nld@1089&o=", "NAAM": "Gebiedstransformatie of  herstructurering", "TYPE": "ruimtelijk gebruik", "LOCATIEGROEP_NAAM": "Gebiedstransformatie of  herstructurering", "LOCATIE_NAAM": null}, "geometry": {"type": "Polygon", "coordinates": [[[135137.27699999884, 455157.93499999866], [135137.44000000134, 455156.1889999993], [135137.57699999958, 455154.71400000155], [135137.84899999946, 455151.8029999994], [135138.91699999943, 455148.4200000018], [135140.12799999863, 455145.3209999986], [135142.44299999997, 455141.51099999994], [135194.8449999988, 455098.1970000006], [135197.66099999845, 455097.5480000004], [135199.59099999815, 455097.8209999986], [135200.81700000167, 455098.17599999905], [135200.73000000045, 455096.8500000015], [135205.5249999985, 455092.7589999996], [135210.1090000011, 455088.84899999946], [135210.81700000167, 455088.24500000104], [135211.96400000155, 455087.2670000009], [135219.6799999997, 455080.68499999866], [135222.32699999958, 455077.76900000125], [135223.49399999902, 455076.4840000011], [135224.60500000045, 455075.26000000164], [135223.06700000167, 455073.4789999984], [135239.84099999815, 455058.3189999983], [135248.53500000015, 455050.69200000167], [135252.65300000086, 455045.3539999984], [135259.9750000015, 455033.15199999884], [135260.813000001, 455030.4699999988], [135261.45699999854, 455028.41000000015], [135262.4849999994, 455024.7969999984], [135263.0249999985, 455023.3900000006], [135281.86400000006, 454992.30900000036], [135283.37999999896, 454990.0320000015], [135285.68200000003, 454986.57499999925], [135324.59800000116, 454919.6570000015], [135385.97800000012, 454818.743999999], [135392.4539999999, 454814.186999999], [135398.03700000048, 454810.2589999996], [135400.88800000027, 454801.7659999989], [135404.69099999964, 454790.44000000134], [135405.7589999996, 454787.26000000164], [135407.28400000185, 454782.71599999815], [135413.48099999875, 454771.73900000006], [135444.05999999866, 454717.5720000006], [135447.11199999973, 454712.16600000113], [135464.26099999994, 454681.7890000008], [135468.99599999934, 454673.89400000125], [135473.71599999815, 454669.7329999991], [135477.78200000152, 454666.4789999984], [135486.72899999842, 454664.4450000003], [135493.66299999878, 454664.83100000024], [135500.8599999994, 454666.78400000185], [135503.22399999946, 454667.9670000002], [135508.1790000014, 454670.4450000003], [135515.9050000012, 454678.1739999987], [135578.10700000077, 454771.73900000006], [135605.85599999875, 454813.48000000045], [135613.90300000086, 454825.58399999887], [135619.46200000122, 454833.9459999986], [135624.07200000063, 454840.881000001], [135629.79899999872, 454855.1070000008], [135632.06599999964, 454858.2509999983], [135633.8049999997, 454860.8370000012], [135635.6959999986, 454863.3960000016], [135639.37700000033, 454868.41099999845], [135619.64600000158, 454884.98000000045], [135539.28799999878, 454951.4450000003], [135530.6649999991, 454958.5769999996], [135525.62000000104, 454962.76099999994], [135353.47300000116, 455105.52699999884], [135348.9450000003, 455109.2820000015], [135344.48900000006, 455112.9770000018], [135330.81700000167, 455124.31500000134], [135308.6009999998, 455142.76399999857], [135278.80200000107, 455168.0379999988], [135240.65399999917, 455200.3929999992], [135205.50400000066, 455222.63899999857], [135200.6649999991, 455226.49599999934], [135197.59600000083, 455229.1009999998], [135196.82600000128, 455229.8189999983], [135192.0940000005, 455224.3590000011], [135190.1490000002, 455222.11499999836], [135188.46499999985, 455220.1730000004], [135185.9549999982, 455217.27600000054], [135183.28700000048, 455214.1330000013], [135179.34600000083, 455209.48999999836], [135176.07499999925, 455205.63699999824], [135137.27699999884, 455157.93499999866]]]}}, {"type": "Feature", "id": "60520", "properties": {"OBJECTID": "60520", "LOCATIEGROEP_ID": "nl.imow-pv26.gebiedengroep.003000000000000000000443", "SYMBOOL_CODE": "vsg012", "GROEP": "kantoorlocatie", "9e750651-8e97-4bc6-b09e-fc30b5f3e83c_id": "11145", "LOCATIE_ID": "nl.imow-pv26.gebied.003000000000000000000443e57700", "DOCUMENT_URL": "https://omgevingsbeleid.provincie-utrecht.nl/home?d=/akn/nl/act/pv26/2022/omgevingsverordening/nld@1089&o=", "NAAM": "Gebiedstransformatie of  herstructurering", "TYPE": "ruimtelijk gebruik", "LOCATIEGROEP_NAAM": "Gebiedstransformatie of  herstructurering", "LOCATIE_NAAM": null}, "geometry": {"type": "Polygon", "coordinates": [[[135719.78500000015, 452390.7349999994], [135711.94700000063, 452392.47300000116], [135706.42500000075, 452393.8590000011], [135700.51900000125, 452395.23099999875], [135690.94900000095, 452397.4539999999], [135669.68499999866, 452401.8929999992], [135647.42599999905, 452412.27600000054], [135636.96599999815, 452417.1559999995], [135613.98200000077, 452421.0859999992], [135601.8110000007, 452423.16800000146], [135478.2659999989, 452444.29399999976], [135452.92399999872, 452447.5150000006], [135429.49599999934, 452450.08100000024], [135394.32299999893, 452453.93400000036], [135353.0709999986, 452458.4530000016], [135346.54399999976, 452459.5179999992], [135332.79199999943, 452461.7670000009], [135327.37700000033, 452462.65199999884], [135312.58100000024, 452465.22300000116], [135299.28799999878, 452467.08100000024], [135295.80900000036, 452467.6220000014], [135289.78200000152, 452468.55700000003], [135281.99700000137, 452469.76399999857], [135278.10399999842, 452470.3680000007], [135273.73800000176, 452471.0460000001], [135268.99500000104, 452471.7820000015], [135259.47100000083, 452473.26000000164], [135270.13199999928, 452453.70800000057], [135279.97399999946, 452439.4210000001], [135285.16000000015, 452433.17599999905], [135288.19099999964, 452430.95600000024], [135294.26199999824, 452426.5089999996], [135295.60500000045, 452426.0769999996], [135296.8740000017, 452421.91800000146], [135298.4459999986, 452416.65300000086], [135304.45199999958, 452405.60599999875], [135306.67500000075, 452401.2509999983], [135317.45699999854, 452380.12999999896], [135322.43299999833, 452370.3830000013], [135345.15399999917, 452325.87099999934], [135367.7650000006, 452280.64499999955], [135374.53299999982, 452267.1079999991], [135376.7809999995, 452262.5210000016], [135378.61100000143, 452258.78500000015], [135397.1160000004, 452220.25400000066], [135401.6959999986, 452211.0249999985], [135403.5080000013, 452207.3720000014], [135413.68100000173, 452184.8040000014], [135427.5709999986, 452153.9910000004], [135439.80600000173, 452126.84800000116], [135447.4299999997, 452109.93299999833], [135454.67599999905, 452093.0450000018], [135463.5450000018, 452072.375], [135481.3669999987, 452030.84099999815], [135511.83700000122, 451959.08399999887], [135514.87099999934, 451952.2809999995], [135522.48299999908, 451948.0020000003], [135527.8909999989, 451943.26999999955], [135530.8660000004, 451940.16000000015], [135585.08399999887, 451816.4459999986], [135585.35399999842, 451813.7419999987], [135582.2250000015, 451800.0769999996], [135604.938000001, 451748.2259999998], [135614.53700000048, 451726.0789999999], [135616.99599999934, 451722.1739999987], [135618.87999999896, 451720.2890000008], [135620.84600000083, 451718.9780000001], [135623.3040000014, 451718.4050000012], [135626.92399999872, 451712.89400000125], [135630.67799999937, 451707.1799999997], [135630.24399999902, 451706.25499999896], [135628.82200000063, 451698.63699999824], [135629.01799999923, 451694.99500000104], [135629.85799999908, 451689.0009999983], [135631.13899999857, 451684.60500000045], [135634.35399999842, 451671.5469999984], [135635.61400000006, 451667.64400000125], [135636.37200000137, 451665.29199999943], [135636.72700000182, 451664.1939999983], [135637.29100000113, 451662.4459999986], [135637.90900000185, 451660.5309999995], [135639.2419999987, 451656.4059999995], [135640.55999999866, 451652.3289999999], [135642.98200000077, 451644.8379999995], [135644.24300000072, 451640.93499999866], [135648.49500000104, 451637.5879999995], [135650.3900000006, 451632.44099999964], [135666.73699999973, 451586.1620000005], [135674.78400000185, 451568.55700000003], [135675.313000001, 451567.3990000002], [135680.31599999964, 451559.71599999815], [135682.37799999863, 451557.5560000017], [135684.06799999997, 451555.78500000015], [135691.57200000063, 451550.24500000104], [135693.71799999848, 451549.06799999997], [135697.1099999994, 451547.20800000057], [135700.83700000122, 451546.7419999987], [135702.8280000016, 451546.4930000007], [135708.5450000018, 451546.31500000134], [135716.4059999995, 451547.02899999917], [135725.33999999985, 451549.5309999995], [135741.59800000116, 451556.1420000009], [135746.4219999984, 451559.1799999997], [135752.49700000137, 451565.25499999896], [135758.57200000063, 451575.44000000134], [135789.1559999995, 451657.79399999976], [135799.51900000125, 451686.6979999989], [135820.29899999872, 451744.65900000185], [135838.59699999914, 451793.54199999943], [135854.24500000104, 451839.0069999993], [135857.81799999997, 451850.9789999984], [135860.67700000107, 451862.23600000143], [135862.17799999937, 451875.15399999917], [135863.063000001, 451882.7659999989], [135864.3500000015, 451893.375], [135864.85599999875, 451895.9129999988], [135865.3590000011, 451898.44099999964], [135868.53799999878, 451907.73000000045], [135872.81700000167, 451921.6429999992], [135873.6950000003, 451924.2580000013], [135874.23299999908, 451926.12000000104], [135878.36899999902, 451934.4140000008], [135891.83900000155, 451961.4230000004], [135900.92500000075, 451978.6860000007], [135905.1649999991, 451988.875], [135909.23200000077, 452000.23099999875], [135910.28599999845, 452003.17599999905], [135911.938000001, 452007.78500000015], [135919.85200000182, 452029.87999999896], [135942.84299999848, 452094.0709999986], [135966.9750000015, 452161.4459999986], [135977.78400000185, 452192.07499999925], [135977.64600000158, 452200.8440000005], [135976.3289999999, 452208.9200000018], [135976.0850000009, 452213.47300000116], [135976.2250000015, 452214.7950000018], [135976.88599999994, 452216.03599999845], [135977.8669999987, 452217.1579999998], [135979.10500000045, 452218.0560000017], [135977.7800000012, 452220.4360000007], [135975.05799999833, 452224.18200000003], [135977.26799999923, 452230.4219999984], [135978.73699999973, 452234.5700000003], [135981.02100000158, 452234.21599999815], [135983.38800000027, 452234.43400000036], [135985.61899999902, 452234.91099999845], [135987.875, 452236.0379999988], [135989.77899999917, 452237.1810000017], [135991.81899999827, 452238.78500000015], [135993.26099999994, 452240.743999999], [135996.08199999854, 452248.7969999984], [136003.22300000116, 452264.0179999992], [136006.6409999989, 452271.86199999973], [136010.87999999896, 452278.88599999994], [136016.02600000054, 452286.58999999985], [136020.44799999893, 452293.6620000005], [136023.11300000176, 452299.11300000176], [136024.58700000122, 452304.3280000016], [136010.78299999982, 452308.8900000006], [136005.55700000003, 452310.7470000014], [135920.55099999905, 452340.9530000016], [135817.5850000009, 452370.1979999989], [135783.25699999928, 452377.01900000125], [135753.37099999934, 452383.4079999998], [135746.49700000137, 452384.8779999986], [135728.89499999955, 452388.6400000006], [135719.78500000015, 452390.7349999994]]]}}, {"type": "Feature", "id": "60514", "properties": {"OBJECTID": "60514", "LOCATIEGROEP_ID": "nl.imow-pv26.gebiedengroep.003000000000000000000443", "SYMBOOL_CODE": "vsg012", "GROEP": "kantoorlocatie", "9e750651-8e97-4bc6-b09e-fc30b5f3e83c_id": "11149", "LOCATIE_ID": "nl.imow-pv26.gebied.003000000000000000000443e57706", "DOCUMENT_URL": "https://omgevingsbeleid.provincie-utrecht.nl/home?d=/akn/nl/act/pv26/2022/omgevingsverordening/nld@1089&o=", "NAAM": "Gebiedstransformatie of  herstructurering", "TYPE": "ruimtelijk gebruik", "LOCATIEGROEP_NAAM": "Gebiedstransformatie of  herstructurering", "LOCATIE_NAAM": null}, "geometry": {"type": "Polygon", "coordinates": [[[157046.6959999986, 464821.6550000012], [157079.95600000024, 464812.8379999995], [157100.87200000137, 464883.66000000015], [157100.5610000007, 464883.7410000004], [157072.2410000004, 464891.13699999824], [157069.44200000167, 464891.9239999987], [157063.65100000054, 464893.5540000014], [157057.2659999989, 464895.34800000116], [157035.71400000155, 464901.4079999998], [157028.94999999925, 464903.30999999866], [157026.52600000054, 464904.2749999985], [157019.39699999988, 464907.11499999836], [157017.76099999994, 464908.3599999994], [157012.14400000125, 464912.6330000013], [157003.9050000012, 464921.2109999992], [156992.8040000014, 464936.31700000167], [156979.1640000008, 464947.80999999866], [156971.188000001, 464950.9279999994], [156942.98600000143, 464959.01999999955], [156904.19099999964, 464969.3660000004], [156865.48600000143, 464999.686999999], [156858.18299999833, 465005.61400000006], [156847.91699999943, 465014.50400000066], [156832.1959999986, 465031.0929999985], [156810.64600000158, 465060.0760000013], [156805.49700000137, 465067.23699999973], [156773.188000001, 465112.1710000001], [156769.54300000146, 465117.60599999875], [156742.48000000045, 465157.95899999887], [156739.62299999967, 465162.2190000005], [156737.3289999999, 465166.0560000017], [156735.76199999824, 465168.6779999994], [156733.80700000003, 465171.94999999925], [156729.12299999967, 465179.78599999845], [156721.62799999863, 465194.4620000012], [156685.48000000045, 465256.0069999993], [156678.39699999988, 465268.06599999964], [156677.02699999884, 465269.3520000018], [156660.68400000036, 465317.25], [156659.56500000134, 465320.31799999997], [156658.24500000104, 465323.936999999], [156654.09299999848, 465332.5859999992], [156647.10399999842, 465349.81700000167], [156644.3359999992, 465356.11400000006], [156637.2809999995, 465378.27800000086], [156637.10700000077, 465378.81700000167], [156630.0780000016, 465400.5859999992], [156624.6490000002, 465431.90199999884], [156622.11300000176, 465449.01900000125], [156619.57699999958, 465469.6240000017], [156617.67599999905, 465491.1790000014], [156617.5780000016, 465505.5469999984], [156617.19900000095, 465560.7569999993], [156617.29199999943, 465591.97399999946], [156592.74399999902, 465606.67599999905], [156546.80900000036, 465562.0489999987], [156382.05799999833, 465401.98999999836], [156293.9919999987, 465319.2289999984], [156288.22300000116, 465313.80799999833], [156268.4219999984, 465292.5879999995], [156257.98699999973, 465282.41699999943], [156255.25600000098, 465279.75499999896], [156062.54800000042, 465087.9849999994], [156059.35700000077, 465084.6420000009], [156056.25200000033, 465077.6160000004], [156030.77899999917, 465049.9059999995], [156021.30099999905, 465039.59600000083], [156019.44299999997, 465040.6339999996], [156017.71499999985, 465037.5390000008], [156016.33900000155, 465035.0780000016], [156016.87700000033, 465034.77699999884], [156005.10799999908, 465021.9549999982], [155963.48200000077, 464973.1790000014], [155951.83999999985, 464959.5370000005], [155911.97100000083, 464912.6420000009], [155860.17399999872, 464852.6739999987], [155833.05000000075, 464821.3020000011], [155796.28500000015, 464777.0210000016], [155774.15900000185, 464749.2509999983], [155767.31599999964, 464741.6020000018], [155797.3759999983, 464721.1259999983], [155805.6710000001, 464727.1579999998], [155849.83799999952, 464757.4539999999], [155917.76399999857, 464798.2729999982], [155953.32200000063, 464816.76999999955], [155984.4149999991, 464832.8740000017], [156066.37299999967, 464867.4750000015], [156073.71700000018, 464871.2349999994], [156154.96599999815, 464897.1099999994], [156167.91800000146, 464900.7170000002], [156171.1889999993, 464899.4290000014], [156175.85700000077, 464900.4970000014], [156176.5549999997, 464900.6970000006], [156180.9360000007, 464901.9519999996], [156193.58100000024, 464922.8449999988], [156206.64499999955, 464944.4279999994], [156239.7410000004, 465000.41000000015], [156242.07299999893, 465004.3539999984], [156243.79800000042, 465007.2729999982], [156245.41000000015, 465006.46599999815], [156259.76199999824, 464999.77800000086], [156288.76199999824, 464988.5529999994], [156315.51900000125, 464979.78500000015], [156335.58300000057, 464976.41099999845], [156360.04300000146, 464974.0529999994], [156365.51099999994, 464974.04300000146], [156366.1499999985, 464974.04199999943], [156368.0249999985, 464974.0390000008], [156387.96799999848, 464974.00499999896], [156390.88599999994, 464974.18400000036], [156392.82600000128, 464974.3029999994], [156410.28799999878, 464975.3729999997], [156416.9200000018, 464977.23900000006], [156420.20800000057, 464979.00499999896], [156427.94099999964, 464987.71400000155], [156432.48999999836, 464981.0780000016], [156435.82600000128, 464974.1169999987], [156437.92700000107, 464967.33399999887], [156459.8440000005, 464971.19099999964], [156462.5850000009, 464966.6220000014], [156504.30099999905, 464989.881000001], [156505.55000000075, 464987.44900000095], [156535.9539999999, 465003.02600000054], [156570.7030000016, 464941.84899999946], [156614.28400000185, 464933.40300000086], [156664.563000001, 464920.9979999997], [156743.0859999992, 464900.6160000004], [156835.7509999983, 464876.5639999993], [156932.66899999976, 464851.4079999998], [156934.1790000014, 464851.0159999989], [156970.9910000004, 464841.4609999992], [157046.6959999986, 464821.6550000012]]]}}, {"type": "Feature", "id": "60515", "properties": {"OBJECTID": "60515", "LOCATIEGROEP_ID": "nl.imow-pv26.gebiedengroep.003000000000000000000443", "SYMBOOL_CODE": "vsg012", "GROEP": "kantoorlocatie", "9e750651-8e97-4bc6-b09e-fc30b5f3e83c_id": "11150", "LOCATIE_ID": "nl.imow-pv26.gebied.003000000000000000000443e57702", "DOCUMENT_URL": "https://omgevingsbeleid.provincie-utrecht.nl/home?d=/akn/nl/act/pv26/2022/omgevingsverordening/nld@1089&o=", "NAAM": "Gebiedstransformatie of  herstructurering", "TYPE": "ruimtelijk gebruik", "LOCATIEGROEP_NAAM": "Gebiedstransformatie of  herstructurering", "LOCATIE_NAAM": null}, "geometry": {"type": "Polygon", "coordinates": [[[135201.97899999842, 452572.90199999884], [135207.23699999973, 452563.08100000024], [135208.78599999845, 452560.1640000008], [135209.32699999958, 452558.98600000143], [135218.06899999827, 452558.8379999995], [135223.9530000016, 452558.4770000018], [135229.89200000092, 452558.02600000054], [135229.73900000006, 452558.68499999866], [135230.48099999875, 452561.70600000024], [135234.19200000167, 452564.2729999982], [135237.54199999943, 452566.87099999934], [135241.78200000152, 452568.688000001], [135243.59099999815, 452569.17500000075], [135248.0799999982, 452570.3839999996], [135251.76999999955, 452572.90199999884], [135252.20199999958, 452573.1970000006], [135256.17399999872, 452575.9070000015], [135257.58199999854, 452576.8680000007], [135260.1790000014, 452578.6400000006], [135268.08799999952, 452577.3999999985], [135296.78599999845, 452572.90199999884], [135313.0309999995, 452570.35500000045], [135336.26000000164, 452566.7129999995], [135340.27600000054, 452566.31799999997], [135346.0780000016, 452568.73000000045], [135350.13899999857, 452570.48999999836], [135351.78599999845, 452567.4849999994], [135354.4290000014, 452564.90900000185], [135359.08900000155, 452562.5249999985], [135371.1009999998, 452560.7410000004], [135417.4200000018, 452553.86300000176], [135427.436999999, 452553.2740000002], [135521.7800000012, 452548.65300000086], [135533.24300000072, 452548.65300000086], [135538.63199999928, 452549.7030000016], [135542.91000000015, 452550.53599999845], [135572.42500000075, 452556.18299999833], [135652.26000000164, 452572.90199999884], [135724.9609999992, 452588.1259999983], [135729.6700000018, 452591.69000000134], [135732.39600000158, 452606.69099999964], [135733.16600000113, 452610.92599999905], [135734.54300000146, 452618.4990000017], [135736.53599999845, 452629.46599999815], [135737.40399999917, 452634.09800000116], [135738.02699999884, 452637.4219999984], [135741.04100000113, 452639.7710000016], [135742.67799999937, 452642.3929999992], [135744.73000000045, 452652.7580000013], [135745.62900000066, 452657.2989999987], [135747.46400000155, 452666.5639999993], [135752.71400000155, 452693.0850000009], [135755.50400000066, 452707.1739999987], [135757.14299999923, 452715.44999999925], [135757.89299999923, 452719.23999999836], [135770.561999999, 452784.85599999875], [135771.89200000092, 452791.73800000176], [135772.4050000012, 452794.3969999999], [135785.11100000143, 452862.5249999985], [135786.40199999884, 452869.4530000016], [135786.94799999893, 452872.3770000003], [135799.30600000173, 452939.0549999997], [135799.63100000098, 452942.79300000146], [135800.3139999993, 452950.6409999989], [135800.70899999887, 452955.1860000007], [135803.2899999991, 452994.94900000095], [135805.5450000018, 453020.5320000015], [135806.05299999937, 453038.5729999989], [135806.2740000002, 453046.41000000015], [135803.51300000027, 453052.1730000004], [135801.44999999925, 453056.4780000001], [135797.64400000125, 453057.26099999994], [135733.29100000113, 453070.5020000003], [135721.63199999928, 453072.90100000054], [135651.64499999955, 453087.3020000011], [135648.5390000008, 453087.8999999985], [135644.625, 453088.65300000086], [135611.46700000018, 453095.05099999905], [135604.97899999842, 453096.3029999994], [135560.02100000158, 453104.9770000018], [135557.11199999973, 453104.12099999934], [135540.6860000007, 453094.5370000005], [135537.13100000098, 453092.02699999884], [135533.19099999964, 453089.24500000104], [135525.2410000004, 453084.618999999], [135522.75499999896, 453083.1719999984], [135520.35300000012, 453081.7740000002], [135467.65900000185, 453051.1090000011], [135465.47199999914, 453049.8359999992], [135465.04100000113, 453049.5850000009], [135462.84800000116, 453048.30900000036], [135459.44700000063, 453046.3289999999], [135451.05900000036, 453041.4479999989], [135391.38699999824, 453006.72300000116], [135387.75400000066, 453004.6090000011], [135385.89400000125, 453003.52699999884], [135385.01700000092, 453003.0159999989], [135383.9840000011, 453002.4149999991], [135382.1240000017, 453001.33300000057], [135375.1959999986, 452997.30000000075], [135336.76700000092, 452976.1429999992], [135287.80900000036, 452949.19000000134], [135247.85399999842, 452927.19299999997], [135243.31599999964, 452924.688000001], [135238.9549999982, 452922.2809999995], [135166.73900000006, 452882.01099999994], [135156.06500000134, 452876.05799999833], [135131.15300000086, 452861.5520000011], [135098.2899999991, 452842.41600000113], [135096.79100000113, 452838.11199999973], [135096.6400000006, 452834.7899999991], [135097.12700000033, 452828.2410000004], [135099.01999999955, 452802.8260000013], [135100.72899999842, 452791.6559999995], [135105.08700000122, 452765.26399999857], [135106.67399999872, 452758.7470000014], [135109.9750000015, 452749.0069999993], [135110.65799999982, 452746.9910000004], [135113.0249999985, 452740.00400000066], [135116.40799999982, 452730.0240000002], [135119.8040000014, 452721.5709999986], [135121.7589999996, 452716.9530000016], [135126.2950000018, 452707.0799999982], [135149.26300000027, 452666.5639999993], [135195.4840000011, 452585.0329999998], [135198.29899999872, 452579.7749999985], [135201.97899999842, 452572.90199999884]]]}}], "properties": {"sourceId": "agrest-ov-gebiedstransformatie-of-herstructurering", "title": "Omgevingsverordening — Gebiedstransformatie of herstructurering", "serviceUrl": "https://agrest.geodata-utrecht.nl/rest/services/Omgevingsverordening/FeatureServer", "layerId": 0, "role": "conditional", "authoritative": true, "licenseNote": "Structured open data of provincie Utrecht on agrest.geodata-utrecht.nl; service is anonymously queryable; no license statement exposed by the endpoint itself (platform presented as open data).", "lastChecked": "2026-10-06T11:11:23Z", "where": "NAAM='Gebiedstransformatie of  herstructurering'", "fetchedAt": "2026-10-06T11:11:29Z", "userAgent": "ldttoolbox-geoconnector/0.1 (wind-turbine opportunity-map PoC; cache-first, single-page politeness; open data of provincie Utrecht via geo-point.provincie-utrecht.nl)", "pages": 1, "featureCount": 7, "bbox": null, "simplifyM": null, "queryFingerprint": "{\"bbox\": null, \"simplify_m\": null}"}}