{"type": "FeatureCollection", "name": "agrest-ov-unesco-werelderfgoed-neder-germaanse-limes-kernzone", "crs": {"type": "name", "properties": {"name": "EPSG:28992"}}, "features": [{"type": "Feature", "id": "55482", "properties": {"OBJECTID": "55482", "LOCATIEGROEP_ID": "nl.imow-pv26.gebiedengroep.003000000000000000000708", "SYMBOOL_CODE": "vsgt134", "GROEP": "werelderfgoed", "9e750651-8e97-4bc6-b09e-fc30b5f3e83c_id": "6158", "LOCATIE_ID": "nl.imow-pv26.gebied.003000000000000000000708e95718", "DOCUMENT_URL": "https://omgevingsbeleid.provincie-utrecht.nl/home?d=/akn/nl/act/pv26/2022/omgevingsverordening/nld@1089&o=", "NAAM": "UNESCO Werelderfgoed Neder-Germaanse Limes (kernzone)", "TYPE": "erfgoed", "LOCATIEGROEP_NAAM": "UNESCO Werelderfgoed Neder-Germaanse Limes (kernzone)", "LOCATIE_NAAM": null}, "geometry": {"type": "Polygon", "coordinates": [[[131450.0469999984, 455705.25400000066], [131449.19999999925, 455702.3999999985], [131438.51700000092, 455670.9459999986], [131434.5, 455660.3999999985], [131426.30000000075, 455640.8999999985], [131424.8669999987, 455637.1270000003], [131417.30000000075, 455617.19999999925], [131407.8999999985, 455590.5], [131401.80000000075, 455575.3999999985], [131389.0, 455542.19999999925], [131374.30000000075, 455508.69999999925], [131360.5859999992, 455478.9239999987], [131371.47700000182, 455476.4459999986], [131418.48800000176, 455466.1000000015], [131428.93299999833, 455463.5089999996], [131441.69799999893, 455460.625], [131450.12999999896, 455458.7190000005], [131445.8999999985, 455415.3999999985], [131471.5, 455412.6000000015], [131476.65199999884, 455459.5], [131478.3999999985, 455475.0], [131479.80600000173, 455473.40100000054], [131486.6169999987, 455469.5769999996], [131494.5799999982, 455465.3029999994], [131499.76199999824, 455462.561999999], [131503.7890000008, 455461.1970000006], [131511.14799999818, 455458.9690000005], [131516.39699999988, 455457.5150000006], [131524.2109999992, 455455.51000000164], [131532.0300000012, 455453.5850000009], [131536.16800000146, 455452.5729999989], [131543.32499999925, 455451.15300000086], [131547.85399999842, 455450.45899999887], [131557.09299999848, 455450.1240000017], [131561.75600000098, 455465.0709999986], [131554.57200000063, 455465.686999999], [131552.02299999818, 455465.1319999993], [131554.69999999925, 455505.1000000015], [131537.6000000015, 455507.30000000075], [131536.19999999925, 455497.5], [131507.0309999995, 455502.6970000006], [131481.23600000143, 455507.29300000146], [131479.19999999925, 455486.80000000075], [131463.69999999925, 455491.80000000075], [131456.1710000001, 455493.61499999836], [131449.19999999925, 455494.8999999985], [131431.8999999985, 455498.69999999925], [131422.5, 455500.6000000015], [131427.69000000134, 455525.13599999994], [131429.37200000137, 455533.0870000012], [131432.8999999985, 455548.30000000075], [131427.3999999985, 455549.8999999985], [131422.1000000015, 455551.3999999985], [131405.80000000075, 455555.69999999925], [131412.8999999985, 455575.19999999925], [131420.0, 455594.80000000075], [131425.80000000075, 455609.3999999985], [131427.3999999985, 455613.19999999925], [131440.6000000015, 455648.6000000015], [131495.8999999985, 455645.6000000015], [131498.38699999824, 455670.0309999995], [131447.96799999848, 455670.0940000005], [131448.26799999923, 455670.7349999994], [131449.5450000018, 455674.29300000146], [131451.0859999992, 455679.1570000015], [131453.30000000075, 455685.55900000036], [131460.16099999845, 455708.18200000003], [131458.55299999937, 455707.7170000002], [131455.70199999958, 455706.8909999989], [131450.0469999984, 455705.25400000066]]]}}], "properties": {"sourceId": "agrest-ov-unesco-werelderfgoed-neder-germaanse-limes-kernzone", "title": "Omgevingsverordening — UNESCO Werelderfgoed Neder-Germaanse Limes (kernzone)", "serviceUrl": "https://agrest.geodata-utrecht.nl/rest/services/Omgevingsverordening/FeatureServer", "layerId": 0, "role": "exclusion", "authoritative": true, "licenseNote": "Structured open data of provincie Utrecht on agrest.geodata-utrecht.nl; service is anonymously queryable; no license statement exposed by the endpoint itself (platform presented as open data).", "lastChecked": "2026-10-05T07:01:26Z", "where": "NAAM='UNESCO Werelderfgoed Neder-Germaanse Limes (kernzone)'", "fetchedAt": "2026-10-05T07:01:27Z", "userAgent": "ldttoolbox-geoconnector/0.1 (wind-turbine opportunity-map PoC; cache-first, single-page politeness; open data of provincie Utrecht via geo-point.provincie-utrecht.nl)", "pages": 1, "featureCount": 1, "bbox": null, "simplifyM": null, "queryFingerprint": "{\"bbox\": null, \"simplify_m\": null}"}}