{"type": "FeatureCollection", "name": "agrest-ov-landbouwontwikkelingsgebied", "crs": {"type": "name", "properties": {"name": "EPSG:28992"}}, "features": [{"type": "Feature", "id": "59685", "properties": {"OBJECTID": "59685", "LOCATIEGROEP_ID": "nl.imow-pv26.gebiedengroep.003000000000000000000474", "SYMBOOL_CODE": "vsg040", "GROEP": "landbouw", "9e750651-8e97-4bc6-b09e-fc30b5f3e83c_id": "10360", "LOCATIE_ID": "nl.imow-pv26.gebied.003000000000000000000474e60740", "DOCUMENT_URL": "https://omgevingsbeleid.provincie-utrecht.nl/home?d=/akn/nl/act/pv26/2022/omgevingsverordening/nld@1089&o=", "NAAM": "Landbouwontwikkelingsgebied", "TYPE": "ruimtelijk gebruik", "LOCATIEGROEP_NAAM": "Landbouwontwikkelingsgebied", "LOCATIE_NAAM": null}, "geometry": {"type": "Polygon", "coordinates": [[[161036.18499999866, 453484.0320000015], [161037.20699999854, 453485.63699999824], [161009.0300000012, 453490.31700000167], [160982.92399999872, 453493.7019999996], [160947.01799999923, 453503.1700000018], [160945.71400000155, 453503.6099999994], [160945.04300000146, 453503.69999999925], [160922.46299999952, 453509.8520000018], [160912.4759999998, 453512.5720000006], [160909.19900000095, 453513.3189999983], [160894.95100000128, 453517.8590000011], [160886.14200000092, 453520.66600000113], [160873.9149999991, 453524.561999999], [160871.93299999833, 453524.94299999997], [160866.23099999875, 453527.2250000015], [160861.48699999973, 453530.3520000018], [160858.0789999999, 453531.0300000012], [160851.35500000045, 453534.70699999854], [160847.53700000048, 453535.60599999875], [160842.20899999887, 453538.26199999824], [160833.85500000045, 453544.27600000054], [160810.9290000014, 453556.811999999], [160789.19700000063, 453571.9389999993], [160779.08799999952, 453570.2340000011], [160737.5, 453566.75], [160733.44900000095, 453567.5560000017], [160730.9690000005, 453567.063000001], [160727.61300000176, 453567.39499999955], [160725.55200000107, 453567.03599999845], [160719.02100000158, 453567.34800000116], [160711.83399999887, 453568.95699999854], [160681.94000000134, 453571.91699999943], [160675.06500000134, 453573.29199999943], [160628.42300000042, 453587.4679999985], [160627.80099999905, 453587.8830000013], [160627.0789999999, 453588.02899999917], [160620.54800000042, 453590.77899999917], [160619.56899999827, 453591.436999999], [160581.75, 453611.2950000018], [160575.9059999995, 453615.0760000013], [160554.08100000024, 453632.7199999988], [160546.0639999993, 453637.7289999984], [160540.23600000143, 453642.88599999994], [160538.50600000098, 453645.30999999866], [160537.99399999902, 453645.7250000015], [160482.13800000027, 453641.47199999914], [160473.62200000137, 453642.83199999854], [160463.1559999995, 453640.75], [160367.48600000143, 453659.7800000012], [160286.37999999896, 453713.97300000116], [160232.1860000007, 453795.0789999999], [160223.48299999908, 453838.8359999992], [160222.87200000137, 453840.9230000004], [160222.02199999988, 453842.1860000007], [160215.75600000098, 453857.0300000012], [160215.58799999952, 453857.86100000143], [160215.10799999908, 453858.5789999999], [160206.56899999827, 453882.5879999995], [160203.0540000014, 453894.33900000155], [160192.561999999, 453966.0], [160192.561999999, 453981.25], [160196.1490000002, 454023.4439999983], [160198.49300000072, 454037.1319999993], [160201.25200000033, 454046.688000001], [160202.3139999993, 454055.3440000005], [160204.26700000092, 454063.188000001], [160215.88899999857, 454098.4519999996], [160232.58700000122, 454131.5729999989], [160236.11800000072, 454137.4479999989], [160273.14200000092, 454184.8289999999], [160273.4059999995, 454185.2250000015], [160280.0469999984, 454191.881000001], [160280.1710000001, 454191.96400000155], [160280.25400000066, 454192.08900000155], [160286.3830000013, 454197.3289999999], [160281.0460000001, 454230.09600000083], [160280.07600000128, 454242.0789999999], [160279.55299999937, 454244.4270000011], [160276.39400000125, 454312.80900000036], [160274.4690000005, 454342.95699999854], [160270.97100000083, 454352.0850000009], [160263.40799999982, 454360.0300000012], [160262.19099999964, 454361.30900000036], [160253.95600000024, 454365.2829999998], [160213.37900000066, 454372.88599999994], [160212.53500000015, 454373.13699999824], [160211.62099999934, 454373.2280000001], [160136.92300000042, 454388.3359999992], [160130.53400000185, 454390.28500000015], [160126.87299999967, 454390.8060000017], [160071.73800000176, 454406.8020000011], [160058.73299999908, 454411.3660000004], [160056.7960000001, 454412.66000000015], [160054.72100000083, 454413.1099999994], [160004.03299999982, 454436.21599999815], [160001.55900000036, 454437.93200000003], [159986.57499999925, 454445.9279999994], [159935.88699999824, 454479.6979999989], [159933.04100000113, 454482.0300000012], [159930.63699999824, 454483.39400000125], [159861.2740000002, 454534.9360000007], [159847.44099999964, 454546.87999999896], [159845.03599999845, 454550.48000000045], [159842.0700000003, 454552.59899999946], [159829.73099999875, 454566.5929999985], [159815.62200000137, 454557.1649999991], [159801.63699999824, 454552.5489999987], [159794.47199999914, 454521.11499999836], [159740.27899999917, 454440.01000000164], [159678.2650000006, 454398.5729999989], [159658.18499999866, 454367.87900000066], [159657.561999999, 454369.00400000066], [159655.73800000176, 454364.13800000027], [159651.1000000015, 454357.0489999987], [159652.28400000185, 454354.9270000011], [159634.1550000012, 454306.5850000009], [159609.76000000164, 454252.9149999991], [159594.3740000017, 454219.06700000167], [159593.6240000017, 454217.41600000113], [159579.33900000155, 454198.37000000104], [159548.55799999833, 454157.3280000016], [159544.98600000143, 454152.56599999964], [159516.68499999866, 454110.11499999836], [159514.73800000176, 454113.27600000054], [159400.686999999, 454044.44900000095], [159340.8139999993, 454023.16099999845], [159280.94200000167, 454001.8720000014], [159171.5450000018, 454007.27699999884], [159073.38800000027, 454047.51900000125], [159073.38199999928, 454047.51900000125], [158742.29300000146, 454169.4990000017], [158736.8299999982, 454170.41000000015], [158642.3359999992, 454151.61400000006], [158578.8299999982, 454159.8139999993], [158422.76700000092, 454198.7870000005], [158070.49500000104, 453899.3280000016], [158016.96299999952, 453834.2289999984], [157954.4290000014, 453820.9239999987], [157763.84699999914, 453799.79100000113], [157714.5949999988, 453794.8920000009], [157657.0159999989, 453801.61300000176], [156384.65700000152, 454102.756000001], [156374.5080000013, 454085.9840000011], [156374.47899999842, 454085.94900000095], [156374.4690000005, 454085.93299999833], [156349.8110000007, 454033.1220000014], [156324.76099999994, 453964.5639999993], [156459.52699999884, 453664.15399999917], [156521.55600000173, 453369.51399999857], [156528.13100000098, 453365.1220000014], [156810.40100000054, 453311.7349999994], [156831.51000000164, 453303.4530000016], [156834.1169999987, 453301.7470000014], [156837.52800000086, 453301.1030000001], [156876.28799999878, 453285.9219999984], [156916.09600000083, 453270.93200000003], [156917.12200000137, 453270.26999999955], [156918.53200000152, 453270.01199999824], [157036.17300000042, 453225.48099999875], [157036.29199999943, 453225.40399999917], [157036.4549999982, 453225.3740000017], [157047.3449999988, 453221.2490000017], [157050.89799999818, 453218.9530000016], [157055.65900000185, 453218.0799999982], [157199.82299999893, 453163.3350000009], [157218.04300000146, 453160.36100000143], [157243.29300000146, 453151.8920000009], [157243.33999999985, 453151.86400000006], [157243.41600000113, 453151.8509999998], [157294.08799999952, 453134.8509999998], [157309.87099999934, 453125.0760000013], [157315.08799999952, 453124.0379999988], [157337.1790000014, 453109.27699999884], [157391.01000000164, 453098.5689999983], [157548.38500000164, 453015.8779999986], [157598.9530000016, 453025.9360000007], [157646.02699999884, 453022.7580000013], [157685.68400000036, 453023.4270000011], [157735.80600000173, 453020.5240000002], [157978.36800000072, 453016.48699999973], [158044.90399999917, 453010.6469999999], [158098.1240000017, 453011.9780000001], [158146.77800000086, 453020.0709999986], [158201.4219999984, 453020.96599999815], [158276.66899999976, 453014.6950000003], [158278.20699999854, 453060.0450000018], [158282.01700000092, 453197.96499999985], [158300.95199999958, 453286.7340000011], [158321.90199999884, 453326.6779999994], [158325.91800000146, 453332.8969999999], [158359.16099999845, 453374.05799999833], [158379.5390000008, 453392.3189999983], [158382.85200000182, 453394.9750000015], [158443.5789999999, 453430.9070000015], [158539.25, 453449.938000001], [158634.9210000001, 453430.9070000015], [158716.02699999884, 453376.71400000155], [158769.68299999833, 453296.89499999955], [158772.08900000155, 453291.1770000011], [158772.22899999842, 453290.4849999994], [158772.6259999983, 453289.88899999857], [158786.76999999955, 453243.40300000086], [158788.67700000107, 453233.90300000086], [158792.3590000011, 453196.8370000012], [158793.46700000018, 453191.64400000125], [158793.96799999848, 453173.5540000014], [158807.88899999857, 453165.73099999875], [158807.89600000158, 453165.7259999998], [158830.85700000077, 453152.82400000095], [158885.16699999943, 453111.65199999884], [158897.11800000072, 453093.7659999989], [158900.55799999833, 453091.12000000104], [158915.9290000014, 453072.37000000104], [158917.90199999884, 453070.87000000104], [158918.29899999872, 453070.39499999955], [158930.21400000155, 453062.43299999833], [158931.56700000167, 453060.4079999998], [158933.12000000104, 453059.37000000104], [158933.71799999848, 453058.4759999998], [158934.7800000012, 453057.74599999934], [158937.6860000007, 453054.68400000036], [158963.23299999908, 453015.3449999988], [159113.36300000176, 453008.56799999997], [159166.9919999987, 452996.63699999824], [159167.2659999989, 452996.938000001], [159192.0159999989, 453020.1559999995], [159195.8280000016, 453022.063000001], [159198.5, 453021.311999999], [159199.2659999989, 453017.125], [159196.2190000005, 453011.7809999995], [159177.60300000012, 452994.27600000054], [159619.74399999902, 452895.9129999988], [160043.21700000018, 452630.36100000143], [160045.49799999967, 452628.3289999999], [160068.37700000033, 452596.1460000016], [160106.37900000066, 452570.75400000066], [160106.9910000004, 452569.8379999995], [160108.66000000015, 452568.72300000116], [160167.60399999842, 452480.506000001], [160433.186999999, 452446.8509999998], [160431.87200000137, 452449.20699999854], [160442.82400000095, 452450.66699999943], [160443.2250000015, 452449.94900000095], [160458.36400000006, 452457.96400000155], [160479.73600000143, 452460.63500000164], [160494.85399999842, 452459.88699999824], [160525.84699999914, 452458.3520000018], [160543.86100000143, 452453.84899999946], [160582.51000000164, 452444.186999999], [160549.5940000005, 452502.0309999995], [160491.9840000011, 452604.8440000005], [160432.4219999984, 452710.313000001], [160355.5, 452847.2190000005], [160340.2030000016, 452874.0940000005], [160116.9059999995, 453270.375], [160131.2030000016, 453277.125], [160148.3909999989, 453285.25], [160149.07699999958, 453285.5009999983], [160184.125, 453298.313000001], [160205.9219999984, 453304.8440000005], [160208.9840000011, 453304.8440000005], [160214.0469999984, 453286.875], [160157.66099999845, 453270.1030000001], [160140.2969999984, 453264.936999999], [160134.3440000005, 453274.6559999995], [160128.6409999989, 453271.0940000005], [160138.0159999989, 453257.25], [160190.2340000011, 453170.1559999995], [160251.7030000016, 453059.875], [160361.2969999984, 452866.6559999995], [160446.9059999995, 452711.9690000005], [160561.4690000005, 452507.25], [160599.4919999987, 452439.94099999964], [160623.12200000137, 452434.03400000185], [160623.97199999914, 452433.6479999982], [160712.29100000113, 452393.5020000003], [160789.28700000048, 452321.68200000003], [160791.79800000042, 452317.1790000014], [160794.7410000004, 452316.5940000005], [160794.98000000045, 452316.37099999934], [160794.87099999934, 452316.56799999997], [160815.7589999996, 452312.4129999988], [160958.74500000104, 452238.03500000015], [161015.97199999914, 452209.936999999], [161029.50299999863, 452202.186999999], [161033.42599999905, 452199.186999999], [161046.9140000008, 452192.1710000001], [161075.64799999818, 452173.8900000006], [161161.66800000146, 452104.89499999955], [161399.43100000173, 452057.6009999998], [161459.98900000006, 452019.26000000164], [161457.69299999997, 452024.14499999955], [161456.6719999984, 452029.27899999917], [161454.4450000003, 452032.8969999999], [161441.84600000083, 452071.1739999987], [161413.03200000152, 452076.9050000012], [161331.92700000107, 452131.09800000116], [161277.73299999908, 452212.2039999999], [161277.1559999995, 452215.1039999984], [161275.6330000013, 452217.44200000167], [161269.46200000122, 452233.34600000083], [161269.4600000009, 452233.3539999984], [161269.45699999854, 452233.3590000011], [161241.37799999863, 452305.7340000011], [161241.3209999986, 452306.04199999943], [161241.2960000001, 452306.0789999999], [161240.74700000137, 452308.83999999985], [161239.29100000113, 452311.0689999983], [161235.33799999952, 452321.2250000015], [161235.01000000164, 452322.97399999946], [161234.17599999905, 452324.26900000125], [161209.14499999955, 452391.14400000125], [161208.9290000014, 452392.34099999815], [161205.1889999993, 452402.5450000018], [161201.1259999983, 452415.2320000008], [161200.92599999905, 452416.51199999824], [161199.28599999845, 452420.98999999836], [161187.2650000006, 452458.5540000014], [161182.36800000072, 452472.73099999875], [161181.7899999991, 452476.1779999994], [161180.4140000008, 452478.3779999986], [161169.8200000003, 452509.03400000185], [161169.40700000152, 452511.49500000104], [161168.4910000004, 452512.98699999973], [161158.00600000098, 452545.0489999987], [161149.53200000152, 452598.23000000045], [161143.8280000016, 452626.9059999995], [161162.85799999908, 452722.5769999996], [161184.2349999994, 452754.5700000003], [161185.8669999987, 452755.8520000018], [161224.05299999937, 452799.0929999985], [161224.88699999824, 452799.77699999884], [161226.31500000134, 452801.49599999934], [161243.52600000054, 452816.05900000036], [161258.33100000024, 452828.5870000012], [161297.54300000146, 452854.07499999925], [161300.12799999863, 452855.85599999875], [161300.54899999872, 452856.02800000086], [161307.5859999992, 452860.6020000018], [161331.42500000075, 452868.3579999991], [161400.8830000013, 452890.9539999999], [161400.9539999999, 452890.75], [161411.7809999995, 452894.0929999985], [161412.11300000176, 452894.1429999992], [161413.10500000045, 452894.4979999997], [161459.66800000146, 452908.59099999815], [161462.31599999964, 452908.9829999991], [161468.86899999902, 452911.1860000007], [161504.85300000012, 452920.5920000002], [161506.73299999908, 452920.83399999887], [161509.82299999893, 452921.8370000012], [161536.01799999923, 452928.11300000176], [161561.07699999958, 452934.80900000036], [161625.6090000011, 452943.2809999995], [161721.2800000012, 452924.2509999983], [161784.53599999845, 452881.9849999994], [161786.06899999827, 452881.62900000066], [161819.9290000014, 452876.9840000011], [161827.41699999943, 452874.8909999989], [161871.1499999985, 452885.3370000012], [161872.3759999983, 452885.4299999997], [161872.44000000134, 452885.4450000003], [161936.2899999991, 452890.44200000167], [161942.34699999914, 452890.83900000155], [161967.55299999937, 452893.38800000027], [161985.4849999994, 452894.29199999943], [161995.40300000086, 452895.09800000116], [162091.07400000095, 452876.06700000167], [162172.1799999997, 452821.8740000017], [162211.30999999866, 452749.6570000015], [162220.0850000009, 452709.29100000113], [162227.10599999875, 452682.96499999985], [162230.6160000004, 452658.39499999955], [162237.63599999994, 452619.78400000185], [162249.9210000001, 452542.563000001], [162262.72100000083, 452458.0320000015], [162264.3040000014, 452438.3660000004], [162265.1090000011, 452418.311999999], [162256.07400000095, 452372.88699999824], [162259.56899999827, 452327.5720000006], [162261.70199999958, 452279.6889999993], [162277.14799999818, 452213.5540000014], [162291.58700000122, 452165.51000000164], [162294.47199999914, 452155.6169999987], [162294.47199999914, 452154.9270000011], [162294.59200000018, 452154.5229999982], [162294.59200000018, 452141.5700000003], [162295.36199999973, 452119.16899999976], [162280.74500000104, 452104.5520000011], [162257.3590000011, 452101.62900000066], [162236.89499999955, 452087.01199999824], [162228.125, 452059.23999999836], [162231.07299999893, 452044.368999999], [162242.7419999987, 452030.0069999993], [162251.51199999824, 452003.6959999986], [162248.58900000155, 451981.7710000016], [162245.6649999991, 451949.61499999836], [162228.00499999896, 451918.6939999983], [162203.3040000014, 451902.57499999925], [162178.37299999967, 451885.6579999998], [162152.35399999842, 451868.311999999], [162137.81700000167, 451859.83999999985], [162136.2580000013, 451859.6570000015], [162134.2049999982, 451859.01000000164], [162107.7419999987, 451853.1319999993], [162078.69000000134, 451846.08199999854], [162075.42300000042, 451845.69200000167], [162071.21200000122, 451844.38800000027], [162042.19999999925, 451838.28400000185], [162037.24700000137, 451837.186999999], [162014.22700000182, 451829.39400000125], [162003.25600000098, 451825.48699999973], [162001.3040000014, 451825.1490000002], [162000.0540000014, 451824.37000000104], [161959.3500000015, 451810.49599999934], [161959.30799999833, 451810.48800000176], [161959.2809999995, 451810.47199999914], [161918.25499999896, 451796.5], [161900.4299999997, 451790.41600000113], [162073.25499999896, 451765.1950000003], [162073.26199999824, 451765.19299999997], [162081.11499999836, 451762.8520000018], [162213.37200000137, 451693.44900000095], [162600.9059999995, 451456.2049999982], [162693.68299999833, 451399.4070000015], [162858.66600000113, 451396.74599999934], [162896.50699999928, 451443.90199999884], [162945.1490000002, 451504.5170000009], [163087.35599999875, 451728.62900000066], [163164.23000000045, 451787.3830000013], [163164.94999999925, 451789.813000001], [163217.1330000013, 451826.063000001], [163262.0700000003, 451856.01999999955], [163265.77100000158, 451858.48800000176], [163322.51399999857, 451899.01900000125], [163328.7740000002, 451903.3599999994], [163334.5, 451922.75], [163351.2809999995, 451920.811999999], [163350.6009999998, 451918.4979999997], [163410.17599999905, 451959.81599999964], [163424.30700000003, 451969.9279999994], [163506.15100000054, 452028.49500000104], [163518.57400000095, 452038.05999999866], [163516.95800000057, 452031.5729999989], [163531.7030000016, 452033.4750000015], [163579.39699999988, 452056.8819999993], [163827.9750000015, 452128.01399999857], [164153.4219999984, 452171.063000001], [164281.8990000002, 452158.07499999925], [164381.1009999998, 452149.0560000017], [164496.70600000024, 452349.9629999995], [164421.2030000016, 452397.4059999995], [164344.3280000016, 452445.5940000005], [164259.7340000011, 452498.875], [164224.3280000016, 452450.186999999], [164161.25, 452364.5940000005], [164141.4530000016, 452337.2190000005], [164133.5780000016, 452344.313000001], [164133.2190000005, 452346.5309999995], [164134.313000001, 452348.75], [164147.938000001, 452367.75], [164204.2659999989, 452446.4059999995], [164255.9219999984, 452518.5309999995], [164312.4840000011, 452482.2809999995], [164354.2190000005, 452456.1559999995], [164503.7349999994, 452362.1790000014], [164518.0159999989, 452386.9970000014], [164672.69399999827, 452605.98600000143], [164684.44200000167, 452616.8669999987], [164669.063000001, 452624.313000001], [164656.3909999989, 452631.5940000005], [164701.99300000072, 452633.1220000014], [164814.6240000017, 452737.4389999993], [164849.11300000176, 452766.8740000017], [164980.10599999875, 452855.0460000001], [164942.63800000027, 453127.7280000001], [164912.80799999833, 453272.7879999988], [164672.03400000185, 453306.561999999], [164634.59600000083, 453326.15399999917], [164626.07499999925, 453307.1779999994], [164623.17500000075, 453302.97199999914], [164611.49700000137, 453282.65900000185], [164597.08700000122, 453263.7320000008], [164586.02100000158, 453251.06599999964], [164583.37000000104, 453249.2950000018], [164581.75499999896, 453246.99599999934], [164554.16899999976, 453221.8979999982], [164549.95699999854, 453219.2250000015], [164536.2650000006, 453208.3359999992], [164503.32699999958, 453187.76300000027], [164500.6710000001, 453186.3960000016], [164498.56700000167, 453185.311999999], [164484.94399999827, 453178.2980000004], [164484.5450000018, 453178.2190000005], [164484.2109999992, 453177.9970000014], [164437.6860000007, 453159.0709999986], [164436.1700000018, 453158.7740000002], [164434.98900000006, 453158.01000000164], [164385.09800000116, 453139.05000000075], [164327.62900000066, 453116.46499999985], [164323.2650000006, 453115.63800000027], [164296.22800000012, 453108.6259999983], [164283.20699999854, 453107.125], [164262.26700000092, 453104.7100000009], [164247.94900000095, 453103.88800000027], [164221.10799999908, 453106.8029999994], [164188.4539999999, 453113.9820000008], [164187.76000000164, 453114.2010000013], [164187.2049999982, 453114.26399999857], [164144.75499999896, 453124.0529999994], [164125.0089999996, 453130.3720000014], [164123.33100000024, 453131.4919999987], [164121.51000000164, 453131.8830000013], [164075.1409999989, 453152.7679999992], [164073.52100000158, 453153.88699999824], [164060.4140000008, 453160.6240000017], [164020.57499999925, 453185.4239999987], [163998.2490000017, 453203.15300000086], [163995.58799999952, 453207.1339999996], [163992.3759999983, 453209.4439999983], [163975.8999999985, 453228.36100000143], [163961.68100000173, 453244.686999999], [163960.15399999917, 453247.15199999884], [163954.04899999872, 453254.3770000003], [163924.62799999863, 453295.77800000086], [163923.41699999943, 453297.2479999997], [163902.77100000158, 453322.30999999866], [163898.7250000015, 453327.22300000116], [163893.39499999955, 453331.8759999983], [163871.36199999973, 453387.2259999998], [163845.67500000075, 453421.0219999999], [163839.0, 453418.811999999], [163833.061999999, 453418.438000001], [163827.1090000011, 453420.686999999], [163809.2659999989, 453431.0940000005], [163792.9690000005, 453405.9059999995], [163781.21299999952, 453386.66699999943], [163769.75, 453367.9059999995], [163769.73900000006, 453367.88599999994], [163762.0, 453353.4690000005], [163762.0, 453348.3189999983], [163762.0, 453346.7809999995], [163761.061999999, 453345.561999999], [163760.6559999995, 453345.0309999995], [163756.375, 453339.4059999995], [163751.7969999984, 453327.0940000005], [163743.7030000016, 453303.1559999995], [163740.5309999995, 453286.9690000005], [163739.125, 453274.313000001], [163738.7809999995, 453256.3440000005], [163737.375, 453237.3440000005], [163734.9059999995, 453218.0], [163733.1559999995, 453207.813000001], [163729.2809999995, 453192.6559999995], [163720.8280000016, 453165.561999999], [163717.813000001, 453156.938000001], [163716.2509999983, 453158.31799999997], [163709.2190000005, 453164.5309999995], [163702.2659999989, 453167.625], [163699.0159999989, 453169.0940000005], [163691.0940000005, 453172.0], [163704.6409999989, 453244.75], [163715.561999999, 453309.125], [163719.7809999995, 453330.25], [163724.3590000011, 453344.311999999], [163732.7969999984, 453360.5], [163734.5469999984, 453363.6559999995], [163750.62999999896, 453392.5700000003], [163758.8280000016, 453407.311999999], [163775.0469999984, 453434.063000001], [163772.4059999995, 453439.9059999995], [163759.1559999995, 453469.2120000012], [163759.1490000002, 453469.21599999815], [163754.9200000018, 453471.2659999989], [163697.1259999983, 453488.1810000017], [163693.19700000063, 453489.33100000024], [163692.36199999973, 453487.7109999992], [163690.28599999845, 453483.68200000003], [163689.80999999866, 453483.79100000113], [163691.813000001, 453487.6570000015], [163692.4849999994, 453488.9549999982], [163684.27699999884, 453492.68299999833], [163639.05200000107, 453505.11199999973], [163580.52299999818, 453516.5560000017], [163571.87200000137, 453517.5159999989], [163516.27800000086, 453523.6889999993], [163455.8209999986, 453526.4670000002], [163454.95100000128, 453526.66099999845], [163449.26399999857, 453526.94099999964], [163381.80299999937, 453533.6079999991], [163362.63500000164, 453538.4129999988], [163352.33799999952, 453540.18400000036], [163315.25400000066, 453553.3289999999], [163311.1550000012, 453555.91600000113], [163306.06899999827, 453556.9990000017], [163254.82699999958, 453579.868999999], [163210.1860000007, 453599.18499999866], [163173.3040000014, 453612.4840000011], [163153.54399999976, 453616.5870000012], [163127.5549999997, 453617.51399999857], [163105.5399999991, 453616.2740000002], [163088.9849999994, 453611.76199999824], [163070.8740000017, 453606.06500000134], [163039.60200000182, 453596.2270000018], [163035.2740000002, 453595.561999999], [163026.07499999925, 453592.7879999988], [162982.04199999943, 453584.1779999994], [162978.6090000011, 453583.84600000083], [162976.18299999833, 453583.1770000011], [162940.28700000048, 453577.91600000113], [162932.5159999989, 453577.34899999946], [162930.4690000005, 453576.87099999934], [162880.21299999952, 453573.5229999982], [162879.49399999902, 453573.6409999989], [162878.5249999985, 453573.4219999984], [162863.98800000176, 453566.7980000004], [162837.37799999863, 453537.52699999884], [162804.11499999836, 453518.8999999985], [162746.90300000086, 453534.8660000004], [162726.9459999986, 453540.188000001], [162714.13699999824, 453546.6220000014], [162706.34099999815, 453548.1730000004], [162696.1490000002, 453546.44900000095], [162675.3740000017, 453547.6490000002], [162654.1790000014, 453547.1889999993], [162650.26000000164, 453547.9239999987], [162646.52100000158, 453547.2569999993], [162589.0859999992, 453549.5300000012], [162587.86199999973, 453549.7989999987], [162579.2190000005, 453550.313000001], [162550.51799999923, 453553.73800000176], [162541.11899999902, 453554.8590000011], [162535.98800000176, 453556.2010000013], [162528.4140000008, 453557.0450000018], [162493.15700000152, 453565.0009999983], [162475.8599999994, 453570.48999999836], [162474.62099999934, 453570.7270000018], [162441.63899999857, 453583.7969999984], [162436.71799999848, 453587.0309999995], [162434.47100000083, 453587.5610000007], [162431.81899999827, 453588.186999999], [162401.8359999992, 453603.16800000146], [162397.00499999896, 453605.03599999845], [162385.00299999863, 453609.6790000014], [162374.66200000048, 453611.22399999946], [162362.6889999993, 453611.8979999982], [162350.58700000122, 453612.5789999999], [162335.06500000134, 453610.2419999987], [162328.0949999988, 453607.2870000005], [162309.91800000146, 453599.58100000024], [162306.26999999955, 453598.83900000155], [162303.44200000167, 453597.0450000018], [162258.33199999854, 453580.81700000167], [162256.31899999827, 453580.46599999815], [162246.31500000134, 453577.1640000008], [162244.0, 453576.5859999992], [162243.8280000016, 453576.4690000005], [162231.1559999995, 453566.125], [162225.0159999989, 453558.813000001], [162220.7969999984, 453552.2809999995], [162218.875, 453547.688000001], [162218.5, 453544.625], [162220.7969999984, 453540.4059999995], [162229.625, 453530.0309999995], [162236.9219999984, 453519.6559999995], [162242.2969999984, 453510.438000001], [162246.1409999989, 453503.1559999995], [162247.2969999984, 453500.686999999], [162247.7969999984, 453499.625], [162247.7030000016, 453499.625], [162243.3909999989, 453499.625], [162229.25, 453499.686999999], [162223.875, 453510.063000001], [162217.7340000011, 453518.9059999995], [162208.5159999989, 453530.7809999995], [162197.375, 453542.686999999], [162191.625, 453547.313000001], [162188.938000001, 453552.2809999995], [162190.0940000005, 453553.438000001], [162216.86899999902, 453569.80799999833], [162205.4149999991, 453566.9459999986], [162183.45899999887, 453564.24500000104], [162178.95899999887, 453563.27800000086], [162150.49599999934, 453562.40199999884], [162137.89299999923, 453559.84099999815], [162129.60300000012, 453556.3040000014], [162103.48099999875, 453538.2800000012], [162072.32499999925, 453515.2820000015], [162066.75299999863, 453511.16899999976], [162065.14699999988, 453509.9840000011], [162065.02100000158, 453509.9129999988], [162064.84699999914, 453509.76300000027], [162022.1860000007, 453478.4690000005], [162018.1950000003, 453476.22199999914], [162014.33100000024, 453473.15300000086], [161994.54399999976, 453460.83100000024], [161983.0159999989, 453453.65199999884], [161973.49599999934, 453448.7569999993], [161971.30299999937, 453447.19999999925], [161944.07299999893, 453434.0469999984], [161940.80200000107, 453433.2989999987], [161937.54199999943, 453431.12000000104], [161916.80600000173, 453424.5780000016], [161888.21400000155, 453418.2289999984], [161861.53500000015, 453415.3020000011], [161899.5309999995, 453367.6559999995], [161913.3280000016, 453354.9690000005], [161917.875, 453352.0940000005], [161922.438000001, 453349.813000001], [161922.8440000005, 453349.5940000005], [161931.1090000011, 453347.125], [161941.8590000011, 453345.4690000005], [161949.311999999, 453343.813000001], [161953.8590000011, 453343.813000001], [161960.4840000011, 453346.2809999995], [161972.8909999989, 453354.563000001], [161990.563000001, 453374.0], [161993.561999999, 453377.313000001], [162084.936999999, 453479.9059999995], [162076.686999999, 453491.4690000005], [162074.2190000005, 453496.438000001], [162072.3909999989, 453499.625], [162082.5, 453499.625], [162084.9690000005, 453494.3440000005], [162086.625, 453488.561999999], [162087.4059999995, 453480.688000001], [162087.4530000016, 453480.2809999995], [162087.1409999989, 453477.25], [162087.0309999995, 453476.1559999995], [162070.311999999, 453457.061999999], [162008.8590000011, 453386.813000001], [162003.813000001, 453381.188000001], [161991.0460000001, 453366.9470000006], [161983.6409999989, 453358.688000001], [161981.80600000173, 453356.56500000134], [161975.7809999995, 453349.5940000005], [161969.5780000016, 453344.625], [161965.438000001, 453342.1559999995], [161959.2340000011, 453339.688000001], [161951.375, 453338.0309999995], [161950.87099999934, 453338.006000001], [161942.688000001, 453337.5940000005], [161927.7969999984, 453337.5940000005], [161918.7030000016, 453338.8440000005], [161913.7340000011, 453339.25], [161913.2340000011, 453339.7190000005], [161910.436999999, 453342.1559999995], [161906.2030000016, 453347.5], [161897.6090000011, 453358.2809999995], [161862.3590000011, 453404.438000001], [161854.5309999995, 453411.5], [161849.30299999937, 453415.6799999997], [161838.4360000007, 453416.2030000016], [161828.47199999914, 453416.68200000003], [161824.4360000007, 453417.5859999992], [161808.65700000152, 453419.2340000011], [161802.58700000122, 453420.5150000006], [161801.22300000116, 453419.63899999857], [161799.96400000155, 453417.90100000054], [161775.89400000125, 453397.2349999994], [161769.3200000003, 453393.1950000003], [161758.02699999884, 453384.44099999964], [161743.1099999994, 453375.6330000013], [161727.38599999994, 453367.7820000015], [161696.34299999848, 453359.3999999985], [161671.48299999908, 453356.0300000012], [161654.69200000167, 453354.8969999999], [161640.26399999857, 453355.7320000008], [161622.98600000143, 453357.73999999836], [161618.22899999842, 453358.9759999998], [161589.5789999999, 453366.4200000018], [161586.24399999902, 453368.6490000002], [161582.91000000015, 453369.4140000008], [161556.3909999989, 453382.26300000027], [161554.81599999964, 453383.3830000013], [161547.37099999934, 453387.09899999946], [161505.18200000003, 453411.993999999], [161505.14600000158, 453412.0210000016], [161505.07400000095, 453412.05700000003], [161465.69799999893, 453435.34600000083], [161464.73900000006, 453436.08900000155], [161463.01700000092, 453436.9770000018], [161428.64499999955, 453458.48800000176], [161423.23900000006, 453461.8720000014], [161415.90700000152, 453468.618999999], [161415.52600000054, 453468.9690000005], [161410.2190000005, 453467.9679999985], [161409.04100000113, 453467.74599999934], [161376.46499999985, 453461.59899999946], [161369.96799999848, 453479.2729999982], [161359.9299999997, 453506.5760000013], [161359.50200000033, 453507.73999999836], [161358.04100000113, 453511.71400000155], [161352.1700000018, 453511.01000000164], [161324.86199999973, 453507.7329999991], [161324.97399999946, 453508.5309999995], [161322.36300000176, 453508.30799999833], [161295.27199999988, 453513.2329999991], [161268.18200000003, 453513.2329999991], [161242.09800000116, 453508.62999999896], [161226.31500000134, 453505.8449999988], [161202.186999999, 453498.9510000013], [161174.59699999914, 453491.0689999983], [161150.07400000095, 453487.881000001], [161134.66299999878, 453486.8539999984], [161132.63500000164, 453486.7190000005], [161121.39799999818, 453430.37900000066], [161109.0940000005, 453368.688000001], [161100.52800000086, 453371.9770000018], [160990.7030000016, 453414.1559999995], [161036.18499999866, 453484.0320000015]], [[163407.1719999984, 452101.125], [163432.0, 452178.938000001], [163446.0940000005, 452223.125], [163462.375, 452274.9059999995], [163529.4059999995, 452488.25], [163568.4059999995, 452616.0], [163580.40700000152, 452656.2809999995], [163672.125, 452964.125], [163693.6719999984, 453048.0309999995], [163706.311999999, 453101.875], [163712.2190000005, 453130.2809999995], [163711.4690000005, 453139.2190000005], [163712.7969999984, 453150.375], [163707.1090000011, 453155.0309999995], [163705.1559999995, 453156.0309999995], [163696.2030000016, 453160.6559999995], [163694.7340000011, 453161.125], [163690.5780000016, 453134.5940000005], [163686.3440000005, 453112.7809999995], [163684.561999999, 453101.375], [163683.5309999995, 453094.8440000005], [163679.6719999984, 453081.563000001], [163671.5940000005, 453055.3440000005], [163632.6719999984, 452920.2190000005], [163547.061999999, 452631.5309999995], [163520.25, 452543.4690000005], [163490.6409999989, 452446.875], [163482.8200000003, 452422.1070000008], [163472.2190000005, 452388.5309999995], [163471.0, 452383.7809999995], [163463.0469999984, 452352.6559999995], [163447.9219999984, 452301.375], [163441.29899999872, 452279.34899999946], [163410.6559999995, 452177.438000001], [163393.688000001, 452119.5309999995], [163338.686999999, 451933.4690000005], [163347.7659999989, 451932.2190000005], [163351.5159999989, 451932.0], [163360.311999999, 451931.5], [163407.1719999984, 452101.125]], [[162696.4219999984, 453016.0940000005], [162666.5, 453022.4059999995], [162644.75, 453025.813000001], [162633.4530000016, 453025.813000001], [162592.5159999989, 453022.875], [162582.688000001, 453021.9690000005], [162607.3909999989, 452811.5940000005], [162701.063000001, 452829.438000001], [162692.5309999995, 452912.7809999995], [162659.688000001, 452909.811999999], [162655.8440000005, 452897.8440000005], [162640.4840000011, 452895.7190000005], [162640.9219999984, 452884.625], [162682.7190000005, 452902.125], [162687.4059999995, 452841.9690000005], [162646.0, 452832.9059999995], [162615.3909999989, 452825.1559999995], [162609.1090000011, 452878.2809999995], [162604.0940000005, 452924.0], [162594.7340000011, 453009.2190000005], [162631.6090000011, 453013.6559999995], [162639.7340000011, 453015.125], [162644.1559999995, 453014.4059999995], [162682.2809999995, 453007.063000001], [162683.563000001, 453006.188000001], [162681.438000001, 452955.0], [162679.2969999984, 452953.313000001], [162677.1719999984, 452952.875], [162674.6090000011, 452955.0], [162672.0469999984, 452958.0], [162667.7809999995, 452957.1559999995], [162666.0780000016, 452954.5940000005], [162666.3280000016, 452952.313000001], [162666.5, 452950.75], [162667.3590000011, 452947.75], [162668.4840000011, 452947.4690000005], [162672.0469999984, 452946.4690000005], [162678.4530000016, 452945.186999999], [162679.2969999984, 452941.7809999995], [162679.2969999984, 452921.311999999], [162677.5940000005, 452919.188000001], [162672.9840000011, 452918.686999999], [162662.2340000011, 452917.4690000005], [162661.811999999, 452914.9059999995], [162689.9690000005, 452917.063000001], [162692.5309999995, 452917.4690000005], [162692.0940000005, 452958.438000001], [162693.375, 452988.2809999995], [162696.4219999984, 453016.0940000005]], [[162454.563000001, 453435.4690000005], [162452.4539999999, 453450.75], [162452.28200000152, 453452.0], [162451.4840000011, 453457.9059999995], [162450.375, 453465.875], [162363.2190000005, 453440.9690000005], [162341.3440000005, 453434.063000001], [162331.34800000116, 453431.1959999986], [162325.2190000005, 453429.438000001], [162305.6409999989, 453423.311999999], [162255.188000001, 453410.561999999], [162244.5940000005, 453407.9690000005], [162225.7809999995, 453404.125], [162212.7340000011, 453401.813000001], [162191.7659999989, 453399.69200000167], [162174.7340000011, 453397.9690000005], [162167.4219999984, 453396.0309999995], [162192.686999999, 453396.4679999985], [162236.1559999995, 453397.2190000005], [162254.5780000016, 453398.3440000005], [162269.938000001, 453399.9059999995], [162291.813000001, 453402.9690000005], [162316.7659999989, 453407.188000001], [162338.2659999989, 453411.0309999995], [162348.7969999984, 453413.375], [162441.8590000011, 453435.0940000005], [162444.0469999984, 453399.0], [162453.9059999995, 453339.875], [162454.57699999958, 453322.2259999998], [162454.6409999989, 453320.563000001], [162453.563000001, 453267.5], [162444.17300000042, 453265.9129999988], [162400.311999999, 453258.5], [162392.8590000011, 453257.25], [162390.7659999989, 453255.875], [162389.188000001, 453252.4059999995], [162388.875, 453249.4059999995], [162389.5469999984, 453243.875], [162391.8440000005, 453240.125], [162394.9059999995, 453238.9690000005], [162403.4530000016, 453240.3440000005], [162401.7340000011, 453250.2190000005], [162454.1559999995, 453258.4059999995], [162456.2190000005, 453251.9690000005], [162466.6090000011, 453196.8440000005], [162473.188000001, 453145.186999999], [162475.7190000005, 453141.75], [162483.1559999995, 453138.6559999995], [162483.1090000011, 453144.4059999995], [162482.7809999995, 453148.0309999995], [162477.375, 453207.0], [162471.688000001, 453270.5309999995], [162468.5, 453307.061999999], [162466.85200000182, 453323.1719999984], [162466.6719999984, 453324.938000001], [162462.6559999995, 453359.938000001], [162460.1090000011, 453380.375], [162456.2659999989, 453418.438000001], [162454.563000001, 453435.4690000005]], [[162404.9059999995, 453231.875], [162392.686999999, 453230.3440000005], [162395.4840000011, 453212.686999999], [162337.875, 453214.875], [162337.4840000011, 453199.4690000005], [162411.1559999995, 453195.811999999], [162404.9059999995, 453231.875]], [[162332.2809999995, 453207.0], [162332.5159999989, 453215.625], [162250.7030000016, 453220.0], [162255.4530000016, 453211.0940000005], [162259.563000001, 453203.3440000005], [162332.0780000016, 453199.75], [162332.2809999995, 453207.0]], [[161096.5469999984, 453239.0940000005], [161103.3280000016, 453283.2190000005], [161113.1559999995, 453350.375], [161115.375, 453357.25], [161109.1409999989, 453359.6559999995], [161098.20899999887, 453363.8579999991], [161017.5780000016, 453394.8440000005], [160987.125, 453406.563000001], [160966.51900000125, 453207.7490000017], [160966.5, 453207.563000001], [160971.1719999984, 453207.125], [160989.0, 453205.5309999995], [161015.4690000005, 453205.188000001], [161044.2969999984, 453205.188000001], [161072.5159999989, 453206.75], [161078.76199999824, 453207.1079999991], [161086.7030000016, 453207.563000001], [161093.6409999989, 453207.188000001], [161096.5469999984, 453239.0940000005]]]}}], "properties": {"sourceId": "agrest-ov-landbouwontwikkelingsgebied", "title": "Omgevingsverordening — Landbouwontwikkelingsgebied", "serviceUrl": "https://agrest.geodata-utrecht.nl/rest/services/Omgevingsverordening/FeatureServer", "layerId": 0, "role": "conditional", "authoritative": true, "licenseNote": "Structured open data of provincie Utrecht on agrest.geodata-utrecht.nl; service is anonymously queryable; no license statement exposed by the endpoint itself (platform presented as open data).", "lastChecked": "2026-10-05T09:03:33Z", "where": "NAAM='Landbouwontwikkelingsgebied'", "fetchedAt": "2026-10-05T09:03:45Z", "userAgent": "ldttoolbox-geoconnector/0.1 (wind-turbine opportunity-map PoC; cache-first, single-page politeness; open data of provincie Utrecht via geo-point.provincie-utrecht.nl)", "pages": 1, "featureCount": 1, "bbox": null, "simplifyM": null, "queryFingerprint": "{\"bbox\": null, \"simplify_m\": null}"}}