{"type": "FeatureCollection", "name": "agrest-ov-unesco-werelderfgoed-neder-germaanse-limes-kernzone", "features": [{"type": "Feature", "id": "55482", "properties": {"OBJECTID": "55482", "LOCATIEGROEP_ID": "nl.imow-pv26.gebiedengroep.003000000000000000000708", "SYMBOOL_CODE": "vsgt134", "GROEP": "werelderfgoed", "9e750651-8e97-4bc6-b09e-fc30b5f3e83c_id": "6158", "LOCATIE_ID": "nl.imow-pv26.gebied.003000000000000000000708e95718", "DOCUMENT_URL": "https://omgevingsbeleid.provincie-utrecht.nl/home?d=/akn/nl/act/pv26/2022/omgevingsverordening/nld@1089&o=", "NAAM": "UNESCO Werelderfgoed Neder-Germaanse Limes (kernzone)", "TYPE": "erfgoed", "LOCATIEGROEP_NAAM": "UNESCO Werelderfgoed Neder-Germaanse Limes (kernzone)", "LOCATIE_NAAM": null}, "geometry": {"type": "Polygon", "coordinates": [[[5.043585361197022, 52.089106774570425], [5.043573199853526, 52.08908108709853], [5.04341949928232, 52.088797927427166], [5.0433616170954, 52.08870297016071], [5.04324332140647, 52.088527357201286], [5.043222673851329, 52.08849338486971], [5.043113644575255, 52.08831396089145], [5.042978340275414, 52.088073583705714], [5.042890383173533, 52.08793760657813], [5.042705924026189, 52.087638662849955], [5.042493766748399, 52.08733694139796], [5.042295740116929, 52.087068732567616], [5.042454812585901, 52.08704692534833], [5.043141422888612, 52.08695594036324], [5.043293995185726, 52.08693309738604], [5.04348043648853, 52.08690771945355], [5.04360359139887, 52.08689094714928], [5.04354486628924, 52.08650142050744], [5.0439185614044755, 52.086477342603104], [5.043990494840955, 52.08689909388941], [5.044014929575244, 52.08703848055186], [5.044035553492618, 52.08702416861904], [5.0441351901787685, 52.08699008812406], [5.0442516654798855, 52.086952011887035], [5.044327460033625, 52.08692759597877], [5.0443863082240705, 52.0869154983672], [5.044493829861531, 52.086895785503444], [5.044570513130157, 52.086882939705326], [5.044684657732227, 52.08686525026239], [5.04479886969131, 52.086848279952505], [5.04485931286565, 52.08683935953633], [5.044963831372045, 52.086826899906754], [5.045029957325148, 52.086820854115736], [5.045164777614862, 52.08681823434182], [5.045231784021342, 52.086952773835876], [5.0451269266163905, 52.086958006289066], [5.045089774666412, 52.08695291008596], [5.0451260855369995, 52.08731225174983], [5.044876442015291, 52.08733130091878], [5.044856689772797, 52.087243160202846], [5.044430751360712, 52.08728863367293], [5.044054080834074, 52.08732884717515], [5.044025788102497, 52.08714457172259], [5.043799296100952, 52.08718885267636], [5.043689321630142, 52.08720484567571], [5.043587524976027, 52.08721609871672], [5.043334852776388, 52.087249516749864], [5.043197573907145, 52.08726619363265], [5.0432716015294945, 52.08748694160368], [5.043295592962789, 52.08755847596136], [5.043346016468365, 52.08769535897852], [5.043265659198478, 52.087709505525275], [5.043188226853434, 52.087722761742796], [5.042950107242812, 52.087760715468406], [5.043052350329869, 52.08793628189002], [5.0431545873062325, 52.088112747008275], [5.043238202960678, 52.088244217217216], [5.043261285160935, 52.08827843932922], [5.043451434952434, 52.08859717254982], [5.04425850219673, 52.088572558757924], [5.044293105857076, 52.088792247586724], [5.043557454540619, 52.08879067177693], [5.043561787485533, 52.08879644577662], [5.043580174134697, 52.088828479015795], [5.043602322594618, 52.08887226166919], [5.043634184481411, 52.08892989631729], [5.04373273021199, 52.08913352115224], [5.043709300327153, 52.089129273424724], [5.0436677590261585, 52.089121728215524], [5.043585361197022, 52.089106774570425]]]}}], "properties": {"sourceId": "agrest-ov-unesco-werelderfgoed-neder-germaanse-limes-kernzone", "title": "Omgevingsverordening — UNESCO Werelderfgoed Neder-Germaanse Limes (kernzone)", "serviceUrl": "https://agrest.geodata-utrecht.nl/rest/services/Omgevingsverordening/FeatureServer", "layerId": 0, "role": "exclusion", "authoritative": true, "licenseNote": "Structured open data of provincie Utrecht on agrest.geodata-utrecht.nl; service is anonymously queryable; no license statement exposed by the endpoint itself (platform presented as open data).", "lastChecked": "2026-10-05T07:01:26Z", "where": "NAAM='UNESCO Werelderfgoed Neder-Germaanse Limes (kernzone)'", "fetchedAt": "2026-10-05T07:01:27Z", "userAgent": "ldttoolbox-geoconnector/0.1 (wind-turbine opportunity-map PoC; cache-first, single-page politeness; open data of provincie Utrecht via geo-point.provincie-utrecht.nl)", "pages": 1, "featureCount": 1, "bbox": null, "simplifyM": null, "queryFingerprint": "{\"bbox\": null, \"simplify_m\": null}", "crs": "OGC:CRS84/WGS84 (RFC 7946 default, no crs member)"}}