{"type": "FeatureCollection", "name": "agrest-ov-kantoor-knooppunt-leidsche-rijn-centrum", "features": [{"type": "Feature", "id": "53160", "properties": {"OBJECTID": "53160", "LOCATIEGROEP_ID": "nl.imow-pv26.gebiedengroep.003000000000000000000465", "SYMBOOL_CODE": "vsg012", "GROEP": "kantoorlocatie", "9e750651-8e97-4bc6-b09e-fc30b5f3e83c_id": "3851", "LOCATIE_ID": "nl.imow-pv26.gebied.003000000000000000000465e59177", "DOCUMENT_URL": "https://omgevingsbeleid.provincie-utrecht.nl/home?d=/akn/nl/act/pv26/2022/omgevingsverordening/nld@1089&o=", "NAAM": "Kantoor op knooppunt Leidsche Rijn Centrum", "TYPE": "ruimtelijk gebruik", "LOCATIEGROEP_NAAM": "Kantoor op knooppunt Leidsche Rijn Centrum", "LOCATIE_NAAM": null}, "geometry": {"type": "Polygon", "coordinates": [[[5.06813636538565, 52.10203302052891], [5.067846256325236, 52.10202868492109], [5.0675566797104725, 52.10201724946902], [5.067268058869906, 52.10199872431292], [5.066980860657932, 52.101973155667636], [5.066695537459121, 52.10194057173701], [5.066412541461165, 52.101901027692755], [5.066132339376943, 52.10185458773855], [5.06585533953365, 52.1018013159232], [5.065582008373307, 52.10174131240971], [5.06531276867432, 52.101674659269996], [5.065048042948165, 52.1016014745309], [5.064788253826375, 52.10152185824666], [5.064533809076884, 52.10143594638633], [5.0642851165218055, 52.101343865933956], [5.064042569182621, 52.10124577079983], [5.063806530814952, 52.10114182380431], [5.06357740907649, 52.1010321699141], [5.063355538314042, 52.100916998836865], [5.063141282181338, 52.10079648238595], [5.06293497500008, 52.100670810271346], [5.062736950883485, 52.10054019916771], [5.062547500409031, 52.10040482967773], [5.062366957533838, 52.100264936452454], [5.062195583425645, 52.10012072697807], [5.062033653573161, 52.09997244473196], [5.06188142905458, 52.099820306186906], [5.061739141486462, 52.099664563685764], [5.061607022539437, 52.099505460581945], [5.06148528921369, 52.099343249175135], [5.061374114716981, 52.09917818164205], [5.061273686710763, 52.09901052817354], [5.061184163725054, 52.098840549889445], [5.061105689687978, 52.09866850786702], [5.061038379201583, 52.09849468107553], [5.060982332333502, 52.09831933945346], [5.060937663608576, 52.0981427709522], [5.060904429303137, 52.09796524538291], [5.060882670965484, 52.09778705048878], [5.060872444800603, 52.097608465062414], [5.060873748703175, 52.09742975874351], [5.060886580305341, 52.097251237119885], [5.060910937502057, 52.09707316982465], [5.060946759750625, 52.09689583531381], [5.060994001038844, 52.09671952106851], [5.061052600895784, 52.09654449655028], [5.061122440351049, 52.096371049032115], [5.061203415164195, 52.096199447848555], [5.061295406442514, 52.096029971278824], [5.061398266245307, 52.09586287954296], [5.061511832046935, 52.095698432818324], [5.06163591207935, 52.09553690018725], [5.061770329307767, 52.0953785327944], [5.061914862929014, 52.095223581662], [5.062069277623346, 52.09507228878245], [5.062233338082275, 52.09492489614681], [5.062406779823727, 52.094781645664874], [5.0625893239810384, 52.09464275224172], [5.062780706292292, 52.09450843082214], [5.062980589480109, 52.0943789051381], [5.063188680188203, 52.09425438106627], [5.063404641425668, 52.094135046387635], [5.063628136149193, 52.09402109787213], [5.063858798338575, 52.09391270524684], [5.0640962911057885, 52.09381004730829], [5.064340204678364, 52.093713293666895], [5.06459017333215, 52.093622578103385], [5.064845801975374, 52.09353806128468], [5.065106681194219, 52.093459867888754], [5.0653724015851065, 52.09338812259644], [5.065642539162293, 52.093322950051835], [5.065916670272157, 52.093264429962815], [5.066194371011039, 52.093212677992454], [5.066475174029142, 52.09316776474885], [5.066758670351805, 52.09312976100285], [5.067044392706164, 52.09309872838265], [5.0673318885448895, 52.093074710584496], [5.06762070526054, 52.09305776029704], [5.067910375913447, 52.09304789422198], [5.068200477406107, 52.09304512019614], [5.068490513553517, 52.093049463839044], [5.068780046923218, 52.093060897005394], [5.069068610769383, 52.09307940945102], [5.06935575300015, 52.09310498198795], [5.069641007184197, 52.09313755944133], [5.069923950598364, 52.093177095746725], [5.070204116865641, 52.093223526749895], [5.070481054258965, 52.093276779352266], [5.070754340228736, 52.09333678053743], [5.071023537943622, 52.093403412313926], [5.07128822490154, 52.09347659268466], [5.071547978909077, 52.09355619471628], [5.071802392354841, 52.09364209151755], [5.072051057617093, 52.09373415619996], [5.072293596500936, 52.09383222600403], [5.0725296014254235, 52.093936165058395], [5.072758723420144, 52.094045801697675], [5.072980584380765, 52.09416095519246], [5.073194835312048, 52.094281453880654], [5.073401141988042, 52.094407099176095], [5.0735991701066645, 52.0945377014815], [5.073788614664542, 52.09467305330186], [5.07396917077123, 52.09481292916639], [5.074140562646198, 52.09495711266969], [5.074302514496443, 52.09510538740583], [5.074454779891291, 52.09525751008187], [5.074597083202545, 52.09541323732641], [5.0747292363478325, 52.095572325998994], [5.074851022111174, 52.0957345238921], [5.074962223329149, 52.09589956980869], [5.075062695668448, 52.096067220718524], [5.075152280507884, 52.096237188610935], [5.075230804374013, 52.09640922138573], [5.075298166940225, 52.09658304016947], [5.075354253280428, 52.096758366047126], [5.075398992117901, 52.09693493819234], [5.07543228323529, 52.09711245974689], [5.0754540846599125, 52.09729065197939], [5.075464383603752, 52.097469236232406], [5.07546313802785, 52.09764794275593], [5.075450349923793, 52.097826465960665], [5.0754260648141365, 52.09800453632146], [5.075390299098549, 52.09818187524456], [5.075343098429127, 52.09835819522241], [5.075284566711642, 52.09853322687433], [5.075214778794022, 52.098706682763634], [5.0751338532488965, 52.09887828455431], [5.075041893872989, 52.09904778083262], [5.074939077691388, 52.099214884423745], [5.074825566892505, 52.099379344063394], [5.074701509204688, 52.09954089047045], [5.0745671252112095, 52.099699272531026], [5.074422635505901, 52.09985423912928], [5.074268231441615, 52.10000554805849], [5.074104192011471, 52.100152948354975], [5.073930766780139, 52.10029622492822], [5.073748234702143, 52.10043513580086], [5.0735568744923105, 52.10056947494681], [5.073356994256431, 52.10069900945354], [5.073148901734526, 52.10082356033636], [5.072932934121133, 52.10094291273714], [5.0727094284342025, 52.10105687876222], [5.072478736172668, 52.10116528853391], [5.0722412381639215, 52.101267954277944], [5.071997285741813, 52.10136473308352], [5.071747288820894, 52.10145545523394], [5.071491627820975, 52.101539995876564], [5.071230712552563, 52.10161820327556], [5.070964952646535, 52.101689952661694], [5.070694772147609, 52.1017551462717], [5.070420595236777, 52.101813668369935], [5.070142860443742, 52.10186543921483], [5.069861991838221, 52.101910361053825], [5.069578442431596, 52.101948372168074], [5.069292679836123, 52.101979410882365], [5.069005127820035, 52.102003424395484], [5.068716253748579, 52.10202038699235], [5.068426510523078, 52.102030254946946], [5.06813636538565, 52.10203302052891]]]}}], "properties": {"sourceId": "agrest-ov-kantoor-knooppunt-leidsche-rijn-centrum", "title": "Omgevingsverordening — Kantoor op knooppunt Leidsche Rijn Centrum", "serviceUrl": "https://agrest.geodata-utrecht.nl/rest/services/Omgevingsverordening/FeatureServer", "layerId": 0, "role": "conditional", "authoritative": true, "licenseNote": "Structured open data of provincie Utrecht on agrest.geodata-utrecht.nl; service is anonymously queryable; no license statement exposed by the endpoint itself (platform presented as open data).", "lastChecked": "2026-10-06T11:11:23Z", "where": "NAAM='Kantoor op knooppunt Leidsche Rijn Centrum'", "fetchedAt": "2026-10-06T11:11:28Z", "userAgent": "ldttoolbox-geoconnector/0.1 (wind-turbine opportunity-map PoC; cache-first, single-page politeness; open data of provincie Utrecht via geo-point.provincie-utrecht.nl)", "pages": 1, "featureCount": 1, "bbox": null, "simplifyM": null, "queryFingerprint": "{\"bbox\": null, \"simplify_m\": null}", "crs": "OGC:CRS84/WGS84 (RFC 7946 default, no crs member)"}}