{"type": "FeatureCollection", "name": "agrest-ov-unesco-werelderfgoed-neder-germaanse-limes-bufferzone", "features": [{"type": "Feature", "id": "56014", "properties": {"OBJECTID": "56014", "LOCATIEGROEP_ID": "nl.imow-pv26.gebiedengroep.003000000000000000000710", "SYMBOOL_CODE": "vsgt134", "GROEP": "werelderfgoed", "9e750651-8e97-4bc6-b09e-fc30b5f3e83c_id": "6664", "LOCATIE_ID": "nl.imow-pv26.gebied.003000000000000000000710e95722", "DOCUMENT_URL": "https://omgevingsbeleid.provincie-utrecht.nl/home?d=/akn/nl/act/pv26/2022/omgevingsverordening/nld@1089&o=", "NAAM": "UNESCO Werelderfgoed Neder-Germaanse Limes (bufferzone)", "TYPE": "erfgoed", "LOCATIEGROEP_NAAM": "UNESCO Werelderfgoed Neder-Germaanse Limes (bufferzone)", "LOCATIE_NAAM": null}, "geometry": {"type": "Polygon", "coordinates": [[[4.8841443714761406, 52.08693262757295], [4.884075010727153, 52.086971313259006], [4.884015601323921, 52.08700474734969], [4.884015342680509, 52.08700569000432], [4.883898482089211, 52.0870579966194], [4.883790680993855, 52.08709742579845], [4.883720638088657, 52.087122778893736], [4.883552387704456, 52.087176474528164], [4.883309142173027, 52.087249506491496], [4.883168132687511, 52.087090747593074], [4.883163341813232, 52.087084731990686], [4.883101605174305, 52.087013874813394], [4.883118609413906, 52.08700814117125], [4.882994606688776, 52.08686555261503], [4.882728729181953, 52.08685992088708], [4.882693801554572, 52.086871384122446], [4.882668305028021, 52.086878465532656], [4.8824892021662505, 52.08693704770893], [4.8823951105206245, 52.086967842747256], [4.882266002880122, 52.08682531244644], [4.882258669414802, 52.08681706583393], [4.882248332201389, 52.08682028425904], [4.882140677025322, 52.08669423116889], [4.882143576448967, 52.08669329983375], [4.882077856107542, 52.08661363459861], [4.8819681268978155, 52.08648915437531], [4.881956681706915, 52.08647550619821], [4.881928563658812, 52.08648476033923], [4.881810569590256, 52.08634673529842], [4.881753589510281, 52.086278729069065], [4.881723549743338, 52.08628890969122], [4.881437554680729, 52.085956899789196], [4.88160037337773, 52.085903390598915], [4.8815349504434495, 52.085828579938706], [4.881409825850714, 52.085689166666576], [4.881533205964496, 52.08557117787857], [4.881606900182981, 52.08550536795762], [4.881384837306867, 52.08541266383026], [4.881470496208804, 52.085335157783206], [4.881508225046865, 52.085300391582344], [4.881609027667223, 52.085216451949925], [4.882665940404648, 52.08435740526118], [4.882853687038479, 52.084226118441556], [4.8829083644992375, 52.08415921965308], [4.882954654000264, 52.08413621919581], [4.883005817787534, 52.08412992164045], [4.883165968535876, 52.08414151827378], [4.883691116581976, 52.08420806431188], [4.8837666712729675, 52.08421628766596], [4.884577934757929, 52.08431825151647], [4.8846643761971205, 52.084331446242714], [4.886117688511203, 52.08452757197947], [4.886046359059617, 52.08471903155733], [4.886156352988128, 52.08500807372144], [4.886229045585266, 52.08519515710012], [4.885720851550815, 52.08529248617713], [4.885749223234324, 52.0853489717638], [4.885876418668229, 52.08556639761952], [4.885719293353603, 52.08563190019339], [4.885666628822603, 52.08566262241664], [4.8856686793790205, 52.08566321537354], [4.885616481839267, 52.08569392158516], [4.885607286278098, 52.08569946411276], [4.885560761144485, 52.08573434697803], [4.885519831933611, 52.08576981989848], [4.885461203440037, 52.08582362525561], [4.88543832331943, 52.08584728361615], [4.885357311240697, 52.08592598077197], [4.8852905729024165, 52.085995148266335], [4.885217149015363, 52.08606848472995], [4.885206487508452, 52.086078533049154], [4.885157695842998, 52.0861281017757], [4.885073768857722, 52.08620382920933], [4.885050242745403, 52.08627719836243], [4.884927816086331, 52.086382395693754], [4.884889087706592, 52.08641797664297], [4.884839928230568, 52.08645995764674], [4.884838926186759, 52.08645953991973], [4.884784348198375, 52.086504598728], [4.88470091970933, 52.08657349700418], [4.884690248070863, 52.08658442607492], [4.884663115338828, 52.0866047225515], [4.884614367300085, 52.08664121343782], [4.884606480556658, 52.08664711200712], [4.884603598450186, 52.08664910408173], [4.884568441425703, 52.08667324921375], [4.8845695736683865, 52.0866737663682], [4.884565924307735, 52.08667651916522], [4.884545045229383, 52.086692114500096], [4.884517213416354, 52.08671358541331], [4.884511356395768, 52.08671803654753], [4.8844590402850585, 52.08675391893268], [4.884380106087852, 52.086803223944514], [4.884344631342468, 52.08682575877046], [4.8843301278588696, 52.08683489180162], [4.884312569483745, 52.086845809433115], [4.884274334596075, 52.08686596857073], [4.884188500829153, 52.08691119034648], [4.884182541080504, 52.08691439166912], [4.8841443714761406, 52.08693262757295]], [[4.882679658241511, 52.085861546430955], [4.883460740974602, 52.08505068379487], [4.883475076297679, 52.085034422522305], [4.883541477515898, 52.08496551525827], [4.885040724427343, 52.08553816763759], [4.885042122826757, 52.085543566503596], [4.885057696937686, 52.085585877302066], [4.885059128463927, 52.08562341804165], [4.885060944873929, 52.08562407292897], [4.885063995421681, 52.08570454811426], [4.885037088725735, 52.08576195783637], [4.8850058051232095, 52.08581934890354], [4.884971704455406, 52.08586773977876], [4.8849391837631035, 52.08590535156067], [4.884874172493262, 52.08597787877179], [4.884815158333143, 52.0860360504206], [4.8847650289857665, 52.086082575279676], [4.884680868147907, 52.08614140366097], [4.884641285292109, 52.08618810825365], [4.884573274413506, 52.08626781305224], [4.884549638159047, 52.08629377797834], [4.884517147102034, 52.086328693315686], [4.884500926806065, 52.08634390404368], [4.884434606751079, 52.08640294316006], [4.8843948611068795, 52.08643423224724], [4.88438459783195, 52.08643868255525], [4.884350718299477, 52.086467300197846], [4.884309523676053, 52.08649768425669], [4.882679658241511, 52.085861546430955]]]}}, {"type": "Feature", "id": "56010", "properties": {"OBJECTID": "56010", "LOCATIEGROEP_ID": "nl.imow-pv26.gebiedengroep.003000000000000000000710", "SYMBOOL_CODE": "vsgt134", "GROEP": "werelderfgoed", "9e750651-8e97-4bc6-b09e-fc30b5f3e83c_id": "6677", "LOCATIE_ID": "nl.imow-pv26.gebied.003000000000000000000710e95725", "DOCUMENT_URL": "https://omgevingsbeleid.provincie-utrecht.nl/home?d=/akn/nl/act/pv26/2022/omgevingsverordening/nld@1089&o=", "NAAM": "UNESCO Werelderfgoed Neder-Germaanse Limes (bufferzone)", "TYPE": "erfgoed", "LOCATIEGROEP_NAAM": "UNESCO Werelderfgoed Neder-Germaanse Limes (bufferzone)", "LOCATIE_NAAM": null}, "geometry": {"type": "Polygon", "coordinates": [[[5.04953256197592, 52.09446691928238], [5.049529814822256, 52.094036355138954], [5.051456083297388, 52.09404185620409], [5.051457083820036, 52.09406797842926], [5.05277396675783, 52.094562731133756], [5.052928980924611, 52.09462405600025], [5.052767294466628, 52.094811043978446], [5.052707103416432, 52.09488063873808], [5.052487817004423, 52.09506169255522], [5.052426247865377, 52.09511253411595], [5.052918146187673, 52.09463473008998], [5.051433872108894, 52.094075048868305], [5.05035689869441, 52.09407916738031], [5.04953256197592, 52.09446691928238]]]}}, {"type": "Feature", "id": "56011", "properties": {"OBJECTID": "56011", "LOCATIEGROEP_ID": "nl.imow-pv26.gebiedengroep.003000000000000000000710", "SYMBOOL_CODE": "vsgt134", "GROEP": "werelderfgoed", "9e750651-8e97-4bc6-b09e-fc30b5f3e83c_id": "6678", "LOCATIE_ID": "nl.imow-pv26.gebied.003000000000000000000710e95726", "DOCUMENT_URL": "https://omgevingsbeleid.provincie-utrecht.nl/home?d=/akn/nl/act/pv26/2022/omgevingsverordening/nld@1089&o=", "NAAM": "UNESCO Werelderfgoed Neder-Germaanse Limes (bufferzone)", "TYPE": "erfgoed", "LOCATIEGROEP_NAAM": "UNESCO Werelderfgoed Neder-Germaanse Limes (bufferzone)", "LOCATIE_NAAM": null}, "geometry": {"type": "Polygon", "coordinates": [[[5.052337205086834, 52.095186064434486], [5.052173655683395, 52.09532113113071], [5.0518591216841395, 52.095343668897485], [5.051795706282352, 52.095414826933784], [5.051692452864437, 52.095505231911574], [5.0492970451623655, 52.09567264325046], [5.0491110358157085, 52.095545746548034], [5.049063347150826, 52.09550688912577], [5.048989348952404, 52.095446555588914], [5.048907870761057, 52.095281228704074], [5.048811975485358, 52.09506185996659], [5.048814452323366, 52.09473447607228], [5.049504099351787, 52.09473645335943], [5.049504078994059, 52.09473914972667], [5.049229737789787, 52.09473836364634], [5.049194552497986, 52.09475983418698], [5.049199783002824, 52.09522633078769], [5.0500863996904375, 52.09521487469978], [5.050086388716079, 52.09521633073804], [5.050550716624611, 52.09520984678987], [5.050764148375032, 52.09520686076863], [5.051477985601985, 52.095196887433175], [5.051564602273773, 52.095127925789456], [5.051704200497775, 52.095193936107705], [5.051734845312005, 52.09519402330307], [5.052337205086834, 52.095186064434486]]]}}, {"type": "Feature", "id": "56012", "properties": {"OBJECTID": "56012", "LOCATIEGROEP_ID": "nl.imow-pv26.gebiedengroep.003000000000000000000710", "SYMBOOL_CODE": "vsgt134", "GROEP": "werelderfgoed", "9e750651-8e97-4bc6-b09e-fc30b5f3e83c_id": "6679", "LOCATIE_ID": "nl.imow-pv26.gebied.003000000000000000000710e95723", "DOCUMENT_URL": "https://omgevingsbeleid.provincie-utrecht.nl/home?d=/akn/nl/act/pv26/2022/omgevingsverordening/nld@1089&o=", "NAAM": "UNESCO Werelderfgoed Neder-Germaanse Limes (bufferzone)", "TYPE": "erfgoed", "LOCATIEGROEP_NAAM": "UNESCO Werelderfgoed Neder-Germaanse Limes (bufferzone)", "LOCATIE_NAAM": null}, "geometry": {"type": "Polygon", "coordinates": [[[4.995105046902037, 52.09158761341333], [4.994817576248785, 52.09108301698116], [4.997964143748261, 52.0904713538013], [4.998546185904753, 52.09036569539332], [4.998899107554049, 52.09031404422914], [4.999305811922866, 52.09028603695063], [5.000306822294127, 52.090201305809344], [5.001040834404648, 52.09014698848751], [5.002292533692003, 52.090082619528275], [5.003115108615289, 52.09006770367324], [5.003575459390192, 52.09007898168926], [5.0041531467670195, 52.09010823794229], [5.004423118877333, 52.09010129518255], [5.0047346867385425, 52.090057320922384], [5.00494474037777, 52.09000322866704], [5.0051613431648025, 52.089923729895744], [5.0053016509599155, 52.089855722066105], [5.005700470751033, 52.08963402732622], [5.006083595096897, 52.089390762958196], [5.006329673502999, 52.08920768845331], [5.006486503291039, 52.08906149108099], [5.006640415456039, 52.08888594688313], [5.006839665491755, 52.08860687090117], [5.00693634057211, 52.08844092068562], [5.007068476436524, 52.088212482535894], [5.007107336499851, 52.08812263682979], [5.007146510174462, 52.08799757669466], [5.007195911073423, 52.08778842976203], [5.0072751395131805, 52.08743269292383], [5.0074126452608265, 52.08694411969327], [5.007510066517246, 52.08631654180199], [5.0075732855565915, 52.085974433036256], [5.0076219140861555, 52.08586441330902], [5.008574550383831, 52.08580495564028], [5.008502158433985, 52.08589240216489], [5.0084525979364996, 52.08600073847811], [5.00838627329414, 52.0863330496624], [5.0082889285979295, 52.08695475925674], [5.00815444733379, 52.08746290134705], [5.008068914125929, 52.087812758232914], [5.008025930449256, 52.088014097516755], [5.007989923318708, 52.088141127533014], [5.007921669696398, 52.08832672818807], [5.007805495375472, 52.08854543059813], [5.007480544704455, 52.089045139013635], [5.007278412946837, 52.08929095075744], [5.007022342646339, 52.08953071897796], [5.00674108310984, 52.08974496899548], [5.006168037178743, 52.09010303810912], [5.005756489938387, 52.090326652646446], [5.005482501158964, 52.090431394073256], [5.005246823744392, 52.09051278205327], [5.004982711750387, 52.09057646966838], [5.004486821647532, 52.090635503638865], [5.004067559151754, 52.09064588027619], [5.003448636776555, 52.09061061117628], [5.003058109679135, 52.090603470048634], [5.002295808957917, 52.09062446056138], [5.001101332847288, 52.090679228957136], [5.000399077212651, 52.090733650870554], [4.99935357849743, 52.090820195868], [4.998714717893658, 52.0908865547761], [4.995105046902037, 52.09158761341333]], [[4.995068825869793, 52.09149650626677], [4.994945243618559, 52.091280578145636], [4.997350880305532, 52.09079714184152], [4.997420820924629, 52.09095256187296], [4.996688174804582, 52.091089057500454], [4.996721723376292, 52.091150665297334], [4.995068825869793, 52.09149650626677]]]}}, {"type": "Feature", "id": "56013", "properties": {"OBJECTID": "56013", "LOCATIEGROEP_ID": "nl.imow-pv26.gebiedengroep.003000000000000000000710", "SYMBOOL_CODE": "vsgt134", "GROEP": "werelderfgoed", "9e750651-8e97-4bc6-b09e-fc30b5f3e83c_id": "6680", "LOCATIE_ID": "nl.imow-pv26.gebied.003000000000000000000710e95721", "DOCUMENT_URL": "https://omgevingsbeleid.provincie-utrecht.nl/home?d=/akn/nl/act/pv26/2022/omgevingsverordening/nld@1089&o=", "NAAM": "UNESCO Werelderfgoed Neder-Germaanse Limes (bufferzone)", "TYPE": "erfgoed", "LOCATIEGROEP_NAAM": "UNESCO Werelderfgoed Neder-Germaanse Limes (bufferzone)", "LOCATIE_NAAM": null}, "geometry": {"type": "Polygon", "coordinates": [[[5.044481752749634, 52.08976739326835], [5.043956779782993, 52.089775869741395], [5.043754606940256, 52.08977909189903], [5.043713538222566, 52.08980683534423], [5.043673990674072, 52.08982649392245], [5.0436359574153045, 52.08983896642467], [5.043605281774582, 52.089843371073215], [5.04348409350072, 52.08985380352677], [5.042612039244195, 52.0898503590317], [5.039734322200401, 52.08982753170812], [5.03957399068628, 52.08895842240488], [5.03921837324748, 52.08737771489196], [5.038973876463278, 52.08629656029824], [5.038989946284343, 52.08629391133571], [5.039155002659708, 52.085585300427965], [5.039184472217044, 52.08557994962873], [5.03927350730317, 52.085291981964204], [5.039421997149973, 52.0850543522429], [5.039483559130187, 52.08495574560294], [5.039692630307737, 52.08462326299214], [5.039773343917029, 52.08461714631088], [5.03976576178455, 52.08459402453797], [5.0396972036548116, 52.08425422492528], [5.039756627276846, 52.084242886322485], [5.039716878048873, 52.084159305623444], [5.039610947944792, 52.08393341886387], [5.0395578656746665, 52.08374266956829], [5.039517512870665, 52.083665522496936], [5.039659205448629, 52.08348508167123], [5.039462062029831, 52.083135761780696], [5.039496237471814, 52.083125391447375], [5.039337625880581, 52.082824945449545], [5.0392402195064205, 52.082636743618856], [5.039954561611743, 52.08251180318594], [5.040078410551289, 52.08249068637731], [5.040210177130889, 52.082468208576934], [5.040416908449394, 52.08243353861349], [5.040585921742714, 52.08240521084737], [5.040588945617537, 52.082404698428654], [5.040763884968795, 52.08237784390565], [5.040757161609028, 52.08236061192218], [5.040948255353059, 52.082327485963155], [5.0409549147414765, 52.082343567270094], [5.041070122774188, 52.082322882432635], [5.041230005309333, 52.082294203360824], [5.041467871260762, 52.08225151565863], [5.041748299802515, 52.082200314646826], [5.042083469221171, 52.08213910769911], [5.042221469594415, 52.08211390453061], [5.042255773671676, 52.08210747955321], [5.0424155377201165, 52.082076937990145], [5.042469522470724, 52.082066669675015], [5.042510557231675, 52.082059554246484], [5.042657641402014, 52.08203115039931], [5.042734256640334, 52.08201665179181], [5.042926528225699, 52.08198174642532], [5.043017031765545, 52.08196535575234], [5.043176588760998, 52.08193694273528], [5.043251194415863, 52.08192382209548], [5.043291787193319, 52.0819172354039], [5.043306423309554, 52.08191486929111], [5.043342817174849, 52.08190983426264], [5.043425592406748, 52.08189861585748], [5.043468106545653, 52.08189448846147], [5.043596320534752, 52.08188203623426], [5.043613956591461, 52.08188036192386], [5.0436354159154995, 52.08187855494433], [5.043659876103457, 52.08187732295716], [5.04370532949973, 52.0818760892237], [5.043724239050074, 52.08187575783553], [5.043745380972258, 52.081875388008065], [5.043752617997938, 52.08187525629604], [5.043779403566016, 52.0818751725487], [5.043791351959126, 52.08187514444114], [5.043821161777517, 52.08187639074619], [5.043841841940408, 52.08187725991494], [5.0438624928583105, 52.081878137982976], [5.043877645806791, 52.08187875735586], [5.0439038824339, 52.081879867399486], [5.043924897995652, 52.08188075550667], [5.0439333859019015, 52.08188111278396], [5.0439444841693275, 52.081881603495376], [5.043964989000274, 52.08188250808442], [5.043986120927138, 52.081883441460015], [5.043990889684552, 52.08188367105912], [5.044015007619082, 52.08188521532646], [5.044035596812752, 52.081886533601654], [5.044056567236502, 52.081887601316076], [5.04407820852171, 52.081888697943796], [5.044097939483315, 52.08188969013811], [5.0441194908279865, 52.08189110108019], [5.044131913889528, 52.08189195515388], [5.044162676297323, 52.081894543372634], [5.0441849681418445, 52.08189641485103], [5.044205539587964, 52.08189814649772], [5.044225600785403, 52.08189983171569], [5.044266466712286, 52.08190326722116], [5.044298221768459, 52.08190577739941], [5.04431848817508, 52.08190733736499], [5.04433945434536, 52.08190896227913], [5.044360493459338, 52.08191058740177], [5.044380716173942, 52.08191213824149], [5.0444026008687635, 52.08191383772053], [5.044424675214867, 52.081915537747], [5.044429151314364, 52.0819158833227], [5.044450321730736, 52.08191750881109], [5.044472075272703, 52.081919189919674], [5.044489673523556, 52.081920544359875], [5.04451370396489, 52.08192208827075], [5.044535970102669, 52.08192351020267], [5.04455829445795, 52.08192495027572], [5.044579000324787, 52.08192627778318], [5.0446007415585346, 52.081927662224714], [5.044605538950199, 52.081927963786946], [5.044581243528067, 52.08202961156371], [5.044575900848614, 52.08208527734766], [5.044589665607404, 52.0821890850302], [5.044581936240166, 52.082188730005015], [5.044593224126379, 52.08232832112035], [5.044661459459612, 52.08255659257957], [5.044820538536323, 52.082550736090504], [5.044837420141911, 52.08265722225472], [5.04484278920951, 52.08269150050199], [5.044854405952078, 52.08276535354023], [5.044858886755233, 52.08279369705772], [5.044876265337198, 52.08290389674218], [5.044892420702269, 52.083006183338455], [5.04490442475498, 52.0830790128486], [5.044934821270631, 52.083259231693084], [5.04496741936426, 52.083447294541685], [5.044999345315092, 52.08363362072006], [5.045003227343547, 52.083656344925224], [5.045017581091443, 52.08374056017452], [5.04503478424197, 52.08384136674094], [5.045044320887646, 52.08389541291819], [5.045074705743456, 52.08407157803289], [5.045103581590825, 52.08423905624866], [5.045133046921155, 52.08441151557134], [5.045164959811835, 52.08459972913683], [5.045211529827949, 52.08486695466616], [5.045258406797512, 52.08514563189518], [5.045268677966846, 52.08520672684329], [5.04530003059254, 52.08597814955761], [5.045392569279387, 52.086416273154384], [5.045479548679493, 52.08682793754494], [5.045506730112994, 52.086955979884344], [5.045497234721648, 52.08695559283813], [5.045424858351244, 52.086952821422855], [5.045479193148262, 52.08733482927794], [5.045597430412748, 52.08833665264412], [5.045685643347973, 52.08880152984319], [5.045690370825203, 52.08882637764499], [5.045717242849479, 52.08975403582842], [5.045612141576546, 52.08975404593528], [5.045612833241251, 52.08975900936716], [5.044982413197389, 52.0897555182909], [5.044481752749634, 52.08976739326835]], [[5.041141293737182, 52.08418378193687], [5.041099701006672, 52.08409300581377], [5.041067619259651, 52.084026938935025], [5.041171215855015, 52.08402544545509], [5.0412572916116885, 52.084025698088645], [5.041363785178311, 52.08402690937217], [5.041454230727234, 52.08402807349198], [5.041585456367913, 52.08403834521488], [5.041694805330833, 52.08404765386402], [5.041786619637213, 52.0840605062751], [5.04189155033787, 52.08407519465729], [5.042008076135262, 52.08409980381393], [5.0421158277774225, 52.08412708360119], [5.042217702307894, 52.08415973895241], [5.042329754764196, 52.08419691804296], [5.042451936726857, 52.084244912374345], [5.042578474942868, 52.08429561574422], [5.0426686096139495, 52.08433722448494], [5.042774716494002, 52.08438876673713], [5.042835756059498, 52.08441950461311], [5.042898226967585, 52.084453841878755], [5.042988334595965, 52.08449904553459], [5.0430740863611305, 52.08454153997454], [5.043170023151579, 52.08458765931674], [5.043249911896538, 52.084633731757584], [5.043326896756803, 52.08467799805244], [5.043444504036674, 52.084752043497126], [5.043530153160484, 52.08480801945503], [5.043605631342276, 52.08485857284419], [5.043681109694698, 52.08490912618468], [5.043750786948128, 52.084955168524296], [5.0438291421263, 52.08501112301079], [5.04391036021996, 52.085074276262496], [5.043995941596821, 52.085139239780425], [5.0440654471995625, 52.085207751683846], [5.044145179464732, 52.08527449568576], [5.04422633647162, 52.08534573782806], [5.044334052581194, 52.08545056480167], [5.0443537946536505, 52.085467447943586], [5.044379540366072, 52.0854948196784], [5.044413129906958, 52.08553053719704], [5.044476842215685, 52.085593639144946], [5.0446343138232, 52.085797227912394], [5.044777231498746, 52.085996280136385], [5.044994493333428, 52.08639863410991], [5.045164777614862, 52.08681823434182], [5.045231784021342, 52.086952773835876], [5.045252811900551, 52.08698863442587], [5.04530738011457, 52.08721963401074], [5.045325826884789, 52.08733170616753], [5.045328084059791, 52.08740101094461], [5.045324093887046, 52.08748974784642], [5.045311753054029, 52.087542840700486], [5.045311315511993, 52.087544726931974], [5.045310888559556, 52.087541409085865], [5.045306532757857, 52.087565340744526], [5.045284297016301, 52.087611115551574], [5.045244257452241, 52.08769548753022], [5.045160952802816, 52.087812774219614], [5.045136586743882, 52.08784707400518], [5.045107709590495, 52.08787979676653], [5.045032325820952, 52.08793619401599], [5.044970584828662, 52.087979157665224], [5.045060112316335, 52.08853448639932], [5.045106597203654, 52.08879802642891], [5.045107667884773, 52.08899001525239], [5.044808913839785, 52.089047480704515], [5.044554926644255, 52.08909133272266], [5.044303681181531, 52.08912768710906], [5.044141197217294, 52.089146377022], [5.0439463618771585, 52.08914830859267], [5.043815204478161, 52.08914043057121], [5.043777671123588, 52.08913728326536], [5.04373273021199, 52.08913352115224], [5.043709300327153, 52.089129273424724], [5.0436677590261585, 52.089121728215524], [5.043585361197022, 52.089106774570425], [5.0435263730635915, 52.08909490012487], [5.043453559390888, 52.08908024396912], [5.043347055139009, 52.08905417349574], [5.043169289947798, 52.08900700665924], [5.042984417378444, 52.08895629546805], [5.042831078425546, 52.08890911854254], [5.042581191529562, 52.0888202061271], [5.042377073180253, 52.088735642474454], [5.0422151192097715, 52.08866108876552], [5.0421475320824705, 52.088627275483056], [5.042059269745973, 52.08856508912813], [5.041953213064969, 52.08848128815073], [5.041772288014675, 52.08831851401959], [5.04161764680601, 52.08817593201804], [5.041384215747128, 52.087967388751736], [5.041122134173246, 52.08773389083907], [5.041004808424462, 52.087615406785964], [5.0409334190824495, 52.08752459708307], [5.040914842518515, 52.087502332925105], [5.040840887972622, 52.0873697569196], [5.040591267225219, 52.08739123285589], [5.0405681590115785, 52.087373871808914], [5.040519811357587, 52.08712276392359], [5.040508807402313, 52.0870986434556], [5.040486213647555, 52.08708081652314], [5.040449705970006, 52.08706230151798], [5.040420383773446, 52.08704853537903], [5.0404036845328175, 52.08703448279548], [5.040396669886142, 52.08700958309919], [5.04036663995372, 52.08684998294021], [5.040351782242976, 52.08676778799016], [5.040341041010141, 52.086722977670604], [5.040334761084118, 52.086701181025646], [5.040318414693055, 52.086688684408486], [5.040285348060534, 52.086676156562504], [5.040239330876641, 52.08665914148245], [5.040203050621554, 52.08664334147448], [5.0401790228708965, 52.08662609448666], [5.0401733631600765, 52.08661275746099], [5.040142960719685, 52.086443008570264], [5.040116639864563, 52.08637343508225], [5.040069446807321, 52.086131938644364], [5.040276880247765, 52.0860954733591], [5.040545617839382, 52.086059412698326], [5.0407939502091095, 52.086020595036224], [5.041054056090183, 52.08597992392106], [5.041320341923832, 52.08593622339845], [5.041398863870639, 52.08592324124904], [5.041526470934239, 52.08590216090005], [5.041525776391435, 52.08590141285105], [5.041525834819783, 52.08590140403431], [5.041502685721433, 52.085876169469124], [5.041478098514789, 52.08584823425136], [5.041405914144264, 52.08574915342045], [5.041365445181559, 52.085699600147706], [5.041333716196552, 52.08565187012362], [5.041311072288671, 52.085617936519135], [5.04129044761264, 52.08558702883727], [5.041268903712578, 52.08554292392082], [5.041244330735072, 52.085513191073524], [5.041898294955409, 52.08541112509384], [5.041813559099508, 52.085295550525885], [5.041644112335436, 52.08532201825293], [5.04131999681846, 52.08457867741843], [5.0412962859798585, 52.08452430172707], [5.041268425617911, 52.084461285274465], [5.041141293737182, 52.08418378193687]]]}}, {"type": "Feature", "id": "56015", "properties": {"OBJECTID": "56015", "LOCATIEGROEP_ID": "nl.imow-pv26.gebiedengroep.003000000000000000000710", "SYMBOOL_CODE": "vsgt134", "GROEP": "werelderfgoed", "9e750651-8e97-4bc6-b09e-fc30b5f3e83c_id": "6682", "LOCATIE_ID": "nl.imow-pv26.gebied.003000000000000000000710e95724", "DOCUMENT_URL": "https://omgevingsbeleid.provincie-utrecht.nl/home?d=/akn/nl/act/pv26/2022/omgevingsverordening/nld@1089&o=", "NAAM": "UNESCO Werelderfgoed Neder-Germaanse Limes (bufferzone)", "TYPE": "erfgoed", "LOCATIEGROEP_NAAM": "UNESCO Werelderfgoed Neder-Germaanse Limes (bufferzone)", "LOCATIE_NAAM": null}, "geometry": {"type": "Polygon", "coordinates": [[[5.122537745701837, 52.09200138008935], [5.122444403744218, 52.092008262125155], [5.122425747012112, 52.09200964034725], [5.122414272426545, 52.092010531363165], [5.1224153294892965, 52.09201190891053], [5.122355683157562, 52.09201586452411], [5.122124743089545, 52.09204414334307], [5.121992435042926, 52.09202483608231], [5.121848476629238, 52.09200409132967], [5.121848387121238, 52.09200196095728], [5.121780970188765, 52.09199244366235], [5.121781195872224, 52.09199375642756], [5.1217273456356205, 52.09198735254479], [5.121661066911079, 52.09197783774374], [5.121597568179138, 52.09196706185043], [5.121465956493422, 52.091946056822195], [5.121466415298644, 52.0919449703005], [5.121316878654534, 52.091917633063574], [5.121254131751872, 52.091905600351225], [5.121110609097673, 52.09188040658704], [5.12106841224791, 52.091872527692985], [5.1209062085246835, 52.09184548491384], [5.120833984887022, 52.09183459003505], [5.120780282361804, 52.09182548963335], [5.12078040257485, 52.09182490568081], [5.120728707040501, 52.091816933298276], [5.120727667493531, 52.0918175241612], [5.120554168012275, 52.09178837013794], [5.12055565436618, 52.09178626130408], [5.120502778951434, 52.09177550884233], [5.12033754052564, 52.09173383483474], [5.1201595669835305, 52.091647604883796], [5.119873463902402, 52.09150353404762], [5.119882829376432, 52.09143801431336], [5.119807321541078, 52.0913957070596], [5.119804077296208, 52.09139896237001], [5.119711584240854, 52.09136162288699], [5.119620297448805, 52.09132024143913], [5.119624249545706, 52.09131330263345], [5.119278102601154, 52.09123547991532], [5.119178730435003, 52.09121638812928], [5.118963122390165, 52.0911848260996], [5.118956115939011, 52.09120226498322], [5.118906633974634, 52.09119519564117], [5.118894898837691, 52.091193326385365], [5.118787624033931, 52.09118542440395], [5.118707747092638, 52.091178429592716], [5.1186513735979124, 52.09116964570634], [5.1186435069298035, 52.091169933383654], [5.118499654781367, 52.09116136360113], [5.118394856837659, 52.09116382115762], [5.118275568461911, 52.091161562790994], [5.118273595878915, 52.09104792217841], [5.118263041910695, 52.09104861715221], [5.118259732016612, 52.090844319854135], [5.118221741466641, 52.09084331641355], [5.118182357113036, 52.09084357709801], [5.118185158151813, 52.0907611629227], [5.118051415680801, 52.09075078208958], [5.117915831295036, 52.090740972134284], [5.117777675065285, 52.090729367521085], [5.117716730806511, 52.09072372755288], [5.117716240466219, 52.09072519148706], [5.117585263695582, 52.09071595792983], [5.1175260724846074, 52.09071482489278], [5.117478000596285, 52.09071118262735], [5.117478456126012, 52.090710653373435], [5.117419952658831, 52.09070678049597], [5.117355907244306, 52.090702436515144], [5.117289438747662, 52.09069582196005], [5.117289664401261, 52.090697116758186], [5.117151833123708, 52.09067765658438], [5.117185340886201, 52.09061871767638], [5.117202569359445, 52.09058797299997], [5.117212463582801, 52.09057085541267], [5.11721399491324, 52.090570984752006], [5.117247256251002, 52.09051174865527], [5.117277208943957, 52.09047124509391], [5.117342677600601, 52.09038472301931], [5.1173765919128344, 52.09033571679946], [5.117421907568785, 52.0902688593911], [5.117475486191503, 52.090189176919], [5.117478577359969, 52.090189543512906], [5.117541031810882, 52.09010669953793], [5.117623900966823, 52.08999694699094], [5.117669413467098, 52.08993604902366], [5.11766732883146, 52.08993572967597], [5.117715287697421, 52.08987563722081], [5.1177162922640385, 52.08987600802754], [5.11776709333142, 52.08981156283401], [5.117845821005825, 52.089706069995955], [5.1179881833023275, 52.089471608816986], [5.118155617770725, 52.08950788034476], [5.118269000954301, 52.089532973040406], [5.118348149599571, 52.0895538260956], [5.1183692644702505, 52.08955844916577], [5.1185341470821495, 52.08959698831711], [5.118671661393018, 52.08963233706349], [5.118760545456416, 52.08965517141076], [5.118874030557575, 52.08968285231801], [5.118939293827365, 52.08970044665874], [5.1189565585157375, 52.08970477324538], [5.119069661784035, 52.089740209797036], [5.119218221474098, 52.089505338797196], [5.119347038375088, 52.08930206075456], [5.119357734154034, 52.08928491784206], [5.119538292375529, 52.08932263733175], [5.119783263794787, 52.08937128833192], [5.119908387410761, 52.089397385775875], [5.1200422902758564, 52.08941939543212], [5.120579479356539, 52.089512253704], [5.12066693185688, 52.08952323710295], [5.120837547719833, 52.089567169840606], [5.1208559668520115, 52.089568775372456], [5.120865161150943, 52.08957091732485], [5.121071628314845, 52.08962706458871], [5.12109640451127, 52.08963437387731], [5.121193043915557, 52.08965862602856], [5.121215633827631, 52.089616451052], [5.121231017629983, 52.08958621394518], [5.1213623567082225, 52.08961262046835], [5.121475037945124, 52.08963586593916], [5.121583877219982, 52.089654968136564], [5.1217633647063785, 52.08968189611735], [5.1218107606364915, 52.08968867195021], [5.12198837679006, 52.08971872322284], [5.122148299218429, 52.08974050138577], [5.122370114207603, 52.08977277261269], [5.122567088900241, 52.089801167745286], [5.122765189412021, 52.08983168625664], [5.122860434658173, 52.0898451662079], [5.122956633791156, 52.08986020315518], [5.123151057870455, 52.08989071277751], [5.123152465513394, 52.089889547481256], [5.123319964578233, 52.08991336333326], [5.123505659514737, 52.08993960147864], [5.123695509862577, 52.08996640587753], [5.123841053280783, 52.089974712446995], [5.123929821176297, 52.089983134760296], [5.123932846726627, 52.089982260685254], [5.1240398967802365, 52.09002803319328], [5.124087696503974, 52.09016475845711], [5.124082262289809, 52.09017077732259], [5.124066717967984, 52.09020627245596], [5.124063439071599, 52.090215486893385], [5.124066155104406, 52.090222584537955], [5.124105572551197, 52.090256296847514], [5.12435542170498, 52.09030097647847], [5.124478499435086, 52.09032352319942], [5.124700557848287, 52.09039466395141], [5.124749056970893, 52.09041008757386], [5.12494445024126, 52.09047252199115], [5.12499663444461, 52.0904890951916], [5.125044899468227, 52.090504661980184], [5.1252101939557395, 52.09055666579389], [5.125372040177228, 52.090604545184505], [5.125454312775758, 52.09063353458968], [5.125496587849566, 52.090652916810875], [5.125532417223195, 52.0906691658547], [5.125626492950915, 52.090728390214174], [5.125753593441911, 52.090811946511415], [5.125797187315509, 52.09084041848027], [5.125877453948797, 52.090898191908316], [5.125892596920795, 52.09090872352576], [5.1259370854127715, 52.09094144877868], [5.125997141148778, 52.090989533148296], [5.126057397373566, 52.09104328939877], [5.1261190705680875, 52.09109179972616], [5.126178865248947, 52.09122471276211], [5.126175121408545, 52.09123364759714], [5.126104501817993, 52.0913378965846], [5.126091492745843, 52.09135673372189], [5.126058041171355, 52.09140546482294], [5.126049447635116, 52.091417786400825], [5.1260375961865945, 52.09143578121798], [5.125979763265043, 52.09151920614293], [5.125944105898714, 52.09155331773444], [5.125906101892558, 52.09159196308658], [5.12577683206377, 52.091721904595694], [5.125783499313609, 52.09172461579588], [5.125753626438681, 52.09175263725885], [5.125747190185309, 52.09175034900812], [5.1257261724919365, 52.09177123560078], [5.125673787596405, 52.09181614961865], [5.125497112451834, 52.09174312510199], [5.12547119476889, 52.091763497442614], [5.125401356328504, 52.091733834596305], [5.1252542976035125, 52.09167676636003], [5.125189450033132, 52.09173677039869], [5.125041034483457, 52.09167472848234], [5.125040291317686, 52.09168451483024], [5.125037170294711, 52.0917066454895], [5.125042659840254, 52.09171360546685], [5.1249833598567545, 52.09173077563173], [5.124978102942874, 52.091723959977976], [5.12476060966384, 52.09175894300403], [5.124696879792966, 52.09176759147], [5.124700501956861, 52.09177696509493], [5.1245541311748894, 52.09179919919268], [5.12446846368996, 52.0918361739825], [5.124287992095926, 52.09186074056406], [5.124150875009994, 52.09187504035843], [5.124149069366278, 52.09186695606197], [5.1240923874658995, 52.09187306731435], [5.124095779373386, 52.09188187419618], [5.124006823627012, 52.09188985481147], [5.124005927027526, 52.09188847763657], [5.123909166460995, 52.091893654457536], [5.123912676595925, 52.091922037609116], [5.123683445404702, 52.09193543007666], [5.123509732601822, 52.0919445421157], [5.123403006588764, 52.091922318596], [5.123321497048588, 52.09191716581662], [5.123178269762625, 52.09187386428673], [5.123138889798392, 52.0918905388419], [5.123137906099429, 52.09188908956082], [5.123050133878594, 52.091928898835555], [5.1229172273865204, 52.0919688945115], [5.122751543290828, 52.09198483637955], [5.122537745701837, 52.09200138008935]], [[5.123329229136419, 52.09158840876032], [5.123258881570673, 52.09164038208071], [5.123182803243863, 52.091674366400994], [5.1230980334472, 52.091697545529556], [5.123029378133495, 52.091709975024834], [5.122921335776338, 52.091720518596446], [5.122842498043407, 52.0917275323228], [5.122725716509683, 52.09173535970302], [5.122665890471383, 52.0917352255013], [5.122557948986509, 52.09172869164588], [5.122463177304871, 52.09171589561637], [5.12232321396137, 52.09169580755156], [5.122248897410595, 52.0916785632656], [5.122149806990478, 52.09165587040945], [5.122009907909377, 52.09162499643982], [5.1218190074883205, 52.09158232304595], [5.1204608006128245, 52.09128804508899], [5.120421462333758, 52.091278069220934], [5.120267016978401, 52.09123996981274], [5.120176635185079, 52.091225384265535], [5.120167917809411, 52.09121907287851], [5.120169419881527, 52.09121188582831], [5.120169441340277, 52.09120829065095], [5.120167987550749, 52.09120738855209], [5.120209122790528, 52.09116074376523], [5.12020766900174, 52.091159841666915], [5.1202120732788075, 52.091155357607136], [5.120213532431332, 52.091155360911046], [5.120245853675249, 52.091118583024844], [5.120267950089848, 52.091083579595825], [5.120273893941844, 52.09106561692147], [5.120275379904123, 52.09106112625284], [5.120274081631487, 52.09103415911868], [5.120263974846838, 52.09101616010853], [5.12026109409063, 52.09100986194128], [5.120315054990615, 52.090770002747334], [5.120318042971742, 52.0907583250253], [5.120377732724555, 52.090580469450025], [5.1203861409721085, 52.09055541177352], [5.120401234134219, 52.090510442680696], [5.1204409039992145, 52.09046469329992], [5.1204409093583285, 52.09046379450545], [5.1204704456197385, 52.090404540089146], [5.120501489149747, 52.09033719981481], [5.120504407401394, 52.0903372064155], [5.120508790136624, 52.090336317521825], [5.1205439377244355, 52.09031482565529], [5.120546872045566, 52.09031213587141], [5.1205512815617995, 52.09030675300378], [5.120582276695805, 52.09024750185748], [5.120620653039755, 52.09017388648484], [5.120617740154207, 52.09017298109252], [5.1206206851724865, 52.090168493717734], [5.1206236034131445, 52.09016850031545], [5.120656036054612, 52.090112847625235], [5.120731018541542, 52.09001774360109], [5.120783455710291, 52.090033141806835], [5.12082449825328, 52.09000177630248], [5.120868475017778, 52.08996772099162], [5.1209066259638325, 52.089931854893806], [5.120943307039306, 52.089897783077696], [5.120977075186201, 52.08986280586647], [5.120987353135437, 52.08985204339224], [5.121016759928936, 52.08981435990253], [5.121038806971017, 52.08978744547215], [5.121040266078927, 52.08978744876583], [5.121041741227679, 52.089784755675716], [5.121068213678593, 52.08974976196917], [5.121074108914443, 52.08973988840169], [5.121111035598771, 52.08966447198], [5.1215104190990735, 52.089734580713255], [5.122479735664874, 52.08990393894598], [5.122968017951797, 52.08999311722044], [5.123123888595468, 52.090036609130856], [5.123335137104178, 52.09009190925886], [5.123415219023192, 52.09012085025086], [5.12349816630983, 52.09015878566177], [5.12358249871592, 52.09020930740195], [5.123643527692537, 52.09025258654324], [5.123673441560958, 52.09027959063433], [5.12373493376419, 52.090340873856995], [5.12378849809155, 52.09041289804999], [5.123836300139556, 52.09047232605652], [5.123846365914962, 52.09049751511996], [5.123857800896463, 52.09053798695035], [5.1238471160990935, 52.09061795686168], [5.1237319538341355, 52.090846895237085], [5.123528256104428, 52.091242813535516], [5.123364439961532, 52.09155613052287], [5.123329229136419, 52.09158840876032]]]}}, {"type": "Feature", "id": "56016", "properties": {"OBJECTID": "56016", "LOCATIEGROEP_ID": "nl.imow-pv26.gebiedengroep.003000000000000000000710", "SYMBOOL_CODE": "vsgt134", "GROEP": "werelderfgoed", "9e750651-8e97-4bc6-b09e-fc30b5f3e83c_id": "6683", "LOCATIE_ID": "nl.imow-pv26.gebied.003000000000000000000710e95719", "DOCUMENT_URL": "https://omgevingsbeleid.provincie-utrecht.nl/home?d=/akn/nl/act/pv26/2022/omgevingsverordening/nld@1089&o=", "NAAM": "UNESCO Werelderfgoed Neder-Germaanse Limes (bufferzone)", "TYPE": "erfgoed", "LOCATIEGROEP_NAAM": "UNESCO Werelderfgoed Neder-Germaanse Limes (bufferzone)", "LOCATIE_NAAM": null}, "geometry": {"type": "Polygon", "coordinates": [[[5.170218823968425, 52.063994132118374], [5.1699498363205585, 52.064016646188705], [5.169626015990221, 52.06405134516838], [5.169466640343295, 52.06406025469614], [5.169367025006145, 52.064066209519105], [5.168941633013585, 52.06408916918009], [5.167634574700164, 52.06285992138387], [5.164125153075161, 52.06112474195274], [5.159328857439153, 52.05970323145856], [5.159330471817542, 52.059165287894785], [5.159339417134201, 52.059126656363084], [5.1593772960301205, 52.05913302125493], [5.15949523857186, 52.059165606324164], [5.159674294215553, 52.05922347593907], [5.159883884093201, 52.059298481560376], [5.160075959004356, 52.059377048296746], [5.160246226522089, 52.05944298939182], [5.160384543268552, 52.05948370208459], [5.1608169561998745, 52.059613063204395], [5.161192590673673, 52.05972523648744], [5.161588613753536, 52.05984284045435], [5.162140429428641, 52.06000657995682], [5.163006745211548, 52.060263492876835], [5.163587689477841, 52.06043626907095], [5.164120595055687, 52.06059367171865], [5.164186118253273, 52.06061267071001], [5.164229371503263, 52.06041860967167], [5.1642399320875345, 52.06034762369093], [5.1642531583665985, 52.060326976088184], [5.164259013342868, 52.06032249311462], [5.164330847411066, 52.06024533133598], [5.165056858516243, 52.06057027329706], [5.165411883729521, 52.060725537096275], [5.165619978737879, 52.060811315371936], [5.1659576651648464, 52.06093508658828], [5.166299741286463, 52.06105616863002], [5.1667563067197095, 52.0611999790228], [5.167370494577199, 52.06139072991311], [5.1674674248990105, 52.0614196725457], [5.1675708680146455, 52.061437841521354], [5.1680535681663775, 52.06149015182996], [5.168473029612679, 52.061532995211984], [5.1690207347000925, 52.06158611424274], [5.16933005663616, 52.06161457643193], [5.169781991894246, 52.06163698231526], [5.17003869945898, 52.061623973393125], [5.1707316978014894, 52.0615515457197], [5.170833325136011, 52.061544460941214], [5.171121169382839, 52.0615243972292], [5.171274270736915, 52.0615264754031], [5.171424438401402, 52.06153214324464], [5.1714657896037455, 52.06153891506191], [5.171541002784145, 52.061551231558596], [5.171792937043077, 52.06162090052975], [5.172178646372466, 52.061769908270854], [5.172193176577691, 52.06178072048546], [5.1722512629565305, 52.0618311597361], [5.172415824106453, 52.06187640016149], [5.172640270985577, 52.061901076766254], [5.172733054607782, 52.06170979926371], [5.172847598442477, 52.06154193029507], [5.172798093087115, 52.06152656050402], [5.1728816702093745, 52.06143053990676], [5.1729534696992285, 52.06135786688295], [5.173058906013407, 52.06126458231476], [5.1730898028584535, 52.0612071146493], [5.173129667807166, 52.061103823990614], [5.17312976232568, 52.06108405035856], [5.173312523745586, 52.06098191787219], [5.173279011522605, 52.0609764642025], [5.17322369972054, 52.060955691194906], [5.173177158476097, 52.060930440039684], [5.173136475743684, 52.06089980664966], [5.173085633149305, 52.06085926788849], [5.173021735911467, 52.06080432443648], [5.172928877632872, 52.06070708426933], [5.1728448160451315, 52.06059997312162], [5.1728245222618225, 52.06057476955369], [5.172689916475138, 52.06036510208944], [5.172676879203962, 52.06034710217542], [5.173226396559018, 52.06039124384069], [5.173275415942746, 52.060395170730814], [5.173513545670424, 52.06041423498325], [5.173560189470019, 52.06041791476963], [5.173573647272208, 52.060347832031496], [5.173728160030382, 52.060358897672494], [5.173683374167405, 52.06057722722308], [5.173649845058921, 52.06057536886484], [5.173622912367561, 52.06071912955743], [5.173695794889686, 52.06072465444756], [5.173744704204888, 52.060864957275065], [5.174247579533079, 52.060599819299426], [5.1746350074553025, 52.06038660198057], [5.174949718064633, 52.06020929472235], [5.175174555542248, 52.06007299046383], [5.17532522482736, 52.059971695928304], [5.175495670850917, 52.058771192766976], [5.175650335523424, 52.057575972788115], [5.175732489430284, 52.05704970533052], [5.179194523529956, 52.05711082791891], [5.179110305714839, 52.059245001335874], [5.175051388799156, 52.06145742046325], [5.175072281323053, 52.06169828498439], [5.174812392842118, 52.061745768474125], [5.174542072047619, 52.061803631792166], [5.174458963841475, 52.06237863875043], [5.174433634917062, 52.06265168716932], [5.173336550638258, 52.06267441010909], [5.173260594548307, 52.062841522660996], [5.172910885440815, 52.063001459673444], [5.172961507116994, 52.06305207374086], [5.172975562479238, 52.06304643678849], [5.17305310764003, 52.06309621890931], [5.173241763379581, 52.0632180265298], [5.173046106419111, 52.06331915575357], [5.172905998894784, 52.063376577701845], [5.17282125618445, 52.063404619252], [5.172906391031653, 52.06344700009506], [5.173041956098149, 52.06353445789339], [5.173097636585686, 52.06357026871684], [5.173135798955059, 52.06359784157724], [5.173184954325642, 52.06363202265329], [5.173236261966154, 52.063670521897805], [5.173320136274688, 52.06373275483917], [5.173375992505511, 52.063774614831914], [5.173772875361893, 52.06386983484193], [5.173834446276938, 52.0638693441012], [5.173931469157365, 52.063776744625464], [5.1739351007252825, 52.06364804176544], [5.173906117064735, 52.06364661414762], [5.173902754411596, 52.063608624399734], [5.173792869989471, 52.063603275342444], [5.173880188351575, 52.063502865663146], [5.173969098496036, 52.06342945901713], [5.174079212162086, 52.063429451424], [5.174336030631493, 52.06316798456745], [5.174309098050671, 52.06387013037356], [5.174309891006531, 52.063896583749674], [5.1735024422205, 52.063893262202], [5.172420948664436, 52.063912220925744], [5.1718025696439245, 52.06391417551324], [5.1713444095920975, 52.063931745043014], [5.170883614651585, 52.06397847430514], [5.170759070175257, 52.06398898645701], [5.1704279994770195, 52.063982239236516], [5.170218823968425, 52.063994132118374]]]}}, {"type": "Feature", "id": "56017", "properties": {"OBJECTID": "56017", "LOCATIEGROEP_ID": "nl.imow-pv26.gebiedengroep.003000000000000000000710", "SYMBOOL_CODE": "vsgt134", "GROEP": "werelderfgoed", "9e750651-8e97-4bc6-b09e-fc30b5f3e83c_id": "6684", "LOCATIE_ID": "nl.imow-pv26.gebied.003000000000000000000710e95720", "DOCUMENT_URL": "https://omgevingsbeleid.provincie-utrecht.nl/home?d=/akn/nl/act/pv26/2022/omgevingsverordening/nld@1089&o=", "NAAM": "UNESCO Werelderfgoed Neder-Germaanse Limes (bufferzone)", "TYPE": "erfgoed", "LOCATIEGROEP_NAAM": "UNESCO Werelderfgoed Neder-Germaanse Limes (bufferzone)", "LOCATIE_NAAM": null}, "geometry": {"type": "Polygon", "coordinates": [[[5.017226496105212, 52.08169695112264], [5.018091136372164, 52.08135244185127], [5.018842802326779, 52.08106138511124], [5.019726917572372, 52.080738783815654], [5.019685669022692, 52.08078761349153], [5.019283621698943, 52.081070383784024], [5.019247084880104, 52.08107835904211], [5.019260993031889, 52.08116109313692], [5.018805925199823, 52.08132685075855], [5.018824016684721, 52.08143296708208], [5.019279092921274, 52.08126631060561], [5.019288787317285, 52.08132925768438], [5.019963545902655, 52.08127499734946], [5.01880566351705, 52.08171654772997], [5.01809222192546, 52.08199011620695], [5.0172894472104375, 52.0823162142368], [5.016416695356037, 52.08265773502106], [5.015537455704622, 52.08301292678475], [5.014750614415036, 52.08332731930142], [5.014377898040311, 52.08347676391094], [5.0135564900715925, 52.08374605361256], [5.012824223579651, 52.08398627454307], [5.012419847712924, 52.084123873936264], [5.011490322869973, 52.08441040419576], [5.010767429483821, 52.084666299539414], [5.010018501086538, 52.08499643887292], [5.009358802405414, 52.085285774819], [5.009166104435573, 52.085364593971825], [5.008992499378455, 52.08543878227315], [5.008833704805091, 52.0855368543409], [5.008796136852502, 52.085319374145115], [5.007960907642143, 52.08537295563457], [5.008085746349369, 52.085249833513224], [5.0082328559533416, 52.085141325631604], [5.008539049075655, 52.084977997849116], [5.009001085026809, 52.084783881742595], [5.009407147607705, 52.08460054096372], [5.009947628289015, 52.08436440142263], [5.010486017347999, 52.08414900628385], [5.011119766340168, 52.08392217448669], [5.011963378358104, 52.08365688225518], [5.0130808597947265, 52.083292694414915], [5.013924529916051, 52.08301760928049], [5.014593481991737, 52.08275174503079], [5.01523116332133, 52.082492735117825], [5.015251655419411, 52.082614471922355], [5.015295413800626, 52.08261550880261], [5.0153348553601305, 52.08260934155462], [5.0157143683346535, 52.08258537147631], [5.015700443920129, 52.08250533335204], [5.015709204532232, 52.08250446215023], [5.015823055156523, 52.08249763040824], [5.015853721013603, 52.08249413177298], [5.015853698634334, 52.08249682813753], [5.015864832411735, 52.08256157765349], [5.01587039931241, 52.08259395241086], [5.015933167633047, 52.08258965606744], [5.015963818629633, 52.08258795498003], [5.015961050060073, 52.08256997002718], [5.016061771071734, 52.082563096703005], [5.016060327122781, 52.082561294533264], [5.01601284354385, 52.08230588249728], [5.0161033445372, 52.08229987576714], [5.016099199080573, 52.08227199955325], [5.016078558470448, 52.08214680200145], [5.016186207152586, 52.082104869761864], [5.01623774692295, 52.08210166142941], [5.016272899180349, 52.08226086172552], [5.016320682212561, 52.08248032213073], [5.016434517787306, 52.082475287374216], [5.016431726690897, 52.08245999879664], [5.016452173030034, 52.08245736667229], [5.016453631886828, 52.082457371260766], [5.016567482279305, 52.08245053879918], [5.016585003448186, 52.08244879626591], [5.016587921161194, 52.08244880543951], [5.016598140601549, 52.082447938758314], [5.016710524649462, 52.08244200036007], [5.0167120058332735, 52.082439308580504], [5.017402398588048, 52.08222216645311], [5.017353302924506, 52.082160893226515], [5.017242463252804, 52.08180371715543], [5.017214715648324, 52.081807225311074], [5.017200350267956, 52.081780215867965], [5.017236783978617, 52.0817848242841], [5.017226496105212, 52.08169695112264]]]}}], "properties": {"sourceId": "agrest-ov-unesco-werelderfgoed-neder-germaanse-limes-bufferzone", "title": "Omgevingsverordening — UNESCO Werelderfgoed Neder-Germaanse Limes (bufferzone)", "serviceUrl": "https://agrest.geodata-utrecht.nl/rest/services/Omgevingsverordening/FeatureServer", "layerId": 0, "role": "conditional", "authoritative": true, "licenseNote": "Structured open data of provincie Utrecht on agrest.geodata-utrecht.nl; service is anonymously queryable; no license statement exposed by the endpoint itself (platform presented as open data).", "lastChecked": "2026-10-05T07:01:26Z", "where": "NAAM='UNESCO Werelderfgoed Neder-Germaanse Limes (bufferzone)'", "fetchedAt": "2026-10-05T07:01:27Z", "userAgent": "ldttoolbox-geoconnector/0.1 (wind-turbine opportunity-map PoC; cache-first, single-page politeness; open data of provincie Utrecht via geo-point.provincie-utrecht.nl)", "pages": 1, "featureCount": 8, "bbox": null, "simplifyM": null, "queryFingerprint": "{\"bbox\": null, \"simplify_m\": null}", "crs": "OGC:CRS84/WGS84 (RFC 7946 default, no crs member)"}}