{"type": "FeatureCollection", "name": "agrest-ov-unesco-werelderfgoed-neder-germaanse-limes-bufferzone", "crs": {"type": "name", "properties": {"name": "EPSG:28992"}}, "features": [{"type": "Feature", "id": "56014", "properties": {"OBJECTID": "56014", "LOCATIEGROEP_ID": "nl.imow-pv26.gebiedengroep.003000000000000000000710", "SYMBOOL_CODE": "vsgt134", "GROEP": "werelderfgoed", "9e750651-8e97-4bc6-b09e-fc30b5f3e83c_id": "6664", "LOCATIE_ID": "nl.imow-pv26.gebied.003000000000000000000710e95722", "DOCUMENT_URL": "https://omgevingsbeleid.provincie-utrecht.nl/home?d=/akn/nl/act/pv26/2022/omgevingsverordening/nld@1089&o=", "NAAM": "UNESCO Werelderfgoed Neder-Germaanse Limes (bufferzone)", "TYPE": "erfgoed", "LOCATIEGROEP_NAAM": "UNESCO Werelderfgoed Neder-Germaanse Limes (bufferzone)", "LOCATIE_NAAM": null}, "geometry": {"type": "Polygon", "coordinates": [[[120521.13899999857, 455527.0689999983], [120516.4149999991, 455531.4059999995], [120512.36899999902, 455535.15399999917], [120512.35200000182, 455535.2589999996], [120504.38300000131, 455541.1339999996], [120497.02499999851, 455545.5720000006], [120492.24399999902, 455548.42599999905], [120480.75400000066, 455554.48000000045], [120464.13899999857, 455562.72100000083], [120454.35200000182, 455545.125], [120454.01900000125, 455544.45800000057], [120449.73299999908, 455536.6039999984], [120450.89400000125, 455535.95800000057], [120442.28500000015, 455520.15300000086], [120424.05799999833, 455519.65300000086], [120421.67300000042, 455520.9450000003], [120419.93100000173, 455521.74500000104], [120407.70100000128, 455528.34800000116], [120401.27600000054, 455531.8189999983], [120392.31700000167, 455516.0229999982], [120391.80799999833, 455515.1090000011], [120391.10200000182, 455515.47199999914], [120383.6259999983, 455501.4990000017], [120383.82400000095, 455501.39400000125], [120379.25800000131, 455492.561999999], [120371.6409999989, 455478.7650000006], [120370.84600000083, 455477.2520000003], [120368.92599999905, 455478.2950000018], [120360.73200000077, 455462.99500000104], [120356.77400000021, 455455.45600000024], [120354.72300000116, 455456.6030000001], [120334.86400000006, 455419.80099999905], [120345.98200000077, 455413.76999999955], [120341.44000000134, 455405.4780000001], [120332.75600000098, 455390.02699999884], [120341.12099999934, 455376.84099999815], [120346.12099999934, 455369.4840000011], [120330.82899999991, 455359.27600000054], [120336.6400000006, 455350.61199999973], [120339.19900000095, 455346.7259999998], [120346.04300000146, 455337.33900000155], [120417.8200000003, 455241.26000000164], [120430.58700000122, 455226.5639999993], [120434.28299999982, 455219.0949999988], [120437.43800000101, 455216.51399999857], [120440.94000000134, 455215.7890000008], [120451.92599999905, 455217.0029999986], [120487.97199999914, 455224.1570000015], [120493.15700000152, 455225.03599999845], [120548.84099999815, 455235.99500000104], [120554.77600000054, 455237.4219999984], [120654.5390000008, 455258.5540000014], [120649.79699999839, 455279.88899999857], [120657.55799999833, 455311.99500000104], [120662.68400000036, 455332.7749999985], [120627.92700000107, 455343.8440000005], [120629.9149999991, 455350.11499999836], [120638.80000000075, 455374.24500000104], [120628.08100000024, 455381.6070000008], [120624.49500000104, 455385.05000000075], [120624.63599999994, 455385.11499999836], [120621.08199999854, 455388.5560000017], [120620.45600000024, 455389.1770000011], [120617.29399999976, 455393.0799999982], [120614.5159999989, 455397.0460000001], [120610.5390000008, 455403.05999999866], [120608.98900000006, 455405.7030000016], [120603.49700000137, 455414.4970000014], [120598.97599999979, 455422.22399999946], [120594.0, 455430.41800000146], [120593.27699999884, 455431.54100000113], [120589.97100000083, 455437.0789999999], [120584.27699999884, 455445.54399999976], [120582.72100000083, 455453.7179999985], [120574.41099999845, 455465.48000000045], [120571.78400000185, 455469.45699999854], [120568.44700000063, 455474.15100000054], [120568.37799999863, 455474.10500000045], [120564.67199999839, 455479.14400000125], [120559.00699999928, 455486.84899999946], [120558.28400000185, 455488.0700000003], [120556.44000000134, 455490.34099999815], [120553.12700000033, 455494.4239999987], [120552.59099999815, 455495.08399999887], [120552.39499999955, 455495.30700000003], [120550.00400000066, 455498.01000000164], [120550.08199999854, 455498.06700000167], [120549.83399999887, 455498.375], [120548.4149999991, 455500.12000000104], [120546.52400000021, 455502.5219999999], [120546.1259999983, 455503.01999999955], [120542.56799999997, 455507.0370000005], [120537.1959999986, 455512.55999999866], [120534.78200000152, 455515.08399999887], [120533.79500000179, 455516.1070000008], [120532.60000000149, 455517.3299999982], [120529.99500000104, 455519.59099999815], [120524.14699999988, 455524.6629999988], [120523.74100000039, 455525.0219999999], [120521.13899999857, 455527.0689999983]], [[120419.92300000042, 455408.6000000015], [120472.83199999854, 455318.01399999857], [120473.80200000107, 455316.1979999989], [120478.30000000075, 455308.5], [120581.5, 455371.5], [120581.60000000149, 455372.1000000015], [120582.69999999925, 455376.80000000075], [120582.82699999958, 455380.9759999998], [120582.95199999958, 455381.0480000004], [120583.22300000116, 455390.0], [120581.42300000042, 455396.3999999985], [120579.32299999893, 455402.80000000075], [120577.02299999818, 455408.19999999925], [120574.82299999893, 455412.3999999985], [120570.42300000042, 455420.5], [120566.42300000042, 455427.0], [120563.02299999818, 455432.19999999925], [120557.30000000075, 455438.78500000015], [120554.62299999967, 455444.0], [120550.02299999818, 455452.8999999985], [120548.42300000042, 455455.80000000075], [120546.22300000116, 455459.69999999925], [120545.12299999967, 455461.3999999985], [120540.62299999967, 455468.0], [120537.92300000042, 455471.5], [120537.22300000116, 455472.0], [120534.92300000042, 455475.19999999925], [120532.12299999967, 455478.6000000015], [120419.92300000042, 455408.6000000015]]]}}, {"type": "Feature", "id": "56010", "properties": {"OBJECTID": "56010", "LOCATIEGROEP_ID": "nl.imow-pv26.gebiedengroep.003000000000000000000710", "SYMBOOL_CODE": "vsgt134", "GROEP": "werelderfgoed", "9e750651-8e97-4bc6-b09e-fc30b5f3e83c_id": "6677", "LOCATIE_ID": "nl.imow-pv26.gebied.003000000000000000000710e95725", "DOCUMENT_URL": "https://omgevingsbeleid.provincie-utrecht.nl/home?d=/akn/nl/act/pv26/2022/omgevingsverordening/nld@1089&o=", "NAAM": "UNESCO Werelderfgoed Neder-Germaanse Limes (bufferzone)", "TYPE": "erfgoed", "LOCATIEGROEP_NAAM": "UNESCO Werelderfgoed Neder-Germaanse Limes (bufferzone)", "LOCATIE_NAAM": null}, "geometry": {"type": "Polygon", "coordinates": [[[131860.41099999845, 456299.7030000016], [131860.0, 456251.80000000075], [131992.00499999896, 456251.80000000075], [131992.08700000122, 456254.70600000024], [132082.58300000057, 456309.3350000009], [132093.23699999973, 456316.1090000011], [132082.25299999863, 456336.96400000155], [132078.1640000008, 456344.7259999998], [132063.23000000045, 456364.9389999993], [132059.03700000048, 456370.61499999836], [132092.5, 456317.30000000075], [131990.5, 456255.5], [131916.69999999925, 456256.30000000075], [131860.41099999845, 456299.7030000016]]]}}, {"type": "Feature", "id": "56011", "properties": {"OBJECTID": "56011", "LOCATIEGROEP_ID": "nl.imow-pv26.gebiedengroep.003000000000000000000710", "SYMBOOL_CODE": "vsgt134", "GROEP": "werelderfgoed", "9e750651-8e97-4bc6-b09e-fc30b5f3e83c_id": "6678", "LOCATIE_ID": "nl.imow-pv26.gebied.003000000000000000000710e95726", "DOCUMENT_URL": "https://omgevingsbeleid.provincie-utrecht.nl/home?d=/akn/nl/act/pv26/2022/omgevingsverordening/nld@1089&o=", "NAAM": "UNESCO Werelderfgoed Neder-Germaanse Limes (bufferzone)", "TYPE": "erfgoed", "LOCATIEGROEP_NAAM": "UNESCO Werelderfgoed Neder-Germaanse Limes (bufferzone)", "LOCATIE_NAAM": null}, "geometry": {"type": "Polygon", "coordinates": [[[132052.97300000116, 456378.82400000095], [132041.8350000009, 456393.90300000086], [132020.29300000146, 456396.51000000164], [132015.9840000011, 456404.4470000006], [132008.9549999982, 456414.5379999988], [131844.89600000158, 456433.92500000075], [131832.08399999887, 456419.8660000004], [131828.7960000001, 456415.55799999833], [131823.69399999827, 456408.868999999], [131818.0249999985, 456390.5009999983], [131811.33999999985, 456366.125], [131811.33999999985, 456329.69999999925], [131858.6000000015, 456329.69999999925], [131858.6000000015, 456330.0], [131839.80000000075, 456330.0], [131837.3999999985, 456332.3999999985], [131838.0, 456384.30000000075], [131898.75, 456382.7430000007], [131898.75, 456382.9050000012], [131930.56500000134, 456382.03599999845], [131945.1889999993, 456381.63599999994], [131994.1000000015, 456380.30000000075], [132000.0, 456372.6000000015], [132009.6000000015, 456379.8999999985], [132011.69999999925, 456379.8999999985], [132052.97300000116, 456378.82400000095]]]}}, {"type": "Feature", "id": "56012", "properties": {"OBJECTID": "56012", "LOCATIEGROEP_ID": "nl.imow-pv26.gebiedengroep.003000000000000000000710", "SYMBOOL_CODE": "vsgt134", "GROEP": "werelderfgoed", "9e750651-8e97-4bc6-b09e-fc30b5f3e83c_id": "6679", "LOCATIE_ID": "nl.imow-pv26.gebied.003000000000000000000710e95723", "DOCUMENT_URL": "https://omgevingsbeleid.provincie-utrecht.nl/home?d=/akn/nl/act/pv26/2022/omgevingsverordening/nld@1089&o=", "NAAM": "UNESCO Werelderfgoed Neder-Germaanse Limes (bufferzone)", "TYPE": "erfgoed", "LOCATIEGROEP_NAAM": "UNESCO Werelderfgoed Neder-Germaanse Limes (bufferzone)", "LOCATIE_NAAM": null}, "geometry": {"type": "Polygon", "coordinates": [[[128128.9459999986, 455998.09800000116], [128108.94200000167, 455942.0639999993], [128324.21700000018, 455872.8509999998], [128364.04300000146, 455860.8819999993], [128388.19900000095, 455855.006000001], [128416.0549999997, 455851.7410000004], [128484.60700000077, 455841.9479999989], [128534.87900000066, 455835.63699999824], [128620.6240000017, 455828.01999999955], [128676.98900000006, 455826.061999999], [128708.54500000179, 455827.1499999985], [128748.15300000086, 455830.1959999986], [128766.65100000054, 455829.3260000013], [128787.97800000012, 455824.3209999986], [128802.34200000018, 455818.2270000018], [128817.1400000006, 455809.3040000014], [128826.71599999815, 455801.686999999], [128853.91899999976, 455776.8779999986], [128880.03400000185, 455749.67500000075], [128896.79199999943, 455729.2179999985], [128907.45499999821, 455712.8960000016], [128917.90100000054, 455693.30999999866], [128931.39400000125, 455662.1889999993], [128937.92300000042, 455643.69099999964], [128946.84600000083, 455618.2280000001], [128949.45699999854, 455608.2179999985], [128952.06899999827, 455594.2899999991], [128955.33300000057, 455571.0029999986], [128960.55600000173, 455531.3960000016], [128969.6959999986, 455476.98900000006], [128976.00800000131, 455407.131000001], [128980.14200000092, 455369.0460000001], [128983.41099999845, 455356.7879999988], [129048.67000000179, 455349.83199999854], [129043.75899999961, 455359.5870000012], [129040.42500000075, 455371.6579999998], [129036.07200000063, 455408.65399999917], [129029.76099999994, 455477.8590000011], [129020.83900000155, 455534.44200000167], [129015.1799999997, 455573.3969999999], [129012.35099999979, 455595.813000001], [129009.95699999854, 455609.95899999887], [129005.38699999824, 455630.6330000013], [128997.55200000107, 455655.0069999993], [128975.57200000063, 455710.7199999988], [128961.86199999973, 455738.1409999989], [128944.45199999958, 455764.90900000185], [128925.30099999905, 455788.84699999914], [128886.23699999973, 455828.8909999989], [128858.16299999878, 455853.91800000146], [128839.44700000063, 455865.6700000018], [128823.34299999848, 455874.80999999866], [128805.28000000119, 455881.9910000004], [128771.32999999821, 455888.73800000176], [128742.60300000012, 455890.04399999976], [128700.16600000113, 455886.3440000005], [128673.39799999818, 455885.69099999964], [128621.16800000146, 455888.3029999994], [128539.33999999985, 455894.83100000024], [128491.24500000104, 455901.1420000009], [128419.64600000158, 455911.15300000086], [128375.90300000086, 455918.76999999955], [128128.9459999986, 455998.09800000116]], [[128126.40900000185, 455987.9750000015], [128117.80999999866, 455963.9970000014], [128282.38300000131, 455909.3229999989], [128287.26900000125, 455926.58900000155], [128237.1409999989, 455942.0450000018], [128239.47700000182, 455948.88699999824], [128126.40900000185, 455987.9750000015]]]}}, {"type": "Feature", "id": "56013", "properties": {"OBJECTID": "56013", "LOCATIEGROEP_ID": "nl.imow-pv26.gebiedengroep.003000000000000000000710", "SYMBOOL_CODE": "vsgt134", "GROEP": "werelderfgoed", "9e750651-8e97-4bc6-b09e-fc30b5f3e83c_id": "6680", "LOCATIE_ID": "nl.imow-pv26.gebied.003000000000000000000710e95721", "DOCUMENT_URL": "https://omgevingsbeleid.provincie-utrecht.nl/home?d=/akn/nl/act/pv26/2022/omgevingsverordening/nld@1089&o=", "NAAM": "UNESCO Werelderfgoed Neder-Germaanse Limes (bufferzone)", "TYPE": "erfgoed", "LOCATIEGROEP_NAAM": "UNESCO Werelderfgoed Neder-Germaanse Limes (bufferzone)", "LOCATIE_NAAM": null}, "geometry": {"type": "Polygon", "coordinates": [[[131511.8280000016, 455778.4629999995], [131475.85399999842, 455779.5760000013], [131462.0, 455780.0], [131459.19999999925, 455783.1000000015], [131456.5, 455785.30000000075], [131453.8999999985, 455786.69999999925], [131451.80000000075, 455787.19999999925], [131443.5, 455788.3999999985], [131383.73299999908, 455788.30000000075], [131186.5, 455786.69999999925], [131175.04899999872, 455690.05700000003], [131149.83399999887, 455514.30700000003], [131132.5, 455394.1000000015], [131133.6000000015, 455393.80000000075], [131144.53500000015, 455314.9070000015], [131146.55200000107, 455314.3020000011], [131152.5009999983, 455282.2340000011], [131162.55200000107, 455255.7470000014], [131166.7190000005, 455244.756000001], [131180.87200000137, 455207.6959999986], [131186.40100000054, 455206.98900000006], [131185.86899999902, 455204.41899999976], [131180.98900000006, 455166.63599999994], [131185.05600000173, 455165.35500000045], [131182.28700000048, 455156.0689999983], [131174.9059999995, 455130.97199999914], [131171.16600000113, 455109.7670000009], [131168.3590000011, 455101.1970000006], [131177.9750000015, 455081.07499999925], [131164.27600000054, 455042.2749999985], [131166.61300000176, 455041.1099999994], [131155.58100000024, 455007.7349999994], [131148.8040000014, 454986.8280000016], [131197.70199999958, 454972.69299999997], [131206.1799999997, 454970.3029999994], [131215.19999999925, 454967.7589999996], [131229.35200000182, 454963.83399999887], [131240.9219999984, 454960.6270000003], [131241.12900000066, 454960.5689999983], [131253.10599999875, 454957.5240000002], [131252.63599999994, 454955.6090000011], [131265.71700000018, 454951.86100000143], [131266.18200000003, 454953.6479999982], [131274.06799999997, 454951.30900000036], [131285.01199999824, 454948.06599999964], [131301.29399999976, 454943.23900000006], [131320.48900000006, 454937.4510000013], [131343.43100000173, 454930.5320000015], [131352.87700000033, 454927.68299999833], [131355.2250000015, 454926.95699999854], [131366.16000000015, 454923.5069999993], [131369.85500000045, 454922.34699999914], [131372.6640000008, 454921.54199999943], [131382.73099999875, 454918.33399999887], [131387.9750000015, 454916.6959999986], [131401.13599999994, 454912.75], [131407.33100000024, 454910.8969999999], [131418.25299999863, 454907.68400000036], [131423.3599999994, 454906.19999999925], [131426.13899999857, 454905.4539999999], [131427.1409999989, 454905.1860000007], [131429.6330000013, 454904.61400000006], [131435.30099999905, 454903.33900000155], [131438.21299999952, 454902.8660000004], [131446.99500000104, 454901.4389999993], [131448.2030000016, 454901.2470000014], [131449.67300000042, 454901.0390000008], [131451.34899999946, 454900.89400000125], [131454.46400000155, 454900.7419999987], [131455.76000000164, 454900.69900000095], [131457.20899999887, 454900.65100000054], [131457.7049999982, 454900.6339999996], [131459.54100000113, 454900.6160000004], [131460.3599999994, 454900.6090000011], [131462.40399999917, 454900.73800000176], [131463.82200000063, 454900.8280000016], [131465.23800000176, 454900.91899999976], [131466.27699999884, 454900.9829999991], [131468.07600000128, 454901.09800000116], [131469.51700000092, 454901.19000000134], [131470.09899999946, 454901.2270000018], [131470.8599999994, 454901.27800000086], [131472.2659999989, 454901.3720000014], [131473.71499999985, 454901.4690000005], [131474.04199999943, 454901.4930000007], [131475.6959999986, 454901.6570000015], [131477.10799999908, 454901.7969999984], [131478.5460000001, 454901.90900000185], [131480.0300000012, 454902.0240000002], [131481.3830000013, 454902.1279999986], [131482.86100000143, 454902.27800000086], [131483.71299999952, 454902.368999999], [131485.82299999893, 454902.6469999999], [131487.35200000182, 454902.84800000116], [131488.76300000027, 454903.03400000185], [131490.13899999857, 454903.21499999985], [131492.94200000167, 454903.58399999887], [131495.12000000104, 454903.8530000001], [131496.51000000164, 454904.01999999955], [131497.94799999893, 454904.1939999983], [131499.3909999989, 454904.3680000007], [131500.77800000086, 454904.53400000185], [131502.27899999917, 454904.71599999815], [131503.79300000146, 454904.8979999982], [131504.1000000015, 454904.93499999866], [131505.55200000107, 454905.1090000011], [131507.04399999976, 454905.2890000008], [131508.2509999983, 454905.43400000036], [131509.8990000002, 454905.59800000116], [131511.42599999905, 454905.7490000017], [131512.95699999854, 454905.90199999884], [131514.37700000033, 454906.04300000146], [131515.86800000072, 454906.19000000134], [131516.19700000063, 454906.22199999914], [131514.5850000009, 454917.5390000008], [131514.24799999967, 454923.7340000011], [131515.24599999934, 454935.27899999917], [131514.71599999815, 454935.2419999987], [131515.563000001, 454950.76900000125], [131520.3599999994, 454976.14400000125], [131531.26099999994, 454975.44099999964], [131532.47399999946, 454987.2829999998], [131532.8599999994, 454991.0949999988], [131533.6950000003, 454999.30799999833], [131534.01700000092, 455002.4600000009], [131535.2659999989, 455014.71499999985], [131536.42700000107, 455026.08999999985], [131537.28799999878, 455034.1889999993], [131539.46599999815, 455054.23000000045], [131541.79899999872, 455075.1429999992], [131544.0850000009, 455095.86300000176], [131544.36300000176, 455098.3900000006], [131545.3909999989, 455107.75499999896], [131546.62299999967, 455118.96499999985], [131547.3049999997, 455124.9750000015], [131549.48000000045, 455144.56500000134], [131551.5469999984, 455163.1889999993], [131553.65700000152, 455182.3669999987], [131555.94299999997, 455203.2969999984], [131559.2749999985, 455233.01300000027], [131562.6339999996, 455264.0029999986], [131563.37000000104, 455270.7969999984], [131565.92300000042, 455356.61400000006], [131572.49500000104, 455405.3289999999], [131578.6719999984, 455451.1020000018], [131580.60200000182, 455465.33900000155], [131579.95100000128, 455465.2989999987], [131574.98900000006, 455465.01399999857], [131578.91299999878, 455507.4979999997], [131587.54100000113, 455618.9210000001], [131593.8299999982, 455670.61400000006], [131594.16699999943, 455673.3770000003], [131596.49399999902, 455776.5780000016], [131589.29100000113, 455776.61300000176], [131589.34099999815, 455777.1649999991], [131546.1339999996, 455776.98000000045], [131511.8280000016, 455778.4629999995]], [[131279.93299999833, 455158.3260000013], [131277.03400000185, 455148.23999999836], [131274.80000000075, 455140.8999999985], [131281.8999999985, 455140.69999999925], [131287.80000000075, 455140.69999999925], [131295.1000000015, 455140.80000000075], [131301.30000000075, 455140.8999999985], [131310.30000000075, 455142.0], [131317.80000000075, 455143.0], [131324.1000000015, 455144.3999999985], [131331.30000000075, 455146.0], [131339.30000000075, 455148.69999999925], [131346.69999999925, 455151.69999999925], [131353.69999999925, 455155.30000000075], [131361.3999999985, 455159.3999999985], [131369.80000000075, 455164.69999999925], [131378.5, 455170.30000000075], [131384.69999999925, 455174.8999999985], [131392.0, 455180.6000000015], [131396.19999999925, 455184.0], [131400.5, 455187.80000000075], [131406.69999999925, 455192.80000000075], [131412.6000000015, 455197.5], [131419.19999999925, 455202.6000000015], [131424.69999999925, 455207.69999999925], [131430.0, 455212.6000000015], [131438.1000000015, 455220.80000000075], [131444.0, 455227.0], [131449.19999999925, 455232.6000000015], [131454.3999999985, 455238.19999999925], [131459.19999999925, 455243.30000000075], [131464.6000000015, 455249.5], [131470.19999999925, 455256.5], [131476.1000000015, 455263.69999999925], [131480.8999999985, 455271.30000000075], [131486.3999999985, 455278.69999999925], [131492.0, 455286.6000000015], [131499.438000001, 455298.2280000001], [131500.80000000075, 455300.1000000015], [131502.5789999999, 455303.13699999824], [131504.8999999985, 455307.1000000015], [131509.30000000075, 455314.1000000015], [131520.19999999925, 455336.69999999925], [131530.1000000015, 455358.80000000075], [131545.20199999958, 455403.49500000104], [131557.09299999848, 455450.1240000017], [131561.75600000098, 455465.0709999986], [131563.21599999815, 455469.0540000014], [131567.07699999958, 455494.73699999973], [131568.3999999985, 455507.19999999925], [131568.59099999815, 455514.91000000015], [131568.36400000006, 455524.78400000185], [131567.5460000001, 455530.6950000003], [131567.51700000092, 455530.9050000012], [131567.48600000143, 455530.53599999845], [131567.19999999925, 455533.19999999925], [131565.69999999925, 455538.30000000075], [131563.0, 455547.69999999925], [131557.35200000182, 455560.77600000054], [131555.69999999925, 455564.6000000015], [131553.73800000176, 455568.25], [131548.6009999998, 455574.5489999987], [131544.39200000092, 455579.34899999946], [131550.81899999827, 455641.10500000045], [131554.14299999923, 455670.41099999845], [131554.31700000167, 455691.7710000016], [131533.87200000137, 455698.26099999994], [131516.48800000176, 455703.22199999914], [131499.28799999878, 455707.34800000116], [131488.16200000048, 455709.48000000045], [131474.80999999866, 455709.7580000013], [131465.81700000167, 455708.9239999987], [131463.24300000072, 455708.5859999992], [131460.16099999845, 455708.18200000003], [131458.55299999937, 455707.7170000002], [131455.70199999958, 455706.8909999989], [131450.0469999984, 455705.25400000066], [131445.99799999967, 455703.9519999996], [131441.0, 455702.3449999988], [131433.686999999, 455699.4789999984], [131421.47899999842, 455694.2890000008], [131408.78200000152, 455688.70699999854], [131398.24799999967, 455683.5080000013], [131381.07499999925, 455673.6970000006], [131367.04100000113, 455664.35500000045], [131355.90199999884, 455656.11300000176], [131351.25200000033, 455652.3729999997], [131345.1700000018, 455645.4829999991], [131337.85700000077, 455636.1939999983], [131325.37099999934, 455618.1429999992], [131314.69700000063, 455602.3299999982], [131298.58799999952, 455579.2039999999], [131280.50200000033, 455553.3110000007], [131272.39799999818, 455540.16699999943], [131267.45699999854, 455530.0870000012], [131266.1719999984, 455527.6160000004], [131261.03299999982, 455512.8900000006], [131243.9360000007, 455515.36100000143], [131242.34299999848, 455513.436999999], [131238.89600000158, 455485.5150000006], [131238.12900000066, 455482.8350000009], [131236.5709999986, 455480.8590000011], [131234.05900000036, 455478.8110000007], [131232.04199999943, 455477.2890000008], [131230.8900000006, 455475.73099999875], [131230.39600000158, 455472.9629999995], [131228.25299999863, 455455.21599999815], [131227.19099999964, 455446.0760000013], [131226.43100000173, 455441.0940000005], [131225.98900000006, 455438.6710000001], [131224.86199999973, 455437.28599999845], [131222.58900000155, 455435.90300000086], [131219.42599999905, 455434.0249999985], [131216.93100000173, 455432.27899999917], [131215.2749999985, 455430.3680000007], [131214.87999999896, 455428.88599999994], [131212.70600000024, 455410.01000000164], [131210.86499999836, 455402.27800000086], [131207.50200000033, 455375.42500000075], [131221.69999999925, 455371.30000000075], [131240.1000000015, 455367.19999999925], [131257.1000000015, 455362.80000000075], [131274.9059999995, 455358.19000000134], [131293.1339999996, 455353.2410000004], [131298.5089999996, 455351.7710000016], [131307.24399999902, 455349.3839999996], [131307.1959999986, 455349.30099999905], [131307.19999999925, 455349.30000000075], [131305.6000000015, 455346.5], [131303.8999999985, 455343.3999999985], [131298.8999999985, 455332.3999999985], [131296.1000000015, 455326.8999999985], [131293.8999999985, 455321.6000000015], [131292.3299999982, 455317.83199999854], [131290.8999999985, 455314.3999999985], [131289.3999999985, 455309.5], [131287.69999999925, 455306.19999999925], [131332.4690000005, 455294.631000001], [131326.6000000015, 455281.80000000075], [131315.0, 455284.80000000075], [131292.3909999989, 455202.2030000016], [131290.73699999973, 455196.16099999845], [131288.79399999976, 455189.15900000185], [131279.93299999833, 455158.3260000013]]]}}, {"type": "Feature", "id": "56015", "properties": {"OBJECTID": "56015", "LOCATIEGROEP_ID": "nl.imow-pv26.gebiedengroep.003000000000000000000710", "SYMBOOL_CODE": "vsgt134", "GROEP": "werelderfgoed", "9e750651-8e97-4bc6-b09e-fc30b5f3e83c_id": "6682", "LOCATIE_ID": "nl.imow-pv26.gebied.003000000000000000000710e95724", "DOCUMENT_URL": "https://omgevingsbeleid.provincie-utrecht.nl/home?d=/akn/nl/act/pv26/2022/omgevingsverordening/nld@1089&o=", "NAAM": "UNESCO Werelderfgoed Neder-Germaanse Limes (bufferzone)", "TYPE": "erfgoed", "LOCATIEGROEP_NAAM": "UNESCO Werelderfgoed Neder-Germaanse Limes (bufferzone)", "LOCATIE_NAAM": null}, "geometry": {"type": "Polygon", "coordinates": [[[136862.2259999998, 456004.64400000125], [136855.83199999854, 456005.43299999833], [136854.5540000014, 456005.59099999815], [136853.76799999923, 456005.69299999997], [136853.84099999815, 456005.84600000083], [136849.75499999896, 456006.30099999905], [136833.94000000134, 456009.50499999896], [136824.86499999836, 456007.3900000006], [136814.9910000004, 456005.1180000007], [136814.9840000011, 456004.881000001], [136810.3599999994, 456003.83900000155], [136810.3759999983, 456003.9849999994], [136806.68299999833, 456003.28599999845], [136802.13699999824, 456002.243999999], [136797.7809999995, 456001.0610000007], [136788.75299999863, 455998.7569999993], [136788.78400000185, 455998.63599999994], [136778.5249999985, 455995.6319999993], [136774.2199999988, 455994.30900000036], [136764.3740000017, 455991.54199999943], [136761.47899999842, 455990.67599999905], [136750.35200000182, 455987.70800000057], [136745.39799999818, 455986.51399999857], [136741.71400000155, 455985.5150000006], [136741.72199999914, 455985.44999999925], [136738.17599999905, 455984.5760000013], [136738.10500000045, 455984.6420000009], [136726.2030000016, 455981.44200000167], [136726.3040000014, 455981.20699999854], [136722.67599999905, 455980.0240000002], [136711.3350000009, 455975.4290000014], [136699.10300000012, 455965.87999999896], [136679.436999999, 455949.9230000004], [136680.05200000107, 455942.631000001], [136674.8599999994, 455937.94299999997], [136674.63899999857, 455938.3060000017], [136668.28500000015, 455934.17500000075], [136662.01199999824, 455929.5940000005], [136662.2800000012, 455928.8209999986], [136638.52600000054, 455920.25], [136631.70800000057, 455918.15100000054], [136616.91899999976, 455914.6939999983], [136616.4459999986, 455916.63599999994], [136613.05200000107, 455915.86199999973], [136612.24700000137, 455915.6570000015], [136604.89200000092, 455914.8049999997], [136599.4149999991, 455914.0469999984], [136595.54800000042, 455913.08399999887], [136595.0089999996, 455913.1180000007], [136585.14699999988, 455912.2010000013], [136577.96599999815, 455912.5009999983], [136569.7899999991, 455912.2800000012], [136569.60799999908, 455899.63699999824], [136568.88500000164, 455899.7170000002], [136568.57400000095, 455876.98800000176], [136565.9699999988, 455876.88599999994], [136563.27100000158, 455876.92500000075], [136563.4290000014, 455867.75499999896], [136554.2589999996, 455866.6339999996], [136544.96299999952, 455865.5769999996], [136535.48999999836, 455864.3209999986], [136531.3110000007, 455863.70899999887], [136531.27800000086, 455863.8720000014], [136522.29800000042, 455862.8779999986], [136518.2410000004, 455862.7670000009], [136514.9450000003, 455862.3740000017], [136514.9759999998, 455862.31500000134], [136510.96499999985, 455861.8990000002], [136506.57400000095, 455861.43200000003], [136502.0159999989, 455860.7129999995], [136502.03200000152, 455860.8570000008], [136492.5780000016, 455858.7270000018], [136494.8500000015, 455852.16099999845], [136496.01799999923, 455848.73600000143], [136496.6889999993, 455846.8289999999], [136496.79399999976, 455846.8429999985], [136499.04899999872, 455840.243999999], [136501.0850000009, 455835.73000000045], [136505.53599999845, 455826.0870000012], [136507.83999999985, 455820.6259999983], [136510.91800000146, 455813.17599999905], [136514.55700000003, 455804.2969999984], [136514.76900000125, 455804.3370000012], [136519.0150000006, 455795.1039999984], [136524.6490000002, 455782.8720000014], [136527.74300000072, 455776.0850000009], [136527.6000000015, 455776.05000000075], [136530.86199999973, 455769.3520000018], [136530.93100000173, 455769.3929999992], [136534.38599999994, 455762.2100000009], [136539.73800000176, 455750.4530000016], [136549.39799999818, 455724.33100000024], [136560.88800000027, 455728.32400000095], [136568.66899999976, 455731.0870000012], [136574.10200000182, 455733.38699999824], [136575.55099999905, 455733.8960000016], [136586.8669999987, 455738.1420000009], [136596.30600000173, 455742.0399999991], [136602.40700000152, 455744.55799999833], [136610.1959999986, 455747.6090000011], [136614.67599999905, 455749.55000000075], [136615.86100000143, 455750.02699999884], [136623.62700000033, 455753.94099999964], [136633.71200000122, 455727.7719999999], [136642.45699999854, 455705.1229999997], [136643.18299999833, 455703.2129999995], [136655.57299999893, 455707.36400000006], [136672.38199999928, 455712.71499999985], [136680.96799999848, 455715.5870000012], [136690.15399999917, 455718.0020000003], [136727.0080000013, 455728.1979999989], [136733.00600000098, 455729.3979999982], [136744.71700000018, 455734.2430000007], [136745.98000000045, 455734.41699999943], [136746.61100000143, 455734.65300000086], [136760.78400000185, 455740.84800000116], [136762.4849999994, 455741.6550000012], [136769.11800000072, 455744.3289999999], [136770.6490000002, 455739.631000001], [136771.69099999964, 455736.26300000027], [136780.7030000016, 455739.16800000146], [136788.43499999866, 455741.7259999998], [136795.90199999884, 455743.82400000095], [136808.21400000155, 455746.7749999985], [136811.46499999985, 455747.5170000009], [136823.6499999985, 455750.81599999964], [136834.61899999902, 455753.19900000095], [136849.83399999887, 455756.7340000011], [136863.3449999988, 455759.8440000005], [136876.93400000036, 455763.19000000134], [136883.46700000018, 455764.66600000113], [136890.06599999964, 455766.31500000134], [136903.40300000086, 455769.66099999845], [136903.4990000017, 455769.5309999995], [136914.98800000176, 455772.13899999857], [136927.7250000015, 455775.01199999824], [136940.74700000137, 455777.9470000006], [136950.7250000015, 455778.8350000009], [136956.811999999, 455779.75], [136957.01900000125, 455779.65199999884], [136964.3740000017, 455784.7179999985], [136967.7049999982, 455799.91800000146], [136967.3350000009, 455800.58900000155], [136966.28400000185, 455804.54199999943], [136966.063000001, 455805.56799999997], [136966.25200000033, 455806.3570000008], [136968.96700000018, 455810.09800000116], [136986.10799999908, 455815.0069999993], [136994.55200000107, 455817.4849999994], [137009.79899999872, 455825.3449999988], [137013.12900000066, 455827.0489999987], [137026.5450000018, 455833.9470000006], [137030.12799999863, 455835.77800000086], [137033.44200000167, 455837.4979999997], [137044.79100000113, 455843.2430000007], [137055.90199999884, 455848.5300000012], [137061.55200000107, 455851.7349999994], [137064.45699999854, 455853.881000001], [137066.91899999976, 455855.6799999997], [137073.3900000006, 455862.24599999934], [137082.1339999996, 455871.51099999994], [137085.1330000013, 455874.66800000146], [137090.65700000152, 455881.0760000013], [137091.69900000095, 455882.243999999], [137094.76099999994, 455885.8740000017], [137098.89600000158, 455891.20899999887], [137103.0469999984, 455897.17500000075], [137107.29300000146, 455902.55700000003], [137111.44399999827, 455917.3299999982], [137111.19099999964, 455918.32499999925], [137106.39299999923, 455929.94099999964], [137105.5089999996, 455932.0399999991], [137103.23600000143, 455937.4699999988], [137102.65199999884, 455938.8429999985], [137101.84699999914, 455940.84800000116], [137097.91699999943, 455950.14400000125], [137095.48699999973, 455953.9479999989], [137092.89799999818, 455958.2569999993], [137084.09099999815, 455972.74599999934], [137084.54899999872, 455973.0460000001], [137082.51300000027, 455976.1710000001], [137082.0709999986, 455975.91800000146], [137080.63899999857, 455978.2470000014], [137077.06700000167, 455983.2569999993], [137064.9299999997, 455975.17599999905], [137063.16200000048, 455977.44900000095], [137058.36400000006, 455974.16600000113], [137048.26300000027, 455967.8530000001], [137043.84299999848, 455974.5450000018], [137033.64699999988, 455967.6790000014], [137033.6000000015, 455968.7679999992], [137033.39499999955, 455971.23099999875], [137033.7740000002, 455972.00400000066], [137029.71700000018, 455973.9290000014], [137029.35399999842, 455973.1719999984], [137014.46299999952, 455977.1180000007], [137010.09899999946, 455978.09600000083], [137010.3509999998, 455979.13800000027], [137000.3289999999, 455981.6479999982], [136994.47300000116, 455985.7829999998], [136982.11499999836, 455988.5610000007], [136972.72399999946, 455990.1860000007], [136972.59699999914, 455989.2870000005], [136968.71499999985, 455989.98099999875], [136968.95100000128, 455990.9600000009], [136962.85799999908, 455991.87000000104], [136962.7960000001, 455991.7170000002], [136956.16699999943, 455992.31700000167], [136956.41899999976, 455995.47399999946], [136940.71499999985, 455997.0210000016], [136928.8139999993, 455998.0780000016], [136921.4910000004, 455995.6319999993], [136915.90300000086, 455995.0789999999], [136906.0700000003, 455990.2969999984], [136903.37799999863, 455992.1620000005], [136903.30999999866, 455992.0009999983], [136897.3110000007, 455996.4519999996], [136888.2190000005, 456000.93499999866], [136876.87099999934, 456002.75], [136862.2259999998, 456004.64400000125]], [[136916.30000000075, 455958.5], [136911.5, 455964.30000000075], [136906.30000000075, 455968.1000000015], [136900.5, 455970.69999999925], [136895.80000000075, 455972.1000000015], [136888.3999999985, 455973.30000000075], [136883.0, 455974.1000000015], [136875.0, 455975.0], [136870.8999999985, 455975.0], [136863.5, 455974.30000000075], [136857.0, 455972.8999999985], [136847.3999999985, 455970.69999999925], [136842.30000000075, 455968.80000000075], [136835.5, 455966.30000000075], [136825.8999999985, 455962.8999999985], [136812.80000000075, 455958.19999999925], [136719.6000000015, 455925.80000000075], [136716.8999999985, 455924.69999999925], [136706.30000000075, 455920.5], [136700.1000000015, 455918.8999999985], [136699.5, 455918.19999999925], [136699.6000000015, 455917.3999999985], [136699.6000000015, 455917.0], [136699.5, 455916.8999999985], [136702.30000000075, 455911.69999999925], [136702.19999999925, 455911.6000000015], [136702.5, 455911.1000000015], [136702.6000000015, 455911.1000000015], [136704.80000000075, 455907.0], [136706.30000000075, 455903.1000000015], [136706.69999999925, 455901.1000000015], [136706.80000000075, 455900.6000000015], [136706.69999999925, 455897.6000000015], [136706.0, 455895.6000000015], [136705.80000000075, 455894.8999999985], [136709.3999999985, 455868.19999999925], [136709.6000000015, 455866.8999999985], [136713.61800000072, 455847.09699999914], [136714.18400000036, 455844.30700000003], [136715.19999999925, 455839.30000000075], [136717.8999999985, 455834.19999999925], [136717.8999999985, 455834.1000000015], [136719.8999999985, 455827.5], [136722.0, 455820.0], [136722.19999999925, 455820.0], [136722.5, 455819.8999999985], [136724.8999999985, 455817.5], [136725.1000000015, 455817.19999999925], [136725.3999999985, 455816.6000000015], [136727.5, 455810.0], [136730.1000000015, 455801.80000000075], [136729.8999999985, 455801.69999999925], [136730.1000000015, 455801.19999999925], [136730.30000000075, 455801.19999999925], [136732.5, 455795.0], [136737.6000000015, 455784.3999999985], [136741.19999999925, 455786.1000000015], [136744.0, 455782.6000000015], [136747.0, 455778.80000000075], [136749.6000000015, 455774.80000000075], [136752.1000000015, 455771.0], [136754.3999999985, 455767.1000000015], [136755.1000000015, 455765.8999999985], [136757.1000000015, 455761.69999999925], [136758.6000000015, 455758.69999999925], [136758.69999999925, 455758.69999999925], [136758.80000000075, 455758.3999999985], [136760.6000000015, 455754.5], [136761.0, 455753.3999999985], [136763.5, 455745.0], [136790.8999999985, 455752.69999999925], [136857.3999999985, 455771.30000000075], [136890.8999999985, 455781.1000000015], [136901.6000000015, 455785.8999999985], [136916.1000000015, 455792.0], [136921.6000000015, 455795.19999999925], [136927.30000000075, 455799.3999999985], [136933.1000000015, 455805.0], [136937.30000000075, 455809.80000000075], [136939.36100000143, 455812.7969999984], [136943.6000000015, 455819.6000000015], [136947.30000000075, 455827.6000000015], [136950.6000000015, 455834.19999999925], [136951.30000000075, 455837.0], [136952.1000000015, 455841.5], [136951.3999999985, 455850.3999999985], [136943.6000000015, 455875.8999999985], [136929.80000000075, 455920.0], [136918.69999999925, 455954.8999999985], [136916.30000000075, 455958.5]]]}}, {"type": "Feature", "id": "56016", "properties": {"OBJECTID": "56016", "LOCATIEGROEP_ID": "nl.imow-pv26.gebiedengroep.003000000000000000000710", "SYMBOOL_CODE": "vsgt134", "GROEP": "werelderfgoed", "9e750651-8e97-4bc6-b09e-fc30b5f3e83c_id": "6683", "LOCATIE_ID": "nl.imow-pv26.gebied.003000000000000000000710e95719", "DOCUMENT_URL": "https://omgevingsbeleid.provincie-utrecht.nl/home?d=/akn/nl/act/pv26/2022/omgevingsverordening/nld@1089&o=", "NAAM": "UNESCO Werelderfgoed Neder-Germaanse Limes (bufferzone)", "TYPE": "erfgoed", "LOCATIEGROEP_NAAM": "UNESCO Werelderfgoed Neder-Germaanse Limes (bufferzone)", "LOCATIE_NAAM": null}, "geometry": {"type": "Polygon", "coordinates": [[[140120.5399999991, 452877.76300000027], [140102.10200000182, 452880.3229999989], [140079.90799999982, 452884.25], [140068.98200000077, 452885.2740000002], [140062.15300000086, 452885.95699999854], [140032.98999999836, 452888.59899999946], [139942.94700000063, 452752.10500000045], [139701.69399999827, 452559.78500000015], [139372.27699999884, 452402.65100000054], [139372.19999999925, 452342.80000000075], [139372.80000000075, 452338.5], [139375.3999999985, 452339.19999999925], [139383.5, 452342.80000000075], [139395.80000000075, 452349.19999999925], [139410.19999999925, 452357.5], [139423.3999999985, 452366.19999999925], [139435.1000000015, 452373.5], [139444.6000000015, 452378.0], [139474.30000000075, 452392.30000000075], [139500.1000000015, 452404.69999999925], [139527.30000000075, 452417.69999999925], [139565.19999999925, 452435.80000000075], [139624.69999999925, 452464.19999999925], [139664.6000000015, 452483.30000000075], [139701.19999999925, 452500.69999999925], [139705.69999999925, 452502.80000000075], [139708.6000000015, 452481.19999999925], [139709.30000000075, 452473.30000000075], [139710.19999999925, 452471.0], [139710.6000000015, 452470.5], [139715.5, 452461.8999999985], [139765.3999999985, 452497.8999999985], [139789.80000000075, 452515.1000000015], [139804.1000000015, 452524.6000000015], [139827.30000000075, 452538.30000000075], [139850.80000000075, 452551.69999999925], [139882.15900000185, 452567.60500000045], [139924.34299999848, 452588.69999999925], [139931.0, 452591.8999999985], [139938.1000000015, 452593.8999999985], [139971.2199999988, 452599.62000000104], [140000.0, 452604.30000000075], [140037.5780000016, 452610.09699999914], [140058.80000000075, 452613.19999999925], [140089.80000000075, 452615.6000000015], [140107.3999999985, 452614.1000000015], [140154.8999999985, 452605.8999999985], [140161.8669999987, 452605.09099999815], [140181.6000000015, 452602.80000000075], [140192.1000000015, 452603.0], [140202.3999999985, 452603.6000000015], [140205.23800000176, 452604.3449999988], [140210.3999999985, 452605.69999999925], [140227.69999999925, 452613.3999999985], [140254.19999999925, 452629.8999999985], [140255.19999999925, 452631.1000000015], [140259.19999999925, 452636.69999999925], [140270.5, 452641.69999999925], [140285.8999999985, 452644.3999999985], [140292.19999999925, 452623.1000000015], [140300.0, 452604.3999999985], [140296.6000000015, 452602.69999999925], [140302.30000000075, 452592.0], [140307.19999999925, 452583.8999999985], [140314.3999999985, 452573.5], [140316.5, 452567.1000000015], [140319.19999999925, 452555.6000000015], [140319.19999999925, 452553.3999999985], [140331.69999999925, 452542.0], [140329.3999999985, 452541.3999999985], [140325.6000000015, 452539.1000000015], [140322.3999999985, 452536.30000000075], [140319.6000000015, 452532.8999999985], [140316.1000000015, 452528.3999999985], [140311.69999999925, 452522.30000000075], [140305.30000000075, 452511.5], [140299.5, 452499.6000000015], [140298.1000000015, 452496.80000000075], [140288.80000000075, 452473.5], [140287.8999999985, 452471.5], [140325.6000000015, 452476.30000000075], [140328.96299999952, 452476.7270000018], [140345.30000000075, 452478.80000000075], [140348.5, 452479.19999999925], [140349.3999999985, 452471.3999999985], [140360.0, 452472.6000000015], [140357.0, 452496.8999999985], [140354.69999999925, 452496.69999999925], [140352.8999999985, 452512.69999999925], [140357.8999999985, 452513.30000000075], [140361.30000000075, 452528.8999999985], [140395.69999999925, 452499.30000000075], [140422.19999999925, 452475.5], [140443.7250000015, 452455.7100000009], [140459.1000000015, 452440.5], [140469.3999999985, 452429.19999999925], [140480.69999999925, 452295.6000000015], [140490.9200000018, 452162.59099999815], [140496.3839999996, 452104.0229999982], [140733.8449999988, 452110.13800000027], [140728.7490000017, 452347.59899999946], [140451.10300000012, 452594.5540000014], [140452.61400000006, 452621.34800000116], [140434.80700000003, 452626.68299999833], [140416.28799999878, 452633.17500000075], [140410.77600000054, 452697.16600000113], [140409.12799999863, 452727.55000000075], [140333.90199999884, 452730.2989999987], [140328.74799999967, 452748.9070000015], [140304.81899999827, 452766.7719999999], [140308.30700000003, 452772.3929999992], [140309.26900000125, 452771.76300000027], [140314.60300000012, 452777.28599999845], [140327.5799999982, 452790.80000000075], [140314.1959999986, 452802.09099999815], [140304.60700000077, 452808.5080000013], [140298.8049999997, 452811.64499999955], [140304.65700000152, 452816.3429999985], [140313.98200000077, 452826.0460000001], [140317.811999999, 452830.01900000125], [140320.438000001, 452833.0789999999], [140323.8200000003, 452836.8720000014], [140327.3509999998, 452841.14499999955], [140333.12299999967, 452848.0520000011], [140336.96700000018, 452852.6979999989], [140364.21400000155, 452863.2120000012], [140368.4360000007, 452863.14499999955], [140375.05900000036, 452852.8229999989], [140375.2659999989, 452838.5029999986], [140373.27800000086, 452838.3500000015], [140373.03500000015, 452834.1240000017], [140365.49799999967, 452833.55099999905], [140371.4530000016, 452822.36199999973], [140377.52600000054, 452814.1770000011], [140385.07699999958, 452814.15399999917], [140402.60300000012, 452785.01199999824], [140400.9849999994, 452863.13699999824], [140401.04800000042, 452866.0799999982], [140345.67700000107, 452865.8729999997], [140271.52100000158, 452868.2010000013], [140229.1169999987, 452868.54399999976], [140197.7049999982, 452870.5920000002], [140166.12200000137, 452875.88500000164], [140157.5850000009, 452877.0799999982], [140134.87999999896, 452876.3969999999], [140120.5399999991, 452877.76300000027]]]}}, {"type": "Feature", "id": "56017", "properties": {"OBJECTID": "56017", "LOCATIEGROEP_ID": "nl.imow-pv26.gebiedengroep.003000000000000000000710", "SYMBOOL_CODE": "vsgt134", "GROEP": "werelderfgoed", "9e750651-8e97-4bc6-b09e-fc30b5f3e83c_id": "6684", "LOCATIE_ID": "nl.imow-pv26.gebied.003000000000000000000710e95720", "DOCUMENT_URL": "https://omgevingsbeleid.provincie-utrecht.nl/home?d=/akn/nl/act/pv26/2022/omgevingsverordening/nld@1089&o=", "NAAM": "UNESCO Werelderfgoed Neder-Germaanse Limes (bufferzone)", "TYPE": "erfgoed", "LOCATIEGROEP_NAAM": "UNESCO Werelderfgoed Neder-Germaanse Limes (bufferzone)", "LOCATIE_NAAM": null}, "geometry": {"type": "Polygon", "coordinates": [[[129639.34499999881, 454889.7270000018], [129698.41800000146, 454851.09600000083], [129749.77800000086, 454818.4519999996], [129810.19999999925, 454782.2529999986], [129807.39999999851, 454787.69999999925], [129780.0, 454819.30000000075], [129777.5, 454820.19999999925], [129778.5, 454829.3999999985], [129747.39999999851, 454848.0], [129748.69999999925, 454859.80000000075], [129779.80000000075, 454841.1000000015], [129780.5, 454848.1000000015], [129826.72199999914, 454841.8289999999], [129747.60200000182, 454891.3570000008], [129698.85300000012, 454922.04199999943], [129644.01099999994, 454958.6030000001], [129584.38199999928, 454996.9050000012], [129524.31700000167, 455036.73099999875], [129470.56300000101, 455071.98600000143], [129445.10099999979, 455088.743999999], [129388.95300000161, 455118.993999999], [129338.89900000021, 455145.9789999984], [129311.26099999994, 455161.4310000017], [129247.71400000155, 455193.63899999857], [129198.31300000101, 455222.3660000004], [129147.17100000009, 455259.36300000176], [129102.12200000137, 455291.7890000008], [129088.9600000009, 455300.6270000003], [129077.10399999842, 455308.94299999997], [129066.27699999884, 455319.91099999845], [129063.57600000128, 455295.7280000001], [129006.3599999994, 455301.98800000176], [129014.84499999881, 455288.24500000104], [129024.86499999836, 455276.12000000104], [129045.75699999928, 455257.83900000155], [129077.31300000101, 455236.0769999996], [129105.0390000008, 455215.53400000185], [129141.94799999893, 455189.0689999983], [129178.72599999979, 455164.9129999988], [129222.03400000185, 455139.4510000013], [129279.70499999821, 455109.63599999994], [129356.09200000018, 455068.72199999914], [129413.76300000027, 455037.8189999983], [129459.46400000155, 455008.00400000066], [129503.02600000054, 454978.9629999995], [129504.5, 454992.5], [129507.5, 454992.6000000015], [129510.19999999925, 454991.8999999985], [129536.19999999925, 454989.1000000015], [129535.19999999925, 454980.19999999925], [129535.80000000075, 454980.1000000015], [129543.60000000149, 454979.30000000075], [129545.69999999925, 454978.8999999985], [129545.69999999925, 454979.19999999925], [129546.5, 454986.3999999985], [129546.89999999851, 454990.0], [129551.19999999925, 454989.5], [129553.30000000075, 454989.30000000075], [129553.10000000149, 454987.30000000075], [129560.0, 454986.5], [129559.89999999851, 454986.30000000075], [129556.5, 454957.8999999985], [129562.69999999925, 454957.19999999925], [129562.39999999851, 454954.1000000015], [129560.9140000008, 454940.1779999994], [129568.26900000125, 454935.4750000015], [129571.80000000075, 454935.1000000015], [129574.30000000075, 454952.80000000075], [129577.69999999925, 454977.19999999925], [129585.5, 454976.6000000015], [129585.30000000075, 454974.8999999985], [129586.69999999925, 454974.6000000015], [129586.80000000075, 454974.6000000015], [129594.60000000149, 454973.80000000075], [129595.80000000075, 454973.6000000015], [129596.0, 454973.6000000015], [129596.69999999925, 454973.5], [129604.39999999851, 454972.80000000075], [129604.5, 454972.5], [129651.69999999925, 454948.1000000015], [129648.30000000075, 454941.30000000075], [129640.5, 454901.6000000015], [129638.60000000149, 454902.0], [129637.60000000149, 454899.0], [129640.10000000149, 454899.5], [129639.34499999881, 454889.7270000018]]]}}], "properties": {"sourceId": "agrest-ov-unesco-werelderfgoed-neder-germaanse-limes-bufferzone", "title": "Omgevingsverordening — UNESCO Werelderfgoed Neder-Germaanse Limes (bufferzone)", "serviceUrl": "https://agrest.geodata-utrecht.nl/rest/services/Omgevingsverordening/FeatureServer", "layerId": 0, "role": "conditional", "authoritative": true, "licenseNote": "Structured open data of provincie Utrecht on agrest.geodata-utrecht.nl; service is anonymously queryable; no license statement exposed by the endpoint itself (platform presented as open data).", "lastChecked": "2026-10-05T07:01:26Z", "where": "NAAM='UNESCO Werelderfgoed Neder-Germaanse Limes (bufferzone)'", "fetchedAt": "2026-10-05T07:01:27Z", "userAgent": "ldttoolbox-geoconnector/0.1 (wind-turbine opportunity-map PoC; cache-first, single-page politeness; open data of provincie Utrecht via geo-point.provincie-utrecht.nl)", "pages": 1, "featureCount": 8, "bbox": null, "simplifyM": null, "queryFingerprint": "{\"bbox\": null, \"simplify_m\": null}"}}