{
  "type": "FeatureCollection",
  "features": [
    {
      "type": "Feature",
      "properties": {
        "bagId": "NL.IMBAG.Pand.0344100000001236",
        "b3_h_maaiveld": 1.6430000066757202,
        "b3_volume_lod22": 47.243499755859375
      },
      "geometry": {
        "type": "Polygon",
        "coordinates": [
          [
            [
              49145,
              102543
            ],
            [
              51543,
              96733
            ],
            [
              54061,
              97787
            ],
            [
              51660,
              103603
            ],
            [
              49145,
              102543
            ]
          ]
        ]
      }
    },
    {
      "type": "Feature",
      "properties": {
        "bagId": "NL.IMBAG.Pand.0344100000005327",
        "b3_h_maaiveld": 2.3529999256134033,
        "b3_volume_lod22": 1916.50830078125
      },
      "geometry": {
        "type": "Polygon",
        "coordinates": [
          [
            [
              0,
              69952
            ],
            [
              1733,
              65822
            ],
            [
              7077,
              53962
            ],
            [
              16313,
              57827
            ],
            [
              13323,
              64967
            ],
            [
              11123,
              69757
            ],
            [
              9283,
              74147
            ],
            [
              7847,
              73546
            ],
            [
              7952,
              73291
            ],
            [
              5160,
              72136
            ],
            [
              0,
              69952
            ]
          ]
        ]
      }
    },
    {
      "type": "Feature",
      "properties": {
        "bagId": "NL.IMBAG.Pand.0344100000009921",
        "b3_h_maaiveld": 1.6430000066757202,
        "b3_volume_lod22": 42.26224899291992
      },
      "geometry": {
        "type": "Polygon",
        "coordinates": [
          [
            [
              33918,
              89330
            ],
            [
              31570,
              95155
            ],
            [
              29253,
              94188
            ],
            [
              31669,
              88397
            ],
            [
              33918,
              89330
            ]
          ]
        ]
      }
    },
    {
      "type": "Feature",
      "properties": {
        "bagId": "NL.IMBAG.Pand.0344100000014926",
        "b3_h_maaiveld": 1.6690000295639038,
        "b3_volume_lod22": 45.52389907836914
      },
      "geometry": {
        "type": "Polygon",
        "coordinates": [
          [
            [
              59793,
              101339
            ],
            [
              56190,
              96259
            ],
            [
              58400,
              94694
            ],
            [
              62001,
              99772
            ],
            [
              59793,
              101339
            ]
          ]
        ]
      }
    },
    {
      "type": "Feature",
      "properties": {
        "bagId": "NL.IMBAG.Pand.0344100000015309",
        "b3_h_maaiveld": 1.6410000324249268,
        "b3_volume_lod22": 46.96226119995117
      },
      "geometry": {
        "type": "Polygon",
        "coordinates": [
          [
            [
              113135,
              22327
            ],
            [
              114902,
              20168
            ],
            [
              119761,
              24150
            ],
            [
              117994,
              26306
            ],
            [
              113135,
              22327
            ]
          ]
        ]
      }
    },
    {
      "type": "Feature",
      "properties": {
        "bagId": "NL.IMBAG.Pand.0344100000015310",
        "b3_h_maaiveld": 1.6829999685287476,
        "b3_volume_lod22": 46.186073303222656
      },
      "geometry": {
        "type": "Polygon",
        "coordinates": [
          [
            [
              113135,
              22327
            ],
            [
              117994,
              26306
            ],
            [
              116227,
              28462
            ],
            [
              111365,
              24485
            ],
            [
              113135,
              22327
            ]
          ]
        ]
      }
    },
    {
      "type": "Feature",
      "properties": {
        "bagId": "NL.IMBAG.Pand.0344100000016616",
        "b3_h_maaiveld": 1.6829999685287476,
        "b3_volume_lod22": 42.4474983215332
      },
      "geometry": {
        "type": "Polygon",
        "coordinates": [
          [
            [
              97335,
              49272
            ],
            [
              102165,
              53209
            ],
            [
              100532,
              55205
            ],
            [
              95702,
              51269
            ],
            [
              97335,
              49272
            ]
          ]
        ]
      }
    },
    {
      "type": "Feature",
      "properties": {
        "bagId": "NL.IMBAG.Pand.0344100000018330",
        "b3_h_maaiveld": 1.6619999408721924,
        "b3_volume_lod22": 46.182151794433594
      },
      "geometry": {
        "type": "Polygon",
        "coordinates": [
          [
            [
              83353,
              76923
            ],
            [
              86982,
              82041
            ],
            [
              84737,
              83637
            ],
            [
              81099,
              78528
            ],
            [
              83353,
              76923
            ]
          ]
        ]
      }
    },
    {
      "type": "Feature",
      "properties": {
        "bagId": "NL.IMBAG.Pand.0344100000018331",
        "b3_h_maaiveld": 1.6579999923706055,
        "b3_volume_lod22": 47.68510818481445
      },
      "geometry": {
        "type": "Polygon",
        "coordinates": [
          [
            [
              83353,
              76923
            ],
            [
              85668,
              75275
            ],
            [
              89302,
              80397
            ],
            [
              86982,
              82041
            ],
            [
              83353,
              76923
            ]
          ]
        ]
      }
    },
    {
      "type": "Feature",
      "properties": {
        "bagId": "NL.IMBAG.Pand.0344100000019383",
        "b3_h_maaiveld": 2.6760001182556152,
        "b3_volume_lod22": 1812.23046875
      },
      "geometry": {
        "type": "Polygon",
        "coordinates": [
          [
            [
              72494,
              80933
            ],
            [
              74289,
              83376
            ],
            [
              70487,
              86072
            ],
            [
              69037,
              87119
            ],
            [
              68712,
              87337
            ],
            [
              66953,
              84864
            ],
            [
              64159,
              86850
            ],
            [
              63307,
              85652
            ],
            [
              55906,
              74975
            ],
            [
              64080,
              69171
            ],
            [
              72494,
              80933
            ]
          ]
        ]
      }
    },
    {
      "type": "Feature",
      "properties": {
        "bagId": "NL.IMBAG.Pand.0344100000019384",
        "b3_h_maaiveld": 1.930999994277954,
        "b3_volume_lod22": 1910.76123046875
      },
      "geometry": {
        "type": "Polygon",
        "coordinates": [
          [
            [
              82655,
              77423
            ],
            [
              77033,
              81418
            ],
            [
              75275,
              78954
            ],
            [
              72494,
              80933
            ],
            [
              64080,
              69171
            ],
            [
              72593,
              63127
            ],
            [
              80953,
              74915
            ],
            [
              80900,
              74954
            ],
            [
              82655,
              77423
            ]
          ]
        ]
      }
    },
    {
      "type": "Feature",
      "properties": {
        "bagId": "NL.IMBAG.Pand.0344100000023223",
        "b3_h_maaiveld": 1.7029999494552612,
        "b3_volume_lod22": 47.05427169799805
      },
      "geometry": {
        "type": "Polygon",
        "coordinates": [
          [
            [
              105325,
              0
            ],
            [
              108654,
              5363
            ],
            [
              106279,
              6843
            ],
            [
              102947,
              1477
            ],
            [
              105325,
              0
            ]
          ]
        ]
      }
    },
    {
      "type": "Feature",
      "properties": {
        "bagId": "NL.IMBAG.Pand.0344100000026142",
        "b3_h_maaiveld": 1.6799999475479126,
        "b3_volume_lod22": 52.384281158447266
      },
      "geometry": {
        "type": "Polygon",
        "coordinates": [
          [
            [
              17723,
              82587
            ],
            [
              20262,
              83644
            ],
            [
              20272,
              83618
            ],
            [
              20607,
              83759
            ],
            [
              18172,
              89558
            ],
            [
              15317,
              88368
            ],
            [
              17723,
              82587
            ]
          ]
        ]
      }
    },
    {
      "type": "Feature",
      "properties": {
        "bagId": "NL.IMBAG.Pand.0344100000027243",
        "b3_h_maaiveld": 1.6610000133514404,
        "b3_volume_lod22": 43.3875732421875
      },
      "geometry": {
        "type": "Polygon",
        "coordinates": [
          [
            [
              106554,
              30355
            ],
            [
              111426,
              34326
            ],
            [
              109786,
              36329
            ],
            [
              104916,
              32358
            ],
            [
              106554,
              30355
            ]
          ]
        ]
      }
    },
    {
      "type": "Feature",
      "properties": {
        "bagId": "NL.IMBAG.Pand.0344100000031649",
        "b3_h_maaiveld": 1.684999942779541,
        "b3_volume_lod22": 48.402957916259766
      },
      "geometry": {
        "type": "Polygon",
        "coordinates": [
          [
            [
              100995,
              44725
            ],
            [
              102163,
              43295
            ],
            [
              107030,
              47262
            ],
            [
              105171,
              49538
            ],
            [
              100343,
              45598
            ],
            [
              101033,
              44754
            ],
            [
              100995,
              44725
            ]
          ]
        ]
      }
    },
    {
      "type": "Feature",
      "properties": {
        "bagId": "NL.IMBAG.Pand.0344100000031666",
        "b3_h_maaiveld": 2.566999912261963,
        "b3_volume_lod22": 1355.7606201171875
      },
      "geometry": {
        "type": "Polygon",
        "coordinates": [
          [
            [
              11123,
              69757
            ],
            [
              13323,
              64967
            ],
            [
              22917,
              68986
            ],
            [
              18848,
              78152
            ],
            [
              18281,
              79504
            ],
            [
              15132,
              78178
            ],
            [
              13952,
              80978
            ],
            [
              10873,
              79688
            ],
            [
              12037,
              76894
            ],
            [
              8715,
              75504
            ],
            [
              11123,
              69757
            ]
          ]
        ]
      }
    },
    {
      "type": "Feature",
      "properties": {
        "bagId": "NL.IMBAG.Pand.0344100000034381",
        "b3_h_maaiveld": 1.6829999685287476,
        "b3_volume_lod22": 44.838600158691406
      },
      "geometry": {
        "type": "Polygon",
        "coordinates": [
          [
            [
              75107,
              82793
            ],
            [
              78728,
              87899
            ],
            [
              76531,
              89457
            ],
            [
              72913,
              84355
            ],
            [
              75107,
              82793
            ]
          ]
        ]
      }
    },
    {
      "type": "Feature",
      "properties": {
        "bagId": "NL.IMBAG.Pand.0344100000038326",
        "b3_h_maaiveld": 1.6790000200271606,
        "b3_volume_lod22": 46.77256393432617
      },
      "geometry": {
        "type": "Polygon",
        "coordinates": [
          [
            [
              89136,
              59210
            ],
            [
              90908,
              57046
            ],
            [
              95774,
              61030
            ],
            [
              94007,
              63197
            ],
            [
              89136,
              59210
            ]
          ]
        ]
      }
    },
    {
      "type": "Feature",
      "properties": {
        "bagId": "NL.IMBAG.Pand.0344100000039587",
        "b3_h_maaiveld": 2.3889999389648438,
        "b3_volume_lod22": 1377.2882080078125
      },
      "geometry": {
        "type": "Polygon",
        "coordinates": [
          [
            [
              85455,
              40782
            ],
            [
              96751,
              49985
            ],
            [
              92439,
              55254
            ],
            [
              90094,
              53335
            ],
            [
              87913,
              55996
            ],
            [
              78939,
              48731
            ],
            [
              85455,
              40782
            ]
          ]
        ]
      }
    },
    {
      "type": "Feature",
      "properties": {
        "bagId": "NL.IMBAG.Pand.0344100000040602",
        "b3_h_maaiveld": 1.6779999732971191,
        "b3_volume_lod22": 47.246788024902344
      },
      "geometry": {
        "type": "Polygon",
        "coordinates": [
          [
            [
              84410,
              64981
            ],
            [
              89280,
              68967
            ],
            [
              87492,
              71157
            ],
            [
              82612,
              67178
            ],
            [
              84410,
              64981
            ]
          ]
        ]
      }
    },
    {
      "type": "Feature",
      "properties": {
        "bagId": "NL.IMBAG.Pand.0344100000042245",
        "b3_h_maaiveld": 1.6679999828338623,
        "b3_volume_lod22": 45.888336181640625
      },
      "geometry": {
        "type": "Polygon",
        "coordinates": [
          [
            [
              24732,
              85501
            ],
            [
              27224,
              86541
            ],
            [
              24810,
              92335
            ],
            [
              22319,
              91296
            ],
            [
              24732,
              85501
            ]
          ]
        ]
      }
    },
    {
      "type": "Feature",
      "properties": {
        "bagId": "NL.IMBAG.Pand.0344100000042435",
        "b3_h_maaiveld": 1.6820000410079956,
        "b3_volume_lod22": 46.16638946533203
      },
      "geometry": {
        "type": "Polygon",
        "coordinates": [
          [
            [
              88042,
              60546
            ],
            [
              89136,
              59210
            ],
            [
              94007,
              63197
            ],
            [
              92242,
              65358
            ],
            [
              87396,
              61403
            ],
            [
              88080,
              60577
            ],
            [
              88042,
              60546
            ]
          ]
        ]
      }
    },
    {
      "type": "Feature",
      "properties": {
        "bagId": "NL.IMBAG.Pand.0344100000043463",
        "b3_h_maaiveld": 1.6779999732971191,
        "b3_volume_lod22": 46.721805572509766
      },
      "geometry": {
        "type": "Polygon",
        "coordinates": [
          [
            [
              92400,
              55223
            ],
            [
              92439,
              55254
            ],
            [
              92718,
              54913
            ],
            [
              97551,
              58858
            ],
            [
              95774,
              61030
            ],
            [
              90908,
              57046
            ],
            [
              92400,
              55223
            ]
          ]
        ]
      }
    },
    {
      "type": "Feature",
      "properties": {
        "bagId": "NL.IMBAG.Pand.0344100000043938",
        "b3_h_maaiveld": 1.6299999952316284,
        "b3_volume_lod22": 50.78977966308594
      },
      "geometry": {
        "type": "Polygon",
        "coordinates": [
          [
            [
              36642,
              90465
            ],
            [
              34293,
              96290
            ],
            [
              31570,
              95155
            ],
            [
              33918,
              89330
            ],
            [
              36642,
              90465
            ]
          ]
        ]
      }
    },
    {
      "type": "Feature",
      "properties": {
        "bagId": "NL.IMBAG.Pand.0344100000044535",
        "b3_h_maaiveld": 1.6829999685287476,
        "b3_volume_lod22": 48.531517028808594
      },
      "geometry": {
        "type": "Polygon",
        "coordinates": [
          [
            [
              97335,
              49272
            ],
            [
              99202,
              46988
            ],
            [
              104032,
              50928
            ],
            [
              102165,
              53209
            ],
            [
              97335,
              49272
            ]
          ]
        ]
      }
    },
    {
      "type": "Feature",
      "properties": {
        "bagId": "NL.IMBAG.Pand.0344100000048400",
        "b3_h_maaiveld": 2.122999906539917,
        "b3_volume_lod22": 218.98800659179688
      },
      "geometry": {
        "type": "Polygon",
        "coordinates": [
          [
            [
              45318,
              59741
            ],
            [
              45327,
              50131
            ],
            [
              48327,
              50139
            ],
            [
              48357,
              70900
            ],
            [
              45527,
              70905
            ],
            [
              45512,
              59688
            ],
            [
              45318,
              59741
            ]
          ]
        ]
      }
    },
    {
      "type": "Feature",
      "properties": {
        "bagId": "NL.IMBAG.Pand.0344100000048401",
        "b3_h_maaiveld": 2.13100004196167,
        "b3_volume_lod22": 3626.361572265625
      },
      "geometry": {
        "type": "Polygon",
        "coordinates": [
          [
            [
              45318,
              59741
            ],
            [
              45512,
              59688
            ],
            [
              45527,
              70905
            ],
            [
              42087,
              70910
            ],
            [
              42087,
              69441
            ],
            [
              38158,
              69451
            ],
            [
              38168,
              76821
            ],
            [
              31867,
              76830
            ],
            [
              31848,
              69460
            ],
            [
              27957,
              69460
            ],
            [
              27968,
              76840
            ],
            [
              21672,
              76856
            ],
            [
              21647,
              69480
            ],
            [
              19788,
              69480
            ],
            [
              19797,
              72330
            ],
            [
              16378,
              72330
            ],
            [
              16367,
              64960
            ],
            [
              12438,
              64960
            ],
            [
              12448,
              66441
            ],
            [
              6228,
              66451
            ],
            [
              6198,
              53631
            ],
            [
              9218,
              53631
            ],
            [
              9218,
              55220
            ],
            [
              19758,
              55230
            ],
            [
              19758,
              59730
            ],
            [
              45318,
              59741
            ]
          ]
        ]
      }
    },
    {
      "type": "Feature",
      "properties": {
        "bagId": "NL.IMBAG.Pand.0344100000049289",
        "b3_h_maaiveld": 1.6399999856948853,
        "b3_volume_lod22": 59.411556243896484
      },
      "geometry": {
        "type": "Polygon",
        "coordinates": [
          [
            [
              38975,
              123366
            ],
            [
              41376,
              117550
            ],
            [
              44960,
              122626
            ],
            [
              42077,
              124673
            ],
            [
              38975,
              123366
            ]
          ]
        ]
      }
    },
    {
      "type": "Feature",
      "properties": {
        "bagId": "NL.IMBAG.Pand.0344100000049438",
        "b3_h_maaiveld": 1.6380000114440918,
        "b3_volume_lod22": 46.997718811035156
      },
      "geometry": {
        "type": "Polygon",
        "coordinates": [
          [
            [
              28913,
              119129
            ],
            [
              26397,
              118071
            ],
            [
              28788,
              112280
            ],
            [
              31305,
              113334
            ],
            [
              28913,
              119129
            ]
          ]
        ]
      }
    },
    {
      "type": "Feature",
      "properties": {
        "bagId": "NL.IMBAG.Pand.0344100000049439",
        "b3_h_maaiveld": 1.6419999599456787,
        "b3_volume_lod22": 47.193599700927734
      },
      "geometry": {
        "type": "Polygon",
        "coordinates": [
          [
            [
              28913,
              119129
            ],
            [
              31305,
              113334
            ],
            [
              33823,
              114387
            ],
            [
              31428,
              120189
            ],
            [
              28913,
              119129
            ]
          ]
        ]
      }
    },
    {
      "type": "Feature",
      "properties": {
        "bagId": "NL.IMBAG.Pand.0344100000049600",
        "b3_h_maaiveld": 1.6460000276565552,
        "b3_volume_lod22": 46.949344635009766
      },
      "geometry": {
        "type": "Polygon",
        "coordinates": [
          [
            [
              31428,
              120189
            ],
            [
              33823,
              114387
            ],
            [
              36340,
              115441
            ],
            [
              33944,
              121248
            ],
            [
              31428,
              120189
            ]
          ]
        ]
      }
    },
    {
      "type": "Feature",
      "properties": {
        "bagId": "NL.IMBAG.Pand.0344100000050311",
        "b3_h_maaiveld": 1.6510000228881836,
        "b3_volume_lod22": 46.84425354003906
      },
      "geometry": {
        "type": "Polygon",
        "coordinates": [
          [
            [
              33944,
              121248
            ],
            [
              36340,
              115441
            ],
            [
              38858,
              116496
            ],
            [
              36460,
              122306
            ],
            [
              33944,
              121248
            ]
          ]
        ]
      }
    },
    {
      "type": "Feature",
      "properties": {
        "bagId": "NL.IMBAG.Pand.0344100000052152",
        "b3_h_maaiveld": 1.6829999685287476,
        "b3_volume_lod22": 47.814247131347656
      },
      "geometry": {
        "type": "Polygon",
        "coordinates": [
          [
            [
              83017,
              71032
            ],
            [
              87847,
              74968
            ],
            [
              86007,
              77220
            ],
            [
              81176,
              73280
            ],
            [
              83017,
              71032
            ]
          ]
        ]
      }
    },
    {
      "type": "Feature",
      "properties": {
        "bagId": "NL.IMBAG.Pand.0344100000053030",
        "b3_h_maaiveld": 1.6829999685287476,
        "b3_volume_lod22": 45.3165397644043
      },
      "geometry": {
        "type": "Polygon",
        "coordinates": [
          [
            [
              89478,
              63058
            ],
            [
              91116,
              61061
            ],
            [
              92284,
              61965
            ],
            [
              92387,
              61850
            ],
            [
              96094,
              64889
            ],
            [
              94345,
              67025
            ],
            [
              89478,
              63058
            ]
          ]
        ]
      }
    },
    {
      "type": "Feature",
      "properties": {
        "bagId": "NL.IMBAG.Pand.0344100000056500",
        "b3_h_maaiveld": 1.9950000047683716,
        "b3_volume_lod22": 1940.6552734375
      },
      "geometry": {
        "type": "Polygon",
        "coordinates": [
          [
            [
              50622,
              105415
            ],
            [
              51474,
              106613
            ],
            [
              48680,
              108598
            ],
            [
              50438,
              111071
            ],
            [
              49466,
              111762
            ],
            [
              49021,
              112102
            ],
            [
              48031,
              112806
            ],
            [
              47728,
              113001
            ],
            [
              44796,
              115118
            ],
            [
              34638,
              100830
            ],
            [
              43221,
              94738
            ],
            [
              50622,
              105415
            ]
          ]
        ]
      }
    },
    {
      "type": "Feature",
      "properties": {
        "bagId": "NL.IMBAG.Pand.0344100000057283",
        "b3_h_maaiveld": 2.0230000019073486,
        "b3_volume_lod22": 1489.31005859375
      },
      "geometry": {
        "type": "Polygon",
        "coordinates": [
          [
            [
              13759,
              105980
            ],
            [
              19608,
              92676
            ],
            [
              29027,
              96621
            ],
            [
              23419,
              110004
            ],
            [
              13759,
              105980
            ]
          ]
        ]
      }
    },
    {
      "type": "Feature",
      "properties": {
        "bagId": "NL.IMBAG.Pand.0344100000059601",
        "b3_h_maaiveld": 1.6690000295639038,
        "b3_volume_lod22": 51.174034118652344
      },
      "geometry": {
        "type": "Polygon",
        "coordinates": [
          [
            [
              17327,
              107467
            ],
            [
              14908,
              113261
            ],
            [
              12125,
              112098
            ],
            [
              14539,
              106304
            ],
            [
              17327,
              107467
            ]
          ]
        ]
      }
    },
    {
      "type": "Feature",
      "properties": {
        "bagId": "NL.IMBAG.Pand.0344100000060956",
        "b3_h_maaiveld": 2.6389999389648438,
        "b3_volume_lod22": 1334.6104736328125
      },
      "geometry": {
        "type": "Polygon",
        "coordinates": [
          [
            [
              7587,
              103381
            ],
            [
              8758,
              100598
            ],
            [
              5596,
              99267
            ],
            [
              6163,
              97915
            ],
            [
              10232,
              88749
            ],
            [
              19608,
              92676
            ],
            [
              13759,
              105980
            ],
            [
              9572,
              104217
            ],
            [
              9565,
              104230
            ],
            [
              7913,
              103541
            ],
            [
              7922,
              103522
            ],
            [
              7587,
              103381
            ]
          ]
        ]
      }
    },
    {
      "type": "Feature",
      "properties": {
        "bagId": "NL.IMBAG.Pand.0344100000063499",
        "b3_h_maaiveld": 1.6319999694824219,
        "b3_volume_lod22": 51.68737030029297
      },
      "geometry": {
        "type": "Polygon",
        "coordinates": [
          [
            [
              23957,
              110228
            ],
            [
              26747,
              111390
            ],
            [
              24332,
              117191
            ],
            [
              21608,
              116053
            ],
            [
              23957,
              110228
            ]
          ]
        ]
      }
    },
    {
      "type": "Feature",
      "properties": {
        "bagId": "NL.IMBAG.Pand.0344100000066618",
        "b3_h_maaiveld": 2.0789999961853027,
        "b3_volume_lod22": 76338.21875
      },
      "geometry": {
        "type": "Polygon",
        "coordinates": [
          [
            [
              325296,
              71890
            ],
            [
              312156,
              83100
            ],
            [
              326007,
              99321
            ],
            [
              324106,
              100941
            ],
            [
              329007,
              106681
            ],
            [
              315777,
              117962
            ],
            [
              313976,
              115861
            ],
            [
              312147,
              117431
            ],
            [
              313947,
              119530
            ],
            [
              300716,
              130840
            ],
            [
              298926,
              128741
            ],
            [
              297087,
              130311
            ],
            [
              302017,
              136061
            ],
            [
              288777,
              147390
            ],
            [
              283856,
              141640
            ],
            [
              282027,
              143201
            ],
            [
              283827,
              145301
            ],
            [
              270572,
              156644
            ],
            [
              265676,
              150920
            ],
            [
              263767,
              152561
            ],
            [
              249957,
              136420
            ],
            [
              236836,
              147650
            ],
            [
              231996,
              141991
            ],
            [
              230146,
              143571
            ],
            [
              231877,
              145590
            ],
            [
              231567,
              145861
            ],
            [
              234627,
              149431
            ],
            [
              231127,
              152420
            ],
            [
              228067,
              148850
            ],
            [
              218637,
              156920
            ],
            [
              212236,
              149441
            ],
            [
              210407,
              151011
            ],
            [
              212137,
              153030
            ],
            [
              198947,
              164313
            ],
            [
              193960,
              158756
            ],
            [
              192102,
              160342
            ],
            [
              187387,
              154821
            ],
            [
              189356,
              153121
            ],
            [
              187637,
              151131
            ],
            [
              200856,
              139811
            ],
            [
              207266,
              147301
            ],
            [
              209086,
              145741
            ],
            [
              207366,
              143720
            ],
            [
              220576,
              132410
            ],
            [
              225426,
              138071
            ],
            [
              227257,
              136501
            ],
            [
              225537,
              134491
            ],
            [
              238667,
              123241
            ],
            [
              229526,
              112571
            ],
            [
              231437,
              110941
            ],
            [
              224956,
              103371
            ],
            [
              238154,
              92077
            ],
            [
              241507,
              96001
            ],
            [
              243407,
              94381
            ],
            [
              252466,
              104991
            ],
            [
              265687,
              93720
            ],
            [
              276786,
              106730
            ],
            [
              278616,
              105170
            ],
            [
              273767,
              99491
            ],
            [
              287027,
              88181
            ],
            [
              291866,
              93850
            ],
            [
              293697,
              92290
            ],
            [
              279507,
              75650
            ],
            [
              292757,
              64350
            ],
            [
              294457,
              66340
            ],
            [
              296306,
              64770
            ],
            [
              291458,
              59092
            ],
            [
              304627,
              47801
            ],
            [
              315707,
              60730
            ],
            [
              317546,
              59160
            ],
            [
              315817,
              57150
            ],
            [
              328926,
              45910
            ],
            [
              318176,
              33371
            ],
            [
              320067,
              31751
            ],
            [
              318356,
              29761
            ],
            [
              331551,
              18454
            ],
            [
              336387,
              24100
            ],
            [
              338226,
              22530
            ],
            [
              336507,
              20521
            ],
            [
              349697,
              9220
            ],
            [
              354536,
              14861
            ],
            [
              356346,
              13301
            ],
            [
              354627,
              11301
            ],
            [
              367817,
              0
            ],
            [
              369527,
              1991
            ],
            [
              371437,
              361
            ],
            [
              390299,
              22267
            ],
            [
              390351,
              22223
            ],
            [
              394999,
              27670
            ],
            [
              393030,
              29350
            ],
            [
              394749,
              31366
            ],
            [
              381551,
              42631
            ],
            [
              376781,
              37061
            ],
            [
              374973,
              38608
            ],
            [
              376703,
              40629
            ],
            [
              376384,
              40902
            ],
            [
              379416,
              44454
            ],
            [
              375916,
              47441
            ],
            [
              372887,
              43890
            ],
            [
              363457,
              51941
            ],
            [
              358616,
              46270
            ],
            [
              356786,
              47830
            ],
            [
              358507,
              49840
            ],
            [
              345306,
              61111
            ],
            [
              340457,
              55431
            ],
            [
              338627,
              56980
            ],
            [
              340366,
              59020
            ],
            [
              340046,
              59290
            ],
            [
              343106,
              62871
            ],
            [
              339606,
              65861
            ],
            [
              336546,
              62280
            ],
            [
              327127,
              70321
            ],
            [
              325406,
              68311
            ],
            [
              323577,
              69871
            ],
            [
              325296,
              71890
            ]
          ]
        ]
      }
    },
    {
      "type": "Feature",
      "properties": {
        "bagId": "NL.IMBAG.Pand.0344100000067965",
        "b3_h_maaiveld": 1.6859999895095825,
        "b3_volume_lod22": 47.079566955566406
      },
      "geometry": {
        "type": "Polygon",
        "coordinates": [
          [
            [
              73232,
              82905
            ],
            [
              73254,
              82923
            ],
            [
              73547,
              82567
            ],
            [
              78397,
              86520
            ],
            [
              76595,
              88730
            ],
            [
              71725,
              84744
            ],
            [
              73232,
              82905
            ]
          ]
        ]
      }
    },
    {
      "type": "Feature",
      "properties": {
        "bagId": "NL.IMBAG.Pand.0344100000069352",
        "b3_h_maaiveld": 1.6790000200271606,
        "b3_volume_lod22": 47.987281799316406
      },
      "geometry": {
        "type": "Polygon",
        "coordinates": [
          [
            [
              51776,
              110134
            ],
            [
              54119,
              108467
            ],
            [
              57732,
              113563
            ],
            [
              55388,
              115225
            ],
            [
              51776,
              110134
            ]
          ]
        ]
      }
    },
    {
      "type": "Feature",
      "properties": {
        "bagId": "NL.IMBAG.Pand.0344100000072059",
        "b3_h_maaiveld": 1.600000023841858,
        "b3_volume_lod22": 29.347043991088867
      },
      "geometry": {
        "type": "Polygon",
        "coordinates": [
          [
            [
              116426,
              51275
            ],
            [
              119262,
              53574
            ],
            [
              117399,
              55874
            ],
            [
              114563,
              53574
            ],
            [
              116426,
              51275
            ]
          ]
        ]
      }
    },
    {
      "type": "Feature",
      "properties": {
        "bagId": "NL.IMBAG.Pand.0344100000073838",
        "b3_h_maaiveld": 2.6689999103546143,
        "b3_volume_lod22": 1342.46826171875
      },
      "geometry": {
        "type": "Polygon",
        "coordinates": [
          [
            [
              72770,
              60545
            ],
            [
              79292,
              52587
            ],
            [
              83332,
              55886
            ],
            [
              83401,
              55800
            ],
            [
              88297,
              59811
            ],
            [
              86011,
              62605
            ],
            [
              88348,
              64517
            ],
            [
              84066,
              69748
            ],
            [
              72770,
              60545
            ]
          ]
        ]
      }
    },
    {
      "type": "Feature",
      "properties": {
        "bagId": "NL.IMBAG.Pand.0344100000073937",
        "b3_h_maaiveld": 1.6540000438690186,
        "b3_volume_lod22": 44.50354766845703
      },
      "geometry": {
        "type": "Polygon",
        "coordinates": [
          [
            [
              44960,
              122626
            ],
            [
              41376,
              117550
            ],
            [
              43505,
              116022
            ],
            [
              47108,
              121102
            ],
            [
              44960,
              122626
            ]
          ]
        ]
      }
    },
    {
      "type": "Feature",
      "properties": {
        "bagId": "NL.IMBAG.Pand.0344100000077845",
        "b3_h_maaiveld": 1.6729999780654907,
        "b3_volume_lod22": 45.62687683105469
      },
      "geometry": {
        "type": "Polygon",
        "coordinates": [
          [
            [
              12047,
              105264
            ],
            [
              9634,
              111059
            ],
            [
              7147,
              110020
            ],
            [
              9572,
              104217
            ],
            [
              12047,
              105264
            ]
          ]
        ]
      }
    },
    {
      "type": "Feature",
      "properties": {
        "bagId": "NL.IMBAG.Pand.0344100000079668",
        "b3_h_maaiveld": 1.656999945640564,
        "b3_volume_lod22": 1951.0303955078125
      },
      "geometry": {
        "type": "Polygon",
        "coordinates": [
          [
            [
              91025,
              48894
            ],
            [
              79912,
              39525
            ],
            [
              86365,
              31649
            ],
            [
              97562,
              40832
            ],
            [
              95278,
              43618
            ],
            [
              97621,
              45538
            ],
            [
              95516,
              48111
            ],
            [
              93211,
              46222
            ],
            [
              91025,
              48894
            ]
          ]
        ]
      }
    },
    {
      "type": "Feature",
      "properties": {
        "bagId": "NL.IMBAG.Pand.0344100000079669",
        "b3_h_maaiveld": 2.6600000858306885,
        "b3_volume_lod22": 1917.8946533203125
      },
      "geometry": {
        "type": "Polygon",
        "coordinates": [
          [
            [
              79912,
              39525
            ],
            [
              93301,
              50811
            ],
            [
              86887,
              58657
            ],
            [
              83401,
              55800
            ],
            [
              83332,
              55886
            ],
            [
              79292,
              52587
            ],
            [
              79223,
              52673
            ],
            [
              73189,
              47730
            ],
            [
              79912,
              39525
            ]
          ]
        ]
      }
    },
    {
      "type": "Feature",
      "properties": {
        "bagId": "NL.IMBAG.Pand.0344100000079975",
        "b3_h_maaiveld": 2.055000066757202,
        "b3_volume_lod22": 1472.4853515625
      },
      "geometry": {
        "type": "Polygon",
        "coordinates": [
          [
            [
              66254,
              68494
            ],
            [
              74091,
              74829
            ],
            [
              77530,
              77655
            ],
            [
              75357,
              80309
            ],
            [
              75395,
              80340
            ],
            [
              73254,
              82923
            ],
            [
              70921,
              81011
            ],
            [
              68633,
              83803
            ],
            [
              59707,
              76488
            ],
            [
              66254,
              68494
            ]
          ]
        ]
      }
    },
    {
      "type": "Feature",
      "properties": {
        "bagId": "NL.IMBAG.Pand.0344100000080227",
        "b3_h_maaiveld": 1.6749999523162842,
        "b3_volume_lod22": 48.34981155395508
      },
      "geometry": {
        "type": "Polygon",
        "coordinates": [
          [
            [
              5038,
              102350
            ],
            [
              2632,
              108131
            ],
            [
              0,
              107033
            ],
            [
              2410,
              101256
            ],
            [
              5038,
              102350
            ]
          ]
        ]
      }
    },
    {
      "type": "Feature",
      "properties": {
        "bagId": "NL.IMBAG.Pand.0344100000090702",
        "b3_h_maaiveld": 1.659000039100647,
        "b3_volume_lod22": 49.945274353027344
      },
      "geometry": {
        "type": "Polygon",
        "coordinates": [
          [
            [
              95767,
              47803
            ],
            [
              100627,
              51790
            ],
            [
              98741,
              54089
            ],
            [
              93869,
              50118
            ],
            [
              95767,
              47803
            ]
          ]
        ]
      }
    },
    {
      "type": "Feature",
      "properties": {
        "bagId": "NL.IMBAG.Pand.0344100000093510",
        "b3_h_maaiveld": 1.680999994277954,
        "b3_volume_lod22": 46.98862075805664
      },
      "geometry": {
        "type": "Polygon",
        "coordinates": [
          [
            [
              3751,
              90522
            ],
            [
              6061,
              88894
            ],
            [
              9673,
              93985
            ],
            [
              7383,
              95610
            ],
            [
              3751,
              90522
            ]
          ]
        ]
      }
    },
    {
      "type": "Feature",
      "properties": {
        "bagId": "NL.IMBAG.Pand.0344100000094231",
        "b3_h_maaiveld": 1.680999994277954,
        "b3_volume_lod22": 46.30107879638672
      },
      "geometry": {
        "type": "Polygon",
        "coordinates": [
          [
            [
              52965,
              23008
            ],
            [
              57827,
              26985
            ],
            [
              56051,
              29150
            ],
            [
              51198,
              25165
            ],
            [
              52965,
              23008
            ]
          ]
        ]
      }
    },
    {
      "type": "Feature",
      "properties": {
        "bagId": "NL.IMBAG.Pand.0344100000095079",
        "b3_h_maaiveld": 2.115000009536743,
        "b3_volume_lod22": 377.04913330078125
      },
      "geometry": {
        "type": "Polygon",
        "coordinates": [
          [
            [
              123581,
              136680
            ],
            [
              131021,
              130340
            ],
            [
              138961,
              139650
            ],
            [
              131382,
              145970
            ],
            [
              123581,
              136680
            ]
          ]
        ]
      }
    },
    {
      "type": "Feature",
      "properties": {
        "bagId": "NL.IMBAG.Pand.0344100000096331",
        "b3_h_maaiveld": 1.6729999780654907,
        "b3_volume_lod22": 47.559112548828125
      },
      "geometry": {
        "type": "Polygon",
        "coordinates": [
          [
            [
              2306,
              91551
            ],
            [
              5923,
              96650
            ],
            [
              3601,
              98295
            ],
            [
              0,
              93217
            ],
            [
              2306,
              91551
            ]
          ]
        ]
      }
    },
    {
      "type": "Feature",
      "properties": {
        "bagId": "NL.IMBAG.Pand.0344100000097297",
        "b3_h_maaiveld": 1.6790000200271606,
        "b3_volume_lod22": 45.62725067138672
      },
      "geometry": {
        "type": "Polygon",
        "coordinates": [
          [
            [
              10637,
              85642
            ],
            [
              14253,
              90740
            ],
            [
              12017,
              92323
            ],
            [
              8404,
              87227
            ],
            [
              10637,
              85642
            ]
          ]
        ]
      }
    },
    {
      "type": "Feature",
      "properties": {
        "bagId": "NL.IMBAG.Pand.0344100000104576",
        "b3_h_maaiveld": 1.6820000410079956,
        "b3_volume_lod22": 49.00473403930664
      },
      "geometry": {
        "type": "Polygon",
        "coordinates": [
          [
            [
              14513,
              82878
            ],
            [
              18131,
              87980
            ],
            [
              15723,
              89691
            ],
            [
              12087,
              84595
            ],
            [
              14513,
              82878
            ]
          ]
        ]
      }
    },
    {
      "type": "Feature",
      "properties": {
        "bagId": "NL.IMBAG.Pand.0344100000106319",
        "b3_h_maaiveld": 1.6610000133514404,
        "b3_volume_lod22": 46.91193771362305
      },
      "geometry": {
        "type": "Polygon",
        "coordinates": [
          [
            [
              22699,
              77051
            ],
            [
              26337,
              82160
            ],
            [
              24052,
              83780
            ],
            [
              20410,
              78675
            ],
            [
              22699,
              77051
            ]
          ]
        ]
      }
    },
    {
      "type": "Feature",
      "properties": {
        "bagId": "NL.IMBAG.Pand.0344100000110541",
        "b3_h_maaiveld": 1.718999981880188,
        "b3_volume_lod22": 49.703006744384766
      },
      "geometry": {
        "type": "Polygon",
        "coordinates": [
          [
            [
              40659,
              2413
            ],
            [
              43982,
              7790
            ],
            [
              41436,
              9373
            ],
            [
              38103,
              4001
            ],
            [
              40659,
              2413
            ]
          ]
        ]
      }
    },
    {
      "type": "Feature",
      "properties": {
        "bagId": "NL.IMBAG.Pand.0344100000111241",
        "b3_h_maaiveld": 1.6749999523162842,
        "b3_volume_lod22": 45.81125259399414
      },
      "geometry": {
        "type": "Polygon",
        "coordinates": [
          [
            [
              16707,
              81316
            ],
            [
              18932,
              79727
            ],
            [
              22573,
              84831
            ],
            [
              20328,
              86422
            ],
            [
              16707,
              81316
            ]
          ]
        ]
      }
    },
    {
      "type": "Feature",
      "properties": {
        "bagId": "NL.IMBAG.Pand.0344100000115025",
        "b3_h_maaiveld": 1.7039999961853027,
        "b3_volume_lod22": 46.559574127197266
      },
      "geometry": {
        "type": "Polygon",
        "coordinates": [
          [
            [
              42171,
              1483
            ],
            [
              44547,
              0
            ],
            [
              47879,
              5366
            ],
            [
              45512,
              6840
            ],
            [
              42171,
              1483
            ]
          ]
        ]
      }
    },
    {
      "type": "Feature",
      "properties": {
        "bagId": "NL.IMBAG.Pand.0344100000115855",
        "b3_h_maaiveld": 1.7039999961853027,
        "b3_volume_lod22": 49.27241897583008
      },
      "geometry": {
        "type": "Polygon",
        "coordinates": [
          [
            [
              43599,
              34448
            ],
            [
              48452,
              38430
            ],
            [
              46569,
              40725
            ],
            [
              45401,
              39821
            ],
            [
              41692,
              36780
            ],
            [
              43599,
              34448
            ]
          ]
        ]
      }
    },
    {
      "type": "Feature",
      "properties": {
        "bagId": "NL.IMBAG.Pand.0344100000125429",
        "b3_h_maaiveld": 1.6699999570846558,
        "b3_volume_lod22": 46.688838958740234
      },
      "geometry": {
        "type": "Polygon",
        "coordinates": [
          [
            [
              46516,
              30881
            ],
            [
              51386,
              34852
            ],
            [
              49602,
              37030
            ],
            [
              44748,
              33045
            ],
            [
              46516,
              30881
            ]
          ]
        ]
      }
    },
    {
      "type": "Feature",
      "properties": {
        "bagId": "NL.IMBAG.Pand.0344100000154921",
        "b3_h_maaiveld": 2.069999933242798,
        "b3_volume_lod22": 94.6661148071289
      },
      "geometry": {
        "type": "Polygon",
        "coordinates": [
          [
            [
              21282,
              20259
            ],
            [
              26375,
              24850
            ],
            [
              23242,
              28324
            ],
            [
              18150,
              23732
            ],
            [
              21282,
              20259
            ]
          ]
        ]
      }
    }
  ]
}