{
 "type": "FeatureCollection",
 "name": "plangrens-breda-teteringen",
 "crs": {
  "type": "name",
  "properties": {
   "name": "urn:ogc:def:crs:EPSG::28992"
  }
 },
 "features": [
  {
   "type": "Feature",
   "properties": {
    "buurtnaam": "Teteringen",
    "buurtcode": "BU07581000",
    "gemeente": "Breda",
    "bron": "CBS Wijken en Buurten 2024 (PDOK WFS)",
    "note": "illustratieve plangrens voor PoC-5 MiniGIM gebiedscheck"
   },
   "geometry": {
    "type": "MultiPolygon",
    "coordinates": [
     [
      [
       [
        115771.596000001,
        403804.811999999
       ],
       [
        116047.8379999958,
        403694.875
       ],
       [
        116049.65000001,
        403694.16700000316
       ],
       [
        116051.47200000286,
        403693.4840000011
       ],
       [
        116053.30299999565,
        403692.826000005
       ],
       [
        116055.14200000465,
        403692.1920000054
       ],
       [
        116056.99,
        403691.583000001
       ],
       [
        116058.846000001,
        403690.9990000017
       ],
       [
        116060.70899999887,
        403690.44
       ],
       [
        116062.57999999449,
        403689.906
       ],
       [
        116064.45799999684,
        403689.3970000036
       ],
       [
        116066.34299999475,
        403688.914000001
       ],
       [
        116068.2340000011,
        403688.45600000396
       ],
       [
        116070.13,
        403688.024
       ],
       [
        116072.0329999961,
        403687.6169999987
       ],
       [
        116073.94100000337,
        403687.23600000143
       ],
       [
        116075.85399999842,
        403686.88
       ],
       [
        116077.77100000158,
        403686.5510000028
       ],
       [
        116079.6070000045,
        403686.221000001
       ],
       [
        116081.43900000677,
        403685.868000001
       ],
       [
        116083.26600000262,
        403685.491
       ],
       [
        116085.08800000697,
        403685.0920000039
       ],
       [
        116086.90400000662,
        403684.6690000035
       ],
       [
        116088.71599999815,
        403684.2230000049
       ],
       [
        116090.52100000158,
        403683.7540000044
       ],
       [
        116092.3209999986,
        403683.26200000197
       ],
       [
        116094.11300000921,
        403682.7480000034
       ],
       [
        116095.9,
        403682.21
       ],
       [
        116097.67899999768,
        403681.65
       ],
       [
        116099.45099999756,
        403681.0680000037
       ],
       [
        116101.21599999815,
        403680.46300000325
       ],
       [
        116102.97199999541,
        403679.835000001
       ],
       [
        116104.72100000456,
        403679.1850000024
       ],
       [
        116106.46100000665,
        403678.513000004
       ],
       [
        116107.28599999845,
        403678.23099999875
       ],
       [
        116108.1080000028,
        403677.9420000054
       ],
       [
        116108.92900000513,
        403677.647
       ],
       [
        116109.74700000882,
        403677.34500000253
       ],
       [
        116110.56299999729,
        403677.0380000025
       ],
       [
        116111.37599999458,
        403676.7240000032
       ],
       [
        116112.18700000271,
        403676.4040000029
       ],
       [
        116112.996,
        403676.0780000016
       ],
       [
        116113.80200000852,
        403675.746
       ],
       [
        116114.60600000247,
        403675.408
       ],
       [
        116115.40700000525,
        403675.063000001
       ],
       [
        116116.20499999821,
        403674.713
       ],
       [
        116117.00100000203,
        403674.35599999875
       ],
       [
        116117.79400000721,
        403673.994
       ],
       [
        116118.58400000632,
        403673.6250000037
       ],
       [
        116119.37099999562,
        403673.251000002
       ],
       [
        116120.10900000483,
        403672.8010000028
       ],
       [
        116120.81899999827,
        403672.30800000206
       ],
       [
        116121.4970000051,
        403671.7730000019
       ],
       [
        116122.1419999972,
        403671.197000001
       ],
       [
        116122.75100000575,
        403670.5840000026
       ],
       [
        116123.32100000232,
        403669.9350000024
       ],
       [
        116123.85099999607,
        403669.25200000405
       ],
       [
        116124.33899999782,
        403668.53900000453
       ],
       [
        116124.78300000727,
        403667.79800000414
       ],
       [
        116125.182,
        403667.031
       ],
       [
        116125.53300000355,
        403666.241
       ],
       [
        116125.836,
        403665.432
       ],
       [
        116126.08900000528,
        403664.6060000025
       ],
       [
        116126.29199999571,
        403663.7659999989
       ],
       [
        116126.44399999827,
        403662.91500000656
       ],
       [
        116126.54400000349,
        403662.0560000017
       ],
       [
        116141.84500000253,
        403656.316
       ],
       [
        116173.798,
        403648.11
       ],
       [
        116449.83399999514,
        403579.2179999985
       ],
       [
        116314.015000001,
        403344.9840000011
       ],
       [
        116432.507,
        403318.18
       ],
       [
        116516.44799999893,
        403356.969000001
       ],
       [
        116535.05600000545,
        403391.654
       ],
       [
        116620.239,
        403370.70699999854
       ],
       [
        116628.38600000367,
        403322.98800000176
       ],
       [
        116769.70499999449,
        403285.35
       ],
       [
        116732.08700000495,
        403132.3020000048
       ],
       [
        116457.48400000855,
        403194.88400000334
       ],
       [
        116469.71600000188,
        403248.5590000041
       ],
       [
        116436.99499999732,
        403284.4129999988
       ],
       [
        116314.54300000519,
        403311.517000001
       ],
       [
        116243.0579999946,
        403188.7470000014
       ],
       [
        116446.79700000212,
        403134.3240000047
       ],
       [
        116451.41,
        403132.8490000032
       ],
       [
        116455.85800000653,
        403130.93499999866
       ],
       [
        116460.10100000352,
        403128.599
       ],
       [
        116464.097,
        403125.864
       ],
       [
        116467.81,
        403122.75499999896
       ],
       [
        116471.20500000566,
        403119.3020000011
       ],
       [
        116474.25,
        403115.5360000022
       ],
       [
        116476.91699999571,
        403111.49300000444
       ],
       [
        116479.17900000513,
        403107.21200000495
       ],
       [
        116481.0169999972,
        403102.73099999875
       ],
       [
        116482.4130000025,
        403098.09400000423
       ],
       [
        116483.35400000215,
        403093.3429999985
       ],
       [
        116483.831,
        403088.524
       ],
       [
        116483.83900000528,
        403083.6810000017
       ],
       [
        116483.379000001,
        403078.86
       ],
       [
        116482.45400000364,
        403074.1070000045
       ],
       [
        116476.97500000894,
        403051.77
       ],
       [
        116589.59499999881,
        403023.033
       ],
       [
        116477.822000001,
        402579.15800000355
       ],
       [
        116495.6790000014,
        402574.47900000215
       ],
       [
        116481.432,
        402518.322000001
       ],
       [
        116526.60499999672,
        402505.774
       ],
       [
        116502.73,
        402413.33
       ],
       [
        116469.11600000784,
        402423.89400000125
       ],
       [
        116467.7310000062,
        402418.7010000013
       ],
       [
        116455.642000001,
        402390.99
       ],
       [
        116448.49100000411,
        402362.74300000444
       ],
       [
        116445.12600000575,
        402349.4510000013
       ],
       [
        116423.14800000563,
        402354.9970000051
       ],
       [
        116427.27800000459,
        402371.364
       ],
       [
        116422.43000001,
        402372.5870000012
       ],
       [
        116423.89800000191,
        402378.4050000049
       ],
       [
        116397.669,
        402385.024
       ],
       [
        116296.994,
        402410.195000004
       ],
       [
        116132.05,
        402390.6140000038
       ],
       [
        116125.89200000465,
        402372.65200000256
       ],
       [
        116600.66799999774,
        402227.9679999985
       ],
       [
        116576.61700000241,
        402131.45
       ],
       [
        116475.5840000026,
        402161.7659999989
       ],
       [
        116467.62700000405,
        402164.143
       ],
       [
        116423.252,
        402178.5450000055
       ],
       [
        116404.63300000131,
        402119.125
       ],
       [
        116496.6390000023,
        402091.7529999986
       ],
       [
        116470.32200000808,
        401992.826000005
       ],
       [
        116472.4490000084,
        401992.1590000056
       ],
       [
        116532.89700000733,
        401973.21
       ],
       [
        116568.0520000048,
        401961.00200000405
       ],
       [
        116615.958000001,
        401943.83
       ],
       [
        116587.31799999624,
        401857.28599999845
       ],
       [
        116549.3929999955,
        401833.292
       ],
       [
        116440.64699999616,
        401693.2
       ],
       [
        116290.69700000808,
        401481.831
       ],
       [
        116289.24100000784,
        401479.58100000396
       ],
       [
        116287.81899999455,
        401477.309
       ],
       [
        116286.43,
        401475.0160000026
       ],
       [
        116285.075,
        401472.70400000364
       ],
       [
        116283.75499999896,
        401470.371
       ],
       [
        116282.469000001,
        401468.02000001
       ],
       [
        116281.2180000022,
        401465.64900000393
       ],
       [
        116280.00200000405,
        401463.261
       ],
       [
        116278.82100000232,
        401460.8539999984
       ],
       [
        116277.67700000107,
        401458.43100000545
       ],
       [
        116276.56799999624,
        401455.9910000041
       ],
       [
        116275.49500000477,
        401453.53400000185
       ],
       [
        116274.45900000632,
        401451.061999999
       ],
       [
        116273.45899999514,
        401448.575
       ],
       [
        116272.49600000307,
        401446.074000001
       ],
       [
        116271.57100000605,
        401443.5590000041
       ],
       [
        116270.75099999458,
        401440.838
       ],
       [
        116269.84299999848,
        401438.1460000016
       ],
       [
        116268.84900000319,
        401435.4840000011
       ],
       [
        116267.76900000498,
        401432.8560000025
       ],
       [
        116266.6039999947,
        401430.26399999857
       ],
       [
        116265.35600000247,
        401427.7120000012
       ],
       [
        116264.02600000426,
        401425.2010000013
       ],
       [
        116262.61499999464,
        401422.735
       ],
       [
        116261.125,
        401420.316
       ],
       [
        116259.557,
        401417.9459999986
       ],
       [
        116257.91299999505,
        401415.62800000235
       ],
       [
        116256.1959999986,
        401413.3650000021
       ],
       [
        116254.40500000864,
        401411.1590000056
       ],
       [
        116252.544,
        401409.01199999824
       ],
       [
        116250.61500000209,
        401406.926
       ],
       [
        116248.61900000274,
        401404.904
       ],
       [
        116202.333000001,
        401355.15
       ],
       [
        116198.507,
        401283.1979999989
       ],
       [
        116278.83900000155,
        401276.69200000167
       ],
       [
        116274.631000001,
        401229.2340000048
       ],
       [
        116151.45600000396,
        401227.70300000533
       ],
       [
        116155.28099999577,
        401289.704
       ],
       [
        116125.06100000441,
        401290.0870000012
       ],
       [
        116126.94500000402,
        401333.816
       ],
       [
        115777.917,
        401322.8449999988
       ],
       [
        115754.2340000011,
        401317.751000002
       ],
       [
        115877.792,
        401098.145
       ],
       [
        115826.35,
        401094.09
       ],
       [
        115675.28,
        401084.17000001
       ],
       [
        115641.78400000557,
        401081.34099999815
       ],
       [
        115562.65300000831,
        401074.6570000015
       ],
       [
        115294.31,
        401051.99
       ],
       [
        115172.24,
        401044.91
       ],
       [
        115129.47,
        401178.414000001
       ],
       [
        115143.4,
        401208.2470000014
       ],
       [
        115085.17300000414,
        401238.82
       ],
       [
        115164.58500000462,
        401403.4620000012
       ],
       [
        115079.44200000912,
        401417.4510000013
       ],
       [
        115077.83499999717,
        401445.22
       ],
       [
        115076.87000001,
        401461.9
       ],
       [
        115000.0,
        401477.8
       ],
       [
        114992.68000001,
        401480.08
       ],
       [
        114992.03699999675,
        401493.0710000023
       ],
       [
        114991.917,
        401495.49400000274
       ],
       [
        114965.38,
        401500.4
       ],
       [
        114946.73200000823,
        401503.47300000116
       ],
       [
        114935.25700000301,
        401507.85300000384
       ],
       [
        114926.74,
        401512.978
       ],
       [
        114920.40899999812,
        401519.1760000028
       ],
       [
        114919.086,
        401520.412
       ],
       [
        114917.40300000831,
        401521.76199999824
       ],
       [
        114915.097,
        401525.2
       ],
       [
        114913.103,
        401528.2850000039
       ],
       [
        114907.96500000358,
        401544.02699999884
       ],
       [
        114906.71200000122,
        401559.838
       ],
       [
        114906.51700000837,
        401565.07300000265
       ],
       [
        114905.237,
        401599.43
       ],
       [
        114902.79700000212,
        401634.941
       ],
       [
        114902.83800000325,
        401641.42400000244
       ],
       [
        114902.035,
        401645.50300000235
       ],
       [
        114900.32400000468,
        401649.13500000164
       ],
       [
        114897.5350000076,
        401652.47300000116
       ],
       [
        114893.64400000498,
        401655.0520000011
       ],
       [
        114881.31300000846,
        401658.8630000092
       ],
       [
        114849.05,
        401669.29100000486
       ],
       [
        114820.29100000858,
        401677.813000001
       ],
       [
        114816.72899999842,
        401679.87100000307
       ],
       [
        114814.0540000014,
        401682.94200000167
       ],
       [
        114812.421,
        401686.2720000036
       ],
       [
        114811.49599999562,
        401689.851
       ],
       [
        114811.461,
        401693.9360000044
       ],
       [
        114824.48600000516,
        401741.1840000041
       ],
       [
        114815.88000001,
        401764.24500000104
       ],
       [
        114786.21700000763,
        401835.439
       ],
       [
        114774.722,
        401861.3950000033
       ],
       [
        114769.16,
        401874.74400000647
       ],
       [
        114768.04699999839,
        401882.53
       ],
       [
        114769.78200000525,
        401920.121
       ],
       [
        114778.39,
        402066.513000004
       ],
       [
        114814.07200000435,
        402673.31500000507
       ],
       [
        114922.22400000691,
        402634.92300000414
       ],
       [
        114942.00700000674,
        402635.8539999984
       ],
       [
        114939.71200000122,
        402674.314
       ],
       [
        115162.47599999607,
        402698.37
       ],
       [
        115450.6090000011,
        402716.0340000056
       ],
       [
        115469.67700000852,
        402891.261
       ],
       [
        115502.07599999756,
        403378.456
       ],
       [
        115459.6409999989,
        403384.0670000054
       ],
       [
        115479.8420000039,
        403467.4370000027
       ],
       [
        115560.53,
        403442.849
       ],
       [
        115659.96600000188,
        403719.65199999884
       ],
       [
        115666.8769999966,
        403815.22700000554
       ],
       [
        115771.596000001,
        403804.811999999
       ]
      ]
     ]
    ]
   }
  }
 ]
}