{
 "type": "FeatureCollection",
 "name": "hex-points",
 "features": [
  {
   "type": "Feature",
   "properties": {
    "id": "p0"
   },
   "geometry": {
    "type": "Point",
    "coordinates": [
     5.154611004957513,
     52.089389266886116
    ]
   }
  },
  {
   "type": "Feature",
   "properties": {
    "id": "p1"
   },
   "geometry": {
    "type": "Point",
    "coordinates": [
     5.155611004957513,
     52.09038926688611
    ]
   }
  },
  {
   "type": "Feature",
   "properties": {
    "id": "p2"
   },
   "geometry": {
    "type": "Point",
    "coordinates": [
     5.153611004957512,
     52.09038926688611
    ]
   }
  },
  {
   "type": "Feature",
   "properties": {
    "id": "p3"
   },
   "geometry": {
    "type": "Point",
    "coordinates": [
     4.9,
     52.0
    ]
   }
  }
 ]
}
