{
  "type": "FeatureCollection",
  "features": [
    {
      "type": "Feature",
      "properties": {
        "name": "rijnsweerd-zone-a",
        "description": "West deel Rijnsweerd"
      },
      "geometry": {
        "type": "Polygon",
        "coordinates": [
          [
            [
              138959.3,
              455606.5
            ],
            [
              139059.3,
              455606.5
            ],
            [
              139059.3,
              455806.5
            ],
            [
              138959.3,
              455806.5
            ],
            [
              138959.3,
              455606.5
            ]
          ]
        ]
      }
    }
  ]
}